name,lat,lon,staff_email_domain,website,street,postcode,city,state
"Kreiskrankenhaus Torgau ""Johann Kentmann""",51.5615645,12.984629,kkh-torgau.de,www.kkh-torgau.de/,Christianistr.,04860,Torgau,Sachsen
DIAKOMED- Diakoniekrankenhaus Chemnitzer Land gGmbH,50.8830028,12.7926678,diakomed.de,www.diakomed.de,Limbacher Str.,09232,Hartmannsdorf,Sachsen
MEDIAN Klinik Gunzenbachhof Baden-Baden,48.7486287,8.244032,median-kliniken.de,www.median-kliniken.de,Gunzenbachstraße,76530,Baden-Baden,Baden-Württemberg
Ortenau Klinikum Offenburg-Kehl,48.4761467,7.9555411,ortenau-klinikum.de,www.ortenau-klinikum.de,Ebertplatz,77654,Offenburg,Baden-Württemberg
WolfartKlinik,48.1179807,11.421919,wolfartklinik.de,www.wolfartklinik.de,Waldstr.,82166,Gräfelfing,Bayern
Sana Klinik München GmbH,48.1042723,11.5394238,sana.de,www.sana-gesundheitscampus-muenchen.de,Steinerstr.,81369,München,Bayern
Klinik Dr. Maul GmbH,48.7714915,11.4328451,klinik-dr-maul.de,www.klinik-dr-maul.de,Östliche Ringstr.,85049,Ingolstadt,Bayern
ARCUS Sportklinik,48.8977899,8.664974,sportklinik.de,www.sportklinik.de,Rastatter Str.,75119,Pforzheim,Baden-Württemberg
Frauenklinik Dr. Geisenhofer GmbH,48.1515148,11.5960485,geisenhoferklinik.de,www.geisenhoferklinik.de,Hirschauer Str.,80538,München,Bayern
VAMED Klinik Hagen-Ambrock,51.3149273,7.5148275,vamed-gesundheit.de,www.vamed-gesundheit.de/kliniken/hagen-ambrock,Ambrocker Weg,58091,"Hagen, Westfalen",Nordrhein-Westfalen
Klinik in der Zarten,47.9004917,8.1058484,klinik-in-der-zarten.de,www.klinik-in-der-zarten.de,Erlenbrucker Str.,79856,Hinterzarten,Baden-Württemberg
Winghofer Medicum,48.4803926,8.9484496,winghofer-medicum.de,www.winghofermedicum.de,Röntgenstraße,72108,Rottenburg am Neckar,Baden-Württemberg
Isar Kliniken GmbH,48.1347002,11.5650239,isarklinikum.de,www.isarklinikum.de,Sonnenstr.,80331,München,Bayern
Niels-Stensen-Kliniken St. Vinzenz-Hospital Haselünne,52.5404711,7.8742164,niels-stensen-kliniken.de,www.krankenhaus-haseluenne.de,Hammer Straße,49740,Haselünne,Niedersachsen
Berglandklinik Lüdenscheid GmbH & Co. KG,51.2072819,7.6373849,berglandklinik-luedenscheid.de,www.meine-berglandklinik-luedenscheid.de,Am Hundebrink,58511,Lüdenscheid,Nordrhein-Westfalen
Krankenhaus Landshut-Achdorf,48.6980355,12.0032895,lakumed.de,www.lakumed.de,Schloßstr.,84056,Rottenburg an der Laaber,Bayern
Paracelsus Krankenhaus Unterlegenhardt,48.7818812,8.7233692,paracelsus-krankenhaus.de,www.paracelsus-stiftung.de,Burghaldenweg,75378,Bad Liebenzell,Baden-Württemberg
St.-Marien-Hospital Marsberg,51.4650438,8.8440701,bk-marsberg.de,www.bk-marsberg.de,Marienstraße,34431,"Marsberg, Sauerland",Nordrhein-Westfalen
Arberlandklinik Zwiesel,49.0072976,13.2183653,arberlandkliniken.de,www.arberlandkliniken.de,Arberlandstr.,94227,Zwiesel,Bayern
Sankt Rochus Kliniken - Frührehabilitation Phase B,49.2199506,8.6664432,sankt-rochus-kliniken.de,www.sankt-rochus-kliniken.de,Sankt-Rochus-Allee,76669,Bad Schönborn,Baden-Württemberg
Krankenhaus Spremberg,51.5652149,14.3739244,krankenhaus-spremberg.de,www.krankenhaus-spremberg.de,Karl-Marx-Straße,03130,Spremberg (NL),Brandenburg
SRH Kurpfalzkrankenhaus Heidelberg,49.4136043,8.6538078,srh.de,www.kurpfalzkrankenhaus.de,Bonhoefferstraße,69123,Heidelberg,Baden-Württemberg
Paracelsus-Nordseeklinik Helgoland,51.876518,10.0351333,paracelsus-kliniken.de,www.paracelsus-kliniken.de/akut/helgoland/,Invasorenpfad,27498,Helgoland,Schleswig-Holstein
Evangelisches Krankenhaus Dierdorf/Selters gGmbH,50.5293206,7.7592335,khsds.de,www.krankenhaus-dierdorf-selters.de,Hachenburger Straße,56269,Dierdorf,Rheinland-Pfalz
Helios-Weißeritztal-Klinik Freital,50.9008493,13.6677577,helios-gesundheit.de,www.helios-gesundheit.de/kliniken/weisseritztal,Rabenauer Str.,01744,Dippoldiswalde,Sachsen
DIAKOVERE Henriettenstift,52.3632398,9.8282801,diakovere.de,www.diakovere.de,Schwemannstraße,30559,Hannover,Niedersachsen
Kreiskrankenhaus Emmendingen,48.1252505,7.855804,krankenhaus-emmendingen.de,www.krankenhaus-emmendingen.de,Gartenstraße,79312,Emmendingen,Baden-Württemberg
Klinik mednord GmbH,48.2018974,11.5872598,klinik-mednord.de,www.klinik-mednord.de,Heidemannstr.,80939,München,Bayern
Klinikum Fichtelgebirge gGmbH,50.0018257,12.0662375,klinikum-fichtelgebirge.de,www.klinikum-fichtelgebirge.de,Schillerhain,95615,Marktredwitz,Bayern
Clemens-August-Klinik,52.5128232,8.1066413,clemensaugust.de,www.clemensaugust.de,Wahlde,49434,Neuenkirchen-Vörden,Niedersachsen
Clemens-August-Klinik,52.5131652,8.1090349,clemensaugust.de,www.clemensaugust.de,Wahlde,49434,Neuenkirchen-Vörden,Niedersachsen
Marianne-Strauß-Klinik Behandlungszentrum Kempfenhausen gGmbH,47.9880622,11.3643046,ms-klinik.de,www.ms-klinik.de,Milchberg,82335,Berg,Bayern
Winghofer Medicum,48.4771888,8.9414347,winghofer-medicum.de,www.winghofermedicum.de,Röntgenstraße,72108,Rottenburg am Neckar,Baden-Württemberg
Universitätsklinikum Erlangen,49.599543,11.0125554,uk-erlangen.de,www.uk-erlangen.de,Maximiliansplatz,91054,Erlangen,Bayern
Universitätsklinikum Heidelberg,49.4155972,8.6663847,uni-heidelberg.de,www.klinikum.uni-heidelberg.de,Im Neuenheimer Feld,69120,Heidelberg,Baden-Württemberg
Evangelisches Klinikum Bethel gGmbH,52.0139033,8.5253601,evkb.de,www.evkb.de,Burgsteig,33617,Bielefeld,Nordrhein-Westfalen
Klinikum Fichtelgebirge gGmbH,50.1689972,12.1182996,klinikum-fichtelgebirge.de,www.klinikum-fichtelgebirge.de,Weißenbacher Str.,95100,Selb,Bayern
Helios-Weißeritztal-Klinik Freital,50.9914894,13.6454717,helios-gesundheit.de,www.helios-gesundheit.de/kliniken/weisseritztal,Bürgerstr.,01705,Freital,Sachsen
Klinik Klosterstraße GmbH,54.0787453,9.9948417,klinik-klosterstrasse.de,www.klinik-klosterstrasse.de,Klosterstraße,24536,Neumünster,Schleswig-Holstein
Evangelisches Klinikum Bethel gGmbH,52.0417494,8.5406865,evkb.de,www.evkb.de,Schildescher Straße,33611,Bielefeld,Nordrhein-Westfalen
Universitätsklinikum Augsburg AöR,48.3845961,10.8396143,uk-augsburg.de,www.uk-augsburg.de,Stenglinstr.,86156,Augsburg,Bayern
Schön Klinik Lorsch,51.377627,9.0207072,schoen-klinik.de,www.fachklinik-lorsch.de,Wilhelm-Leuschner-Straße,64653,Lorsch,Hessen
Helios-Klinik Titisee-Neustadt,47.9257773,8.1871541,helios-gesundheit.de,www.helios-gesundheit.de,Jostalstraße,79822,Titisee-Neustadt,Baden-Württemberg
Evangelische Stiftung Tannenhof,51.1816571,7.190659,stiftung-tannenhof.de,www.stiftung-tannenhof.de,Konrad-Adenauer-Straße,42853,Remscheid,Nordrhein-Westfalen
Bezirksklinikum Regensburg,49.1536854,11.71951,medbo.de,www.medbo.de,Marienstr.,92224,Amberg,Bayern
Sana Klinik München GmbH,48.1036903,11.5398032,sana.de,www.sana-gesundheitscampus-muenchen.de,Steinerstr.,81369,München,Bayern
AMEOS Klinikum Ueckermünde,53.7407362,14.0220984,ameos.de,www.ameos.eu,Ravensteinstraße,17373,Ueckermünde,Mecklenburg-Vorpommern
Maria-Theresia-Klinik,48.1266722,11.5493435,maria-theresia-klinik.de,www.maria-theresia-klinik.de,Bavariaring,80336,München,Bayern
Klinik Schöneberg,52.4987992,13.3445517,klinik-schoeneberg.de,www.klinik-hygiea.de,Fuggerstraße,10777,Berlin,Berlin
Dr. Becker Kiliani-Klinik AKUT,51.309814,7.2379577,dbkg.de,www.dbkg.de,Schwarzallee,91438,Bad Windsheim,Bayern
Universitätsklinikum Erlangen,49.5981446,11.0124965,uk-erlangen.de,www.uk-erlangen.de,Maximiliansplatz,91054,Erlangen,Bayern
Universitätsklinikum Erlangen,49.5983253,11.0117263,uk-erlangen.de,www.uk-erlangen.de,Maximiliansplatz,91054,Erlangen,Bayern
Universitätsklinikum Heidelberg,49.4168447,8.6628963,uni-heidelberg.de,www.klinikum.uni-heidelberg.de,Im Neuenheimer Feld,69120,Heidelberg,Baden-Württemberg
Universitätsklinikum Heidelberg,49.4166199,8.6628954,uni-heidelberg.de,www.klinikum.uni-heidelberg.de,Im Neuenheimer Feld,69120,Heidelberg,Baden-Württemberg
Universitätsklinikum Heidelberg,49.4169203,8.662535,uni-heidelberg.de,www.klinikum.uni-heidelberg.de,Im Neuenheimer Feld,69120,Heidelberg,Baden-Württemberg
Martini-Klinik am UKE,53.5890661,9.9713778,uke.de,www.martini-klinik.de,Martinistraße,20246,Hamburg,Hamburg
"OCM Klinik GmbH, Orthopädische Chirurgie München",48.1040115,11.5392429,ocm-muenchen.de,www.ocm-muenchen.de,Steinerstr.,81369,München,Bayern
Akutklinik Am schönen Moos,48.0136402,9.4828454,akutklinik-badsaulgau.de,www.akutklinik-badsaulgau.de,Am Schönen Moos,88348,Bad Saulgau,Baden-Württemberg
Universitätsklinikum Bonn,50.7023279,7.1022143,ukbonn.de,www.ukbonn.de,Venusberg-Campus,53127,Bonn,Nordrhein-Westfalen
Gertrudis-Klinik Parkinson-Zentrum GmbH,50.5330711,8.3084106,parkinson.de,www.parkinson.de,Karl-Ferdinand-Broll-Straße,35638,Leun,Hessen
m&i-Fachkliniken Hohenurach (Akutklinik),48.5043782,9.376891,fachkliniken-hohenurach.de,www.fachkliniken-hohenurach.de,Immanuel-Kant-Straße,72574,Bad Urach,Baden-Württemberg
m&i-Fachkliniken Hohenurach (Akutklinik),48.5064833,9.3762711,fachkliniken-hohenurach.de,www.fachkliniken-hohenurach.de,Immanuel-Kant-Straße,72574,Bad Urach,Baden-Württemberg
Klinikum Leverkusen,51.0317792,7.0343144,klinikum-lev.de,www.klinikum-lev.de,Am Gesundheitspark,51375,Leverkusen,Nordrhein-Westfalen
Luisenklinik TK RZ,47.7370726,8.9771061,luisenklinik.de,www.luisenklinik.de,Strandbadstraße,78315,Radolfzell am Bodensee,Baden-Württemberg
Eilenriede Klinik Hannover,52.3955081,9.7464581,eilenriedeklinik.de,www.eilenriedeklinik.de,Lister Kirchweg,30163,Hannover,Niedersachsen
Danuvius Klinik GmbH,48.5184792,11.4971833,danuviusklinik.de,www.danuviusklinik.de,Preysingstr.,85049,Ingolstadt,Bayern
Facharztklinik Hamburg,53.5883283,9.9727691,facharztklinik-hamburg.de,www.facharztklinik-hamburg.de,Martinistraße,20251,Hamburg,Hamburg
Universitätsklinikum Erlangen,49.5954742,11.0254189,uk-erlangen.de,www.uk-erlangen.de,Maximiliansplatz,91054,Erlangen,Bayern
Pfalzklinikum für Psychiatrie,49.6304177,7.8143081,pfalzklinikum.de,www.pfalzklinikum.de,Albert-Schweitzer-Straße,67655,Kaiserslautern,Rheinland-Pfalz
ASKLEPIOS Fachklinikum Göttingen,51.5612749,9.9046376,asklepios.com,www.asklepios.com,Rosdorfer Weg,37081,Göttingen,Niedersachsen
ASKLEPIOS-ASB Klinik Radeberg,48.1280473,8.2315536,asklepios.com,www.asklepios.com/radeberg/,Pulsnitzer Str.,01454,Radeberg,Sachsen
"Kliniken Ostallgäu-Kaufbeuren, AöR des Landkreises Ostallgäu und der Stadt Kaufbeuren - Klinik Füssen",47.5668266,10.7045526,kliniken-oal-kf.de,www.kliniken-oal-kf.de,Stadtbleiche,87629,Füssen,Bayern
Rheinhessen-Fachklinik,50.0153919,8.239119,landeskrankenhaus.de,www.rheinhessen-fachklinik-alzey.de,Hartmühlenweg,55122,Mainz am Rhein,Rheinland-Pfalz
Diakonie Klinikum Neunkirchen gGmbH Kreuznacher Diakonie,49.8367828,7.863625,kreuznacherdiakonie.de,www.kreuznacherdiakonie.de,Brunnenstraße,66538,Neunkirchen,Saarland
Elisabeth-Krankenhaus Essen GmbH,51.4995123,7.0058575,contilia.de,www.contilia.de/einrichtungen/elisabeth-krankenhaus-essen.de,Klara-Kopp-Weg,45138,"Essen, Ruhr",Nordrhein-Westfalen
Klinik 2000,48.0238925,7.8144239,praxisklinik2000.com,www.praxisklinik2000.com,Wirthstr.,79110,Freiburg,Baden-Württemberg
Klinik Dr. Römer - Akutklinik für Psychosomatik und Psychotherapie,48.7362333,8.7321104,roemerklinik.de,www.klinik-dr-roemer.de,Altburger Weg,75365,Calw,Baden-Württemberg
Luisenklinik TK RZ,48.7712998,9.1721348,luisenklinik.de,www.luisenklinik.de,Strandbadstraße,78315,Radolfzell am Bodensee,Baden-Württemberg
Klinikum Stuttgart,48.7916756,9.1789558,klinikum-stuttgart.de,www.klinikum-stuttgart.de,Türlenstraße,70191,Stuttgart,Baden-Württemberg
Katholisches Klinikum Lünen/Werne,51.6188451,7.5180027,klinikum-luenen.de,www.klinikum-luenen.de,Altstadtstraße,44534,Lünen,Nordrhein-Westfalen
Universitätsklinikum Hamburg-Eppendorf (UKE),53.5907493,9.9746838,uke.de,www.uke.de,Martinistraße,20251,Hamburg,Hamburg
Charité Universitätsmedizin Berlin,52.5421518,13.342863,charite.de,www.charite.de,Augustenburger Platz,13353,Berlin,Berlin
Bürgerhospital und Clementine Kinderhospital,50.1304097,8.6862871,buergerhospital-ffm.de,www.buergerhospital-ffm.de,Nibelungenallee,60318,Frankfurt,Hessen
Vivantes Komfortklinik GmbH,52.5897365,13.3077982,vivantes.de,www.vivantes.de,Aroser Allee,13437,Berlin,Berlin
Frankfurter Rotkreuz-Kliniken,50.1198358,8.6882513,rotkreuzkliniken.de,www.rotkreuzkliniken.de,Scheffelstraße,60318,Frankfurt,Hessen
Sankt Katharinen Krankenhaus,50.1360938,8.7108513,sankt-katharinen-ffm.de,www.sankt-katharinen-ffm.de,Seckbacher Landstraße,60389,Frankfurt,Hessen
Berufsgenossenschaftliche Unfallklinik,50.1447874,8.708794,bgu-frankfurt.de,www.bgu-frankfurt.de,Friedberger Landstraße,60389,Frankfurt,Hessen
ASKLEPIOS Kliniken Langen-Seligenstadt GmbH,49.9983996,8.6840079,asklepios.com,www.asklepios.com/langen,Röntgenstraße,63225,Langen,Hessen
Robert-Bosch-Krankenhaus,48.8142575,9.1862984,rbk.de,www.rbk.de,Auerbachstraße,70376,Stuttgart,Baden-Württemberg
Klinik König-Ludwig-Haus,49.7822437,9.9485815,koenig-ludwig-haus.de,www.koenig-ludwig-haus.de,Brettreichstr.,97074,Würzburg,Bayern
Evangelisches Krankenhaus Kalk gGmbH,50.9412983,7.0093887,evkk.de,www.evkk.de,Buchforststraße,51103,Köln,Nordrhein-Westfalen
Helios Klinik Müllheim,48.1443992,11.4541663,helios-gesundheit.de,www.helios-gesundheit.de,Heliosweg,79379,Müllheim,Baden-Württemberg
Klinikum Dritter Orden,48.1657409,11.5050996,dritter-orden.de,www.dritter-orden.de,Menzinger Str.,80638,München,Bayern
Städtisches Klinikum Braunschweig,52.2747448,10.5037949,klinikum-braunschweig.de,www.klinikum-braunschweig.de,Celler Straße,38114,Braunschweig,Niedersachsen
Krankenhaus Leonberg,48.802829,9.0003844,klinikverbund-suedwest.de,www.klinikverbund-suedwest.de,Rutesheimer Straße,71229,Leonberg,Baden-Württemberg
Kliniken des Main-Taunus-Kreises GmbH,50.1508989,8.5145784,varisano.de,www.varisano.de/kliniken-mtk,Kronberger Straße,65812,Bad Soden,Hessen
Städtisches Krankenhaus Kiel GmbH,54.322936,10.1164429,krankenhaus-kiel.de,www.krankenhaus-kiel.de,Chemnitzstraße,24116,Kiel,Schleswig-Holstein
Krankenhaus Bad Oeynhausen,52.1935285,8.7974217,muehlenkreiskliniken.de,www.muehlenkreiskliniken.de,Wielandstraße,32545,Bad Oeynhausen,Nordrhein-Westfalen
St. Anna-Klinik,48.8072049,9.2303812,st-anna-klinik.de,www.st-anna-klinik.de,Obere Waiblinger Str.,70374,Stuttgart,Baden-Württemberg
Städtische Kliniken Mönchengladbach GmbH - Elisabeth-Krankenhaus Rheydt,51.1581384,6.4186197,sk-mg.de,www.sk-mg.de,Hubertusstraße,41239,Mönchengladbach,Nordrhein-Westfalen
Privatkrankenanstalt Wiesbaden,49.461705,12.4120378,asklepios.com,www.asklepios.com/wiesbaden/,Geisenheimer Straße,65197,Wiesbaden,Hessen
ASKLEPIOS Südpfalzkliniken,49.0861819,8.2008986,asklepios.com,www.asklepios.com,An Fronte Karl,76726,Germersheim,Rheinland-Pfalz
Helios Klinik Idstein,50.208746,8.2638589,helios-gesundheit.de,www.helios-gesundheit.de,Robert-Koch-Straße,65510,Idstein,Hessen
Klinikum der Stadt Ludwigshafen am Rhein gGmbH,49.48982,8.4258073,klilu.de,www.klilu.de,Bremserstraße,67063,Ludwigshafen am Rhein,Rheinland-Pfalz
Klinik St. Marienstift,52.1373597,11.6004457,st-marienstift.de,www.st-marienstift.de,Harsdorfer Straße,39110,Magdeburg,Sachsen-Anhalt
Privatklinik Dr. Amelung GmbH,50.1894528,8.4688336,klinik-amelung.de,www.klinik-amelung.de,Altkönigstraße,61462,Königstein,Hessen
Marien Hospital Dortmund-Hombruch,51.4785067,7.4421086,marien-hospital-dortmund.de,www.marien-hospital-dortmund.de,Gablonzstraße,44225,Dortmund,Nordrhein-Westfalen
GFO Klinik Langenfeld,50.8273822,6.9004652,gfo-online.de,www.kliniken-mettmann-sued.gfo-online.de,Klosterstraße,40764,Langenfeld (Rheinland),Nordrhein-Westfalen
Klinikum rechts der Isar der Technischen Universität München,48.1378637,11.6015429,tum.de,www.mri.tum.de,Biedersteiner Str.,80802,München,Bayern
Kliniken der Stadt Köln Standort Riehl,50.9627397,6.9664631,kliniken-koeln.de,www.kliniken-koeln.de,Amsterdamerstr.,50735,Köln,Nordrhein-Westfalen
Klinikum Wilhelmshaven gGmbH,53.5454757,8.0828256,klinikum-whv.de,www.klinikum-whv.de,Friedrich-Paffrath-Straße,26389,Wilhelmshaven,Niedersachsen
ASKLEPIOS Klinik St. Georg,53.559731,10.0180894,asklepios.com,www.asklepios.com/hamburg/sankt-georg/,Lohmühlenstraße,20099,Hamburg,Hamburg
MEDIAN Klinik Grünheide Fach-KH für neurolog. Früreha. Phase B,52.4239444,13.8131952,median-kliniken.de,www.median-kliniken.de,An der REHA-Klinik,15537,Grünheide (Mark),Brandenburg
Bethlehem Gesundheitszentrum Stolberg gGmbH,50.7727068,6.2289172,bethlehem.de,www.bethlehem.de,Steinfeldstraße,52222,Stolberg (Rheinland),Nordrhein-Westfalen
Helios Klinikum Wuppertal,51.2752817,7.1738834,helios-gesundheit.de,www.helios-gesundheit.de/kliniken/wuppertal,Heusnerstraße,42283,Wuppertal,Nordrhein-Westfalen
Berufsgenossenschaftliche Kliniken Bergmannstrost Halle,51.4602457,11.9865819,bergmannstrost.de,www.bergmannstrost.com,Merseburger Straße,06112,Halle (Saale),Sachsen-Anhalt
Klinikum Hochsauerland GmbH,51.425983,7.9996734,klinikum-hochsauerland.de,www.klinikum-hochsauerland.de,Stolte Ley,59759,"Arnsberg, Westfalen",Nordrhein-Westfalen
Immanuel Klinik Rüdersdorf,52.4546198,13.7729168,immanuel.de,www.immanuel.de,Seebad,15562,Rüdersdorf bei Berlin,Brandenburg
Evangelisches Krankenhaus Paul-Gerhardt-Stift,52.5625389,13.1560605,pgdiakonie.de,www.pgdiakonie.de,Paul-Gerhardt-Straße,06886,Lutherstadt Wittenberg,Sachsen-Anhalt
Regio Kliniken GmbH,53.6540488,9.81189,sana.de,www.sana.de/regiokliniken,Fahltskamp,25421,Pinneberg,Schleswig-Holstein
Medical Park Bad Camberg,50.2974825,8.2828246,medicalpark.de,www.medicalpark.de,Obertorstraße,65520,Bad Camberg,Hessen
Klinikum Bayreuth GmbH,49.9435669,11.5323759,klinikum-bayreuth.de,www.klinikum-bayreuth.de,Hohe Warte,95445,Bayreuth,Bayern
Helios Klinikum Schwelm GmbH,51.2937271,7.3123069,helios-gesundheit.de,www.helios-gesundheit.de/kliniken/schwelm,Dr.-Moeller-Straße,58332,Schwelm,Nordrhein-Westfalen
Kreiskrankenhaus Greiz GmbH,50.6628684,12.1990258,hospital-greiz.de,www.kreiskrankenhaus-greiz.de,Wichmannstraße,07973,Greiz,Thüringen
St. Vinzenz Klinik Pfronten im Allgäu GmbH,47.5843258,10.5560213,vinzenz-klinik.de,,Kirchenweg,87459,Pfronten,Bayern
Marien-Hospital Euskirchen GmbH,50.6424263,6.7910058,marien-hospital.com,www.marien-hospital.com,Gottfried-Disse-Straße,53879,Euskirchen,Nordrhein-Westfalen
Kliniken an der Paar Krankenhaus Friedberg,48.3564008,10.9863269,klipa.de,www.klipa.de,Herrgottsruhstr.,86316,Friedberg,Bayern
Klinikum Bayreuth GmbH,49.9684122,11.5839674,klinikum-bayreuth.de,www.klinikum-bayreuth.de,Hohe Warte,95445,Bayreuth,Bayern
Klinikum Wolfsburg,52.4135714,10.7683863,wolfsburg.de,www.klinikum-wolfsburg.de,Sauerbruchstraße,38440,Wolfsburg,Niedersachsen
Universitätsklinikum Heidelberg,49.4130517,8.6696257,uni-heidelberg.de,www.klinikum.uni-heidelberg.de,Im Neuenheimer Feld,69120,Heidelberg,Baden-Württemberg
Kreiskrankenhaus Wolgast,54.0523505,13.7659644,kreiskrankenhaus-wolgast.de,www.kreiskrankenhaus-wolgast.de,Chausseestraße,17438,Wolgast,Mecklenburg-Vorpommern
Klinikum Magdeburg gGmbH,52.157752,11.5817958,klinikum-magdeburg.de,www.klinikum-magdeburg.de,Birkenallee,39130,Magdeburg,Sachsen-Anhalt
Nierenzentrum Heidelberg,49.4141468,8.665817,nierenzentrum-heidelberg.com,www.nierenzentrum-heidelberg.com,Im Neuenheimer Feld,69120,Heidelberg,Baden-Württemberg
Diakonissen-Stiftungs-Krankenhaus Speyer,49.3109941,8.4346812,diakonissen.de,www.diakonissen.de,Paul-Egell-Straße,67346,Speyer,Rheinland-Pfalz
Kliniken des Landkreises Bamberg,49.978936,11.0379438,gkg-bamberg.de,www.juraklinik-schesslitz.de,Am Eichelberg,96138,Burgebrach,Bayern
MEDIAN Klinik Berus,51.099723,6.8161483,median-kliniken.de,https://www.median-kliniken.de/de/median-zentrum-berus/,Orannastraße,66802,Überherrn-Berus,Saarland
Ev. Krankenhaus Mettmann GmbH,51.2505231,6.9698152,evk-mettmann.de,www.evk-mettmann.de,Gartenstraße,40822,Mettmann,Nordrhein-Westfalen
"Martin-Luther-Universität Halle-Wittenberg, Universitätsklinikum Halle (Saale)",51.5017665,11.936832,uni-halle.de,www.medizin.uni-halle.de,Ernst-Grube-Straße,06120,Halle (Saale),Sachsen-Anhalt
Sana Kliniken Lübeck GmbH,51.5274084,14.000652,sana.de,www.sana.de/luebeck,Am Dreilingsberg,23570,Lübeck,Schleswig-Holstein
GPR Klinikum Rüsselsheim,49.9828613,8.4251799,gp-ruesselsheim.de,www.gp-ruesselsheim.de,August-Bebel-Straße,65428,Rüsselsheim,Hessen
Klinikum Nordfriesland gGmbH - Klinik Husum und Klinik Niebüll,54.4833158,9.050167,klinikum-nf.de,www.klinikum-nf.de/kliniken-praxen/,Erichsenweg,25813,Husum,Schleswig-Holstein
Kliniken Dr. Erler gGmbH Fachkrankenhaus für Orthopädie und Chirurgie,49.453782,11.0676359,erler-klinik.de,www.erler-klinik.de,Kontumazgarten,90429,Nürnberg,Bayern
Klinikum Esslingen,48.7374468,9.3263819,klinikum-esslingen.de,www.klinikum-esslingen.de,Hirschlandstraße,73730,Esslingen am Neckar,Baden-Württemberg
Gesundheitszentrum Bitterfeld/Wolfen gGmbH,51.6338047,12.3338957,gzbiwo.de,www.gzbiwo.de,Friedrich-Ludwig-Jahn-Straße,06749,Bitterfeld,Sachsen-Anhalt
Oberberg Fachklinik Rhein-Jura,52.4986248,13.333455,oberbergkliniken.de,www.oberbergkliniken.de,Schneckenhalde,79713,Bad Säckingen,Baden-Württemberg
Klinikum Peine gGmbH,52.3013824,10.2390635,klinikum-peine.de,www.klinikum-peine.de,Virchowstraße,31226,Peine,Niedersachsen
Lungenklinik Neustadt,51.5601724,10.8401532,doceins.de,www.doceins.de/neustadt/,Badestraße,99768,Harztor-Neustadt,Thüringen
St. Georg Klinikum Eisenach gGmbH,50.9885958,10.316079,stgeorgklinikum.de,www.stgeorgklinikum.de,Mühlhäuser Straße,99817,Eisenach,Thüringen
Bezirksklinikum Regensburg,48.9979343,12.08788,medbo.de,www.medbo.de,Universitätsstr.,93053,Regensburg,Bayern
Krankenhaus Vilsbiburg,48.4449008,12.3602427,lakumed.de,www.lakumed/vilsbiburg.de,Krankenhausstr.,84137,Vilsbiburg,Bayern
Zentrum für Psychiatrie Emmendingen,48.1153595,7.8685622,zfp-emmendingen.de,www.zfp-emmendingen.de,Kartäuserstraße,79102,Freiburg im Breisgau,Baden-Württemberg
Psychiatrisches Zentrum Nordbaden Zentrum für Psychiatrie Wiesloch,49.3035368,8.7066767,pzn-wiesloch.de,www.pzn-wiesloch.de,Heidelberger Straße,69168,Wiesloch,Baden-Württemberg
Städtisches Klinikum Braunschweig,52.2379093,10.5476076,klinikum-braunschweig.de,www.klinikum-braunschweig.de,Salzdahlumer Straße,38126,Braunschweig,Niedersachsen
Bezirksklinikum Obermain,50.0494937,10.9712418,gebo-med.de,www.gebo-med.de/bezirksklinikum-obermain,Gustav-Hirschfeld-Ring,96450,Coburg,Bayern
Universitätsklinikum Köln AöR,50.9251984,6.919302,uk-koeln.de,www.uk-koeln.de,Buchforststraße,51103,Köln,Nordrhein-Westfalen
Bergmannsheil und Kinderklinik Buer gGmbH,51.5707569,7.0606777,bergmannsheil-buer.de,www.bergmannsheil-buer.de,Schernerweg,45894,Gelsenkirchen,Nordrhein-Westfalen
KRH-Klinikum Robert Koch Gehrden,52.3040407,9.5978338,krh.eu,www.krh.eu,Von-Reden-Straße,30989,Gehrden,Niedersachsen
KRH-Klinikum Nordstadt,52.3801602,9.9838359,krh.de,www.krh.de,Haltenhoffstraße,30167,Hannover,Niedersachsen
Helios Klinikum Erfurt GmbH,50.9926769,11.0130251,helios-gesundheit.de,www.helios-gesundheit.de/standorte-angebote/kliniken/erfurt/,Nordhäuser Straße,99089,Erfurt,Thüringen
Städtisches Klinikum Lüneburg gGmbH,53.2402005,10.3952503,klinikum-lueneburg.de,www.klinikum-lueneburg.de,Bögelstraße,21339,Lüneburg,Niedersachsen
AGAPLESION Diakonieklinikum Rotenburg gGmbH,53.10524,9.4134232,diako-online.de,www.diako-online.de,Elise-Averdieck-Straße,27356,Rotenburg (Wümme),Niedersachsen
Klinikum Mutterhaus der Borromäerinnen Trier,49.7543938,6.6310015,mutterhaus.de,www.mutterhaus.de,Feldstraße,54290,Trier,Rheinland-Pfalz
Vitos Gießen-Marburg gGmbH,50.5773934,8.7011438,vitos-giessen-marburg.de,www.vitos-giessen-marburg.de,Licher Straße,35394,Gießen,Hessen
Helios Klinikum Gifhorn GmbH,52.4227073,13.2541807,helios-gesundheit.de,www.helios-gesundheit.de,Campus,38518,Gifhorn,Niedersachsen
ASKLEPIOS Paulinen Klinik Wiesbaden,50.0718304,8.2269773,asklepios.com,www.asklepios.com/wiesbaden,Geisenheimer Straße,65197,Wiesbaden,Hessen
St.-Antonius-Hospital gGmbH Eschweiler,50.8184661,6.2642569,sah-eschweiler.de,www.sah-eschweiler.de,Dechant-Deckers-Straße,52249,"Eschweiler, Rheinland",Nordrhein-Westfalen
AWO Fachkrankenhaus Jerichow,51.9041114,11.7681742,awo-sachsenanhalt.de,www.awo-sachsenanhalt.de/,Kirchhofstraße,39288,Burg bei Magdeburg,Sachsen-Anhalt
Krankenhaus St. Barbara Schwandorf,49.3162602,12.1139443,barmherzige-schwandorf.de,www.barmherzige-schwandorf.de,Steinberger Str.,92421,Schwandorf,Bayern
LVR-Klinik Viersen,51.2911266,6.3550015,lvr.de,www.klinik-viersen.lvr.de,Vom-Bruck-Platz,47805,Krefeld,Nordrhein-Westfalen
Universitätsklinikum Magdeburg,52.129445,11.6177219,ovgu.de,www.med.uni-magdeburg.de,Gerhart-Hauptmann-Straße,39108,Magdeburg,Sachsen-Anhalt
LVR-Klinik Mönchengladbach,51.1712076,6.4372446,lvr.de,www.klinik-moenchengladbach.lvr.de,Heinrich-Pesch-Straße,41239,Mönchengladbach,Nordrhein-Westfalen
Kliniken des Landkreises Lörrach,47.6143421,7.6583697,klinloe.de,www.klinloe.de,Feldbergstraße,79539,Lörrach,Baden-Württemberg
AKK Altonaer Kinderkrankenhaus gGmbH,53.5521531,9.9130178,kinderkrankenhaus.net,www.kinderkrankenhaus.net/,Bleickenallee,22763,Hamburg,Hamburg
Gemeinschaftsklinikum Mittelrhein gGmbH,50.3561716,7.565562,gk.de,www.gk.de,Johannes-Müller-Straße,56068,Koblenz,Rheinland-Pfalz
DIAKOVERE Annastift,52.3707439,9.8098058,diakovere.de,www.diakovere.de,Anna-von-Borries-Straße,30625,Hannover,Niedersachsen
MEDIAN Klinik Odenwald - Fachkrankenhaus,49.8309063,9.0155212,median-kliniken.de,www.median-kliniken.de/de/median-klinik-odenwald-fachkrankenhaus,Ernst-Ludwig-Straße,64747,Breuberg,Hessen
Klinikum Lippe GmbH,51.9412451,8.8797905,klinikum-lippe.de,www.klinikum-lippe.de,Röntgenstraße,32756,Detmold,Nordrhein-Westfalen
Städtisches Klinikum Dessau,51.8373598,12.2265922,klinikum-dessau.de,www.klinikum-dessau.de,Auenweg,06847,Dessau-Roßlau,Sachsen-Anhalt
ASKLEPIOS Klinik Sankt Augustin GmbH,50.7755886,7.1816343,asklepios.com,www.asklepios.com/sankt-augustin,Arnold-Janssen-Straße,53757,Sankt Augustin,Nordrhein-Westfalen
Vivantes Komfortklinik GmbH,52.4620771,13.3465501,vivantes.de,www.vivantes.de,Aroser Allee,13437,Berlin,Berlin
Klinikum Dortmund gGmbH,51.5083612,7.4574824,klinikumdo.de,www.klinikumdo.de,Beurhausstraße,44137,Dortmund,Nordrhein-Westfalen
DRK Krankenhaus Chemnitz-Rabenstein,50.8208895,12.8250637,drk-khs.de,rab.drk-khs.de,Unritzstr.,09117,Chemnitz,Sachsen
Gemeinschaftskrankenhaus Herdecke,51.4111022,7.3989687,gemeinschaftskrankenhaus.de,www.gemeinschaftskrankenhaus.de,Gerhard-Kienle-Weg,58313,"Herdecke, Ruhr",Nordrhein-Westfalen
ASKLEPIOS Klinik Barmbek,53.6065667,10.0367453,asklepios.com,www.asklepios.com/hamburg/barmbek/,Rübenkamp,22307,Hamburg,Hamburg
m&i-Fachklinik Bad Liebenstein,50.8139394,10.3539811,fachklinik-bad-liebenstein.de,www.fachklinik-bad-liebenstein.de,Kurpromenade,36448,Bad Liebenstein,Thüringen
Schön Klinik Rendsburg-Eckernförde SE & Co. KG,54.2972507,9.6575501,schoen-klinik.de,www.schoen-klinik.de/rendsburg,Lilienstraße,24768,Rendsburg,Schleswig-Holstein
Rhein-Maas Klinikum GmbH,50.8146199,6.14266,rheinmaasklinikum.de,www.rheinmaasklinikum.de,Mauerfeldchen,52146,Würselen,Nordrhein-Westfalen
Universitätsmedizin Rostock,54.0900578,12.1200091,uni-rostock.de,www.med.uni-rostock.de,Gehlsheimer Straße,18147,Rostock,Mecklenburg-Vorpommern
KMG Klinikum Luckenwalde,53.148881,12.1692118,kmg-kliniken.de,www.kmg-kliniken.de/kmg-klinikum-luckenwalde,Saarstraße,14943,Luckenwalde,Brandenburg
Universitätsmedizin Rostock,54.1013841,12.1332011,uni-rostock.de,www.med.uni-rostock.de,Gehlsheimer Straße,18147,Rostock,Mecklenburg-Vorpommern
LVR-Klinik Düren,50.8169127,6.4829758,lvr.de,www.klinik-dueren.lvr.de,Meckerstraße,52353,"Düren, Rheinland",Nordrhein-Westfalen
Universitätsmedizin Rostock,54.0842389,12.1014314,uni-rostock.de,www.med.uni-rostock.de,Gehlsheimer Straße,18147,Rostock,Mecklenburg-Vorpommern
Universitätsmedizin Rostock,54.0902862,12.1197286,uni-rostock.de,www.med.uni-rostock.de,Gehlsheimer Straße,18147,Rostock,Mecklenburg-Vorpommern
Krankenhaus Düren gGmbH,50.8081304,6.4978276,krankenhaus-dueren.de,www.krankenhaus-dueren.de,Roonstr.,52351,"Düren, Rheinland",Nordrhein-Westfalen
Benedictus Krankenhaus Tutzing GmbH & Co. KG,47.9070289,11.2766051,krankenhaus-tutzing.de,www.krankenhaus-tutzing.de,Bahnhofstr.,82327,Tutzing,Bayern
MEDIAN Klinik Berus,52.1991657,8.7907481,median-kliniken.de,https://www.median-kliniken.de/de/median-zentrum-berus/,Orannastraße,66802,Überherrn-Berus,Saarland
Johanniter - Klinik für Geriatrie Geesthacht,52.1995132,8.7890577,johanniter.de,www.johanniter.de/johanniter-kliniken/,Johannes-Ritter-Straße,21502,Geesthacht,Schleswig-Holstein
ASKLEPIOS Klinik Parchim,53.9217282,10.6996153,asklepios.com,www.asklepios.com,John-Brinckmann-Straße,19370,Parchim,Mecklenburg-Vorpommern
MEDIAN Klinik NRZ Wiesbaden,50.091484,8.2662392,median-kliniken.de,www.median-kliniken.de/de/median-klinik-nrz-wiesbaden,Aukammallee,65191,Wiesbaden,Hessen
Universitätsklinikum Erlangen,49.5983319,11.0143043,uk-erlangen.de,www.uk-erlangen.de,Maximiliansplatz,91054,Erlangen,Bayern
Klinikum Landau-Südliche Weinstraße,49.205821,8.1040769,klinikum-ld-suew.de,www.klinikum-ld-suew.de,Bodelschwinghstraße,76829,Landau in der Pfalz,Rheinland-Pfalz
Niels-Stensen-Kliniken St. Vinzenz-Hospital Haselünne,52.2702301,8.0537541,niels-stensen-kliniken.de,www.krankenhaus-haseluenne.de,Hammer Straße,49740,Haselünne,Niedersachsen
Diakonie Krankenhaus Kirn,49.7945675,7.455733,kreuznacherdiakonie.de,www.kreuznacherdiakonie.de,Jahnstraße,55606,Kirn,Rheinland-Pfalz
Thoraxklinik Heidelberg,49.4089796,8.6905265,uni-heidelberg.de,www.thoraxklinik-heidelberg.de,Röntgenstraße,69126,Heidelberg,Baden-Württemberg
Bezirksklinikum Ansbach,49.2937963,10.5508941,bezirkskliniken-mfr.de,www.bezirksklinikum-ansbach.de,Feuchtwanger Str.,91522,Ansbach,Bayern
St. Josefskrankenhaus Freiburg,47.9829574,7.8398958,rkk-klinikum.de,www.rkk-sjk.de,Sautierstraße,79104,Freiburg,Baden-Württemberg
"Oberlausitz-Kliniken GmbH, Krankenhaus Bischofswerda",51.1361328,14.1785653,oberlausitz-kliniken.de,www.oberlausitz-kliniken.de/kliniken-bereiche/krankenhaus-bischofswerda/,Kamenzer Str.,01877,Bischofswerda,Sachsen
Helios Klinikum Bad Saarow,52.1544926,10.3180927,helios-kliniken.de,www.helios-kliniken.de,Pieskower Straße,15526,Bad Saarow,Brandenburg
Ilm-Kreis-Kliniken Arnstadt-Ilmenau gGmbH,50.6787084,10.9176093,ilm-kreis-kliniken.de,www.ilm-kreis-kliniken.de,Oehrenstöcker Straße,98693,Ilmenau,Thüringen
Marienhospital Stuttgart,51.7179384,8.7593034,vincenz.de,www.marienhospital-stuttgart.de,Böheimstraße,70199,Stuttgart,Baden-Württemberg
Brüderkrankenhaus St. Josef Paderborn,51.7104939,8.7593553,bk-paderborn.de,www.bk-paderborn.de,Husener Str.,33098,Paderborn,Nordrhein-Westfalen
Waldburg-Zeil Kliniken GmbH & Co. Rheumaklinik KG,47.5912573,11.0757529,klinik-oberammergau.de,www.klinik-oberammergau.de,Hubertusstr.,82487,Oberammergau,Bayern
St. Johannisstift Ev. Krankenhaus Paderborn gGmbH,51.7229357,8.7466193,johannisstift.de,www.johannisstift.de,Reumontstraße,33102,Paderborn,Nordrhein-Westfalen
Johannes Wesling Klinikum Minden,52.2612497,8.8889772,muehlenkreiskliniken.de,www.muehlenkreiskliniken.de,Hans-Nolte-Straße,32429,"Minden, Westfalen",Nordrhein-Westfalen
Helios Klinik Müllheim,50.0873694,8.2746649,helios-gesundheit.de,www.helios-gesundheit.de,Heliosweg,79379,Müllheim,Baden-Württemberg
"AMEOS Klinika Neustadt, Lübeck und Eutin",54.1049743,10.7947738,ameos.eu,www.ameos.eu/neustadt-in-holstein/,Wiesenhof,23730,Neustadt in Holstein,Schleswig-Holstein
ASKLEPIOS Fachklinikum Brandenburg,52.4230806,12.4800832,asklepios.com,www.lk-brandenburg.brandenburg.de,Anton-Saefkow Allee,14772,Brandenburg an der Havel,Brandenburg
Universitätsklinikum Brandenburg an der Havel GmbH,52.413799,12.5460727,klinikum-brandenburg.de,www.klinikum-brandenburg.de,Hochstr.,14770,Brandenburg an der Havel,Brandenburg
Psychiatrische Klinik Lüneburg gemeinnützige GmbH,53.2547977,10.3827527,lueneburg.de,www.pk.lueneburg.de,Am Wienebütteler Weg,21339,Lüneburg,Niedersachsen
"Furtbachkrankenhaus, Klinik für Psychiatrie und Psychotherapie",48.7703861,9.1716672,fbkh.org,www.fbkh.org,Furtbachstraße,70178,Stuttgart,Baden-Württemberg
Westpfalz-Klinikum,49.4414066,7.7563994,westpfalz-klinikum.de,www.westpfalz-klinikum.de,Hellmut-Hartert-Straße,67655,Kaiserslautern,Rheinland-Pfalz
DRK-Krankenhaus Mecklenburg-Strelitz gGmbH,53.3802546,13.0525352,drkmst.de,www.drk-kh-mv.de,Penzliner Str.,17235,Neustrelitz,Mecklenburg-Vorpommern
m&i-Fachklinik Herzogenaurach,49.577045,10.8696715,fachklinik-herzogenaurach.de,www.fachklinik-herzogenaurach.de,In der Reuth,91074,Herzogenaurach,Bayern
St. Johannes-Hospital,53.3920093,8.1398593,krankenhaus-varel.de,www.krankenhaus-varel.de,Bleichenpfad,26316,"Varel, Jadebusen",Niedersachsen
Paracelsus Klinik am Silbersee,50.7223559,12.4715842,paracelsus-kliniken.de,www.paracelsus-kliniken.de,Oertzeweg,30851,Langenhagen,Niedersachsen
Paracelsus-Klinik Bremen GmbH,51.2544319,6.7595047,paracelsus-kliniken.de,www.paracelsus-kliniken.de/bremen.html,In der Vahr,28329,Bremen,Bremen
Universitätsklinikum Mannheim,49.492365,8.4875557,umm.de,www.w2.umm.de,Theodor-Kutzer-Ufer,68167,Mannheim,Baden-Württemberg
Helios Klinikum Aue GmbH,50.5923528,12.7165337,helios-gesundheit.de,www.helios-kliniken.de/klinik/aue,Gartenstr.,08280,Aue,Sachsen
Klinik Hohe Mark,50.2113353,8.5306464,hohemark.de,www.hohemark.de,Friedländerstraße,61440,Oberursel,Hessen
Sana Klinikum Lichtenberg,52.5133024,13.4954295,sana-kl.de,www.sana-kl.de,Fanningerstraße,10365,Berlin,Berlin
Helios Kliniken Kassel,51.3114072,9.4546822,helios-gesundheit.de,www.helios-gesundheit.de/kliniken/kassel/,Hansteinstraße,34121,Kassel,Hessen
Mauritius Therapieklinik gGmbH,51.2795469,6.6277459,stmtk.de,www.stmtk.de,Strümper Straße,40670,Meerbusch,Nordrhein-Westfalen
St. Josef-Stift Sendenhorst,51.8414284,7.8211426,st-josef-stift.de,www.st-josef-stift.de,Westtor,48324,Sendenhorst,Nordrhein-Westfalen
Gesundheit Nord gGmbH Klinikverbund Bremen Standort Klinikum Bremen-Mitte,53.074096,8.8391405,gesundheitnord.de,www.gesundheitnord.de,Sankt-Jürgen-Straße,28205,Bremen,Bremen
Verbundkrankenhaus Bernkastel-Wittlich,50.0001647,6.8921278,verbund-krankenhaus.de,www.verbund-krankenhaus.de,Karl Binz Weg,54470,Bernkastel-Kues,Rheinland-Pfalz
Vivantes Netzwerk für Gesundheit GmbH,52.4590155,13.3902159,vivantes.de,www.vivantes.de,Wenckebachstraße,12099,Berlin,Berlin
Dominikus-Krankenhaus Berlin,52.624691,13.293987,dominikus-berlin.de,www.dominikus-berlin.de,Kurhausstraße,13467,Berlin,Berlin
Migräne- und Kopfschmerzklinik Königstein,50.1865419,8.4561164,migraene-klinik.de,www.migraene-klinik.de,Ölmühlweg,61462,Königstein,Hessen
SKH Großschweidnitz,51.0741916,14.643814,sachsen.de,www.skh-grossschweidnitz.sachsen.de,Dr.-Max-Krell-Park,02708,Großschweidnitz,Sachsen
Kreisklinik Ebersberg gGmbH,48.0763015,11.9604668,klinik-ebe.de,www.klinik-ebe.de,Pfarrer-Guggetzer-Str.,85560,Ebersberg,Bayern
DIAKOVERE Henriettenstift,52.3634111,9.8285557,diakovere.de,www.diakovere.de,Marienstraße,30171,Hannover,Niedersachsen
Krankenhaus St. Josef,50.0471713,10.2267527,josef.de,www.josef.de,Ludwigstr.,97421,Schweinfurt,Bayern
LVR-Klinik Düren,51.7596012,6.1816625,lvr.de,www.klinik-dueren.lvr.de,Roentgenweg,52477,Alsdorf,Nordrhein-Westfalen
REGIOMED Klinikum Sonneberg/Neuhaus,50.3539763,11.162693,regiomed-kliniken.de,www.regiomed-kliniken.de,Neustadter Straße,96515,Sonneberg,Thüringen
Israelitisches Krankenhaus Hamburg,53.6058096,9.9913652,ik-h.de,www.ik-h.de,Orchideenstieg,22297,Hamburg,Hamburg
Wilhelmsburger Krankenhaus Groß-Sand,53.5037044,9.9863014,gross-sand.de,www.gross-sand.de/de/,Groß-Sand,21107,Hamburg,Hamburg
Helios Klinikum München West,54.5250832,9.5663476,helios-kliniken.de,www.helios-kliniken.de/muenchen-west,Steinerweg,81241,München,Bayern
KRH-Klinikum Großburgwedel,52.4963677,9.8620387,krh.eu,www.krh.eu,Fuhrberger Straße,30938,Burgwedel,Niedersachsen
Klinikum Dahme-Spreewald GmbH,51.9442037,13.8747771,klinikum-ds.de,www.spreewaldklinik.de,Schillerstraße,15907,Lübben (Spreewald),Brandenburg
Klinikum am Weissenhof,49.1382951,9.231798,klinikum-weissenhof.de,www.klinikum-weissenhof.de,Harteneckstraße,71640,Ludwigsburg,Baden-Württemberg
Stadtklinik Frankenthal,49.5427524,8.3311728,skh-ft.de,www.skh-ft.de,Elsa-Brändström-Straße,67227,Frankenthal (Pfalz),Rheinland-Pfalz
Vinzenzkrankenhaus,52.3583668,9.8147936,vinzenzkrankenhaus.de,www.vinzenzkrankenhaus.de,Lange-Feld-Straße,30559,Hannover,Niedersachsen
Elisabeth-Krankenhaus Kassel GmbH,51.3099596,9.4919159,elisabeth-krankenhaus-kassel.de,www.elisabeth-krankenhaus-kassel.de,Weinbergstraße,34117,Kassel,Hessen
Regio Kliniken GmbH,53.7525837,9.6820928,sana.de,www.sana.de/regiokliniken,Agnes-Karll-Allee,25337,Elmshorn,Schleswig-Holstein
Helios Fachkliniken Hildburghausen GmbH,50.4251195,10.7419977,helios-gesundheit.de,www.helios-gesundheit.de/kliniken/hildburghausen-fachkliniken/,Eisfelder Straße,98646,Hildburghausen,Thüringen
DIAKOVERE Friederikenstift,52.3711545,9.7246093,diakovere.de,www.diakovere.de,Humboldtstraße,30169,Hannover,Niedersachsen
St. Josefs-Hospital Wiesbaden,50.0764411,8.2544536,joho.de,www.joho.de,Beethovenstraße,65189,Wiesbaden,Hessen
St. Josef Krankenhaus Moers,51.5415036,6.6082167,st-josef-moers.de,www.st-josef-moers.de,Orsoyer Straße,47495,Rheinberg,Nordrhein-Westfalen
Klinikum am Gesundbrunnen,49.1532797,9.19082,slk-kliniken.de,www.slk-kliniken.de,Am Gesundbrunnen,74078,Heilbronn,Baden-Württemberg
Helios Kliniken Mittelweser GmbH Klinik Nienburg,52.6354926,9.2244519,helios-gesundheit.de,www.helios-gesundheit.de,Ziegelkampstraße,31582,Nienburg,Niedersachsen
Helios Klinik Lengerich,48.102096,11.6293096,helios-gesundheit.de,www.helios-gesundheit.de/kliniken/lengerich,Martin-Luther-Straße,49525,"Lengerich, Westfalen",Nordrhein-Westfalen
ASKLEPIOS Klinikum Harburg,53.4595927,9.9477502,asklepios.com,www.asklepios.com/hamburg/harburg/,Eißendorfer Pferdeweg,21075,Hamburg,Hamburg
Helios Klinikum Berlin-Buch,51.1260573,7.8975003,helios-kliniken.de,www.helios-kliniken.de/berlin,Schwanebecker Chaussee,13125,Berlin,Berlin
Helios Klinikum München West,48.8893019,8.713055,helios-kliniken.de,www.helios-kliniken.de/muenchen-west,Steinerweg,81241,München,Bayern
Donau-Ries Kliniken,48.8367871,10.499842,donkliniken.de,www.donkliniken.de,Stoffelsberg,86720,Nördlingen,Bayern
Evangelisches Krankenhaus Witten gGmbH,51.4459545,7.3439016,evk-witten.de,www.evk-witten.de,Pferdebachstraße,58455,Witten,Nordrhein-Westfalen
Helios Klinikum Bad Saarow,48.0310286,7.5858317,helios-kliniken.de,www.helios-kliniken.de,Pieskower Straße,15526,Bad Saarow,Brandenburg
ASKLEPIOS Harzklinik Goslar,51.9278474,10.4428702,asklepios.com,www.asklepios.com,Kösliner Straße,38642,Goslar,Niedersachsen
VAMED Klinik Bad Berleburg,52.0734351,10.010782,vamed-gesundheit.de,www.vamed-gesundheit.de/kliniken/bad-berleburg,An der Gontardslust,57319,Bad Berleburg,Nordrhein-Westfalen
MEDIAN Klinik Bad Tennstedt,52.07375,10.0126957,median-kliniken.de,www.median-kliniken.de/de/median-klinik-bad-tennstedt,Badeweg,99955,Bad Tennstedt,Thüringen
Krankenhaus Martha-Maria,49.4818066,11.1365651,martha-maria.de,www.martha-maria.de,Stadenstr.,90491,Nürnberg,Bayern
Luisenhospital Aachen,50.7676232,6.0764444,luisenhospital.de,www.luisenhospital.de,Boxgraben,52064,Aachen,Nordrhein-Westfalen
ASKLEPIOS Fachklinikum Lübben,51.9358187,13.8867778,asklepios.com,www.asklepios.com,Luckauer Straße,15907,Lübben (Spreewald),Brandenburg
Helios Klinikum Meiningen GmbH,50.5576351,10.3970282,helios-gesundheit.de,www.helios-gesundheit.de/kliniken/meiningen/,Bergstraße,98617,Meiningen,Thüringen
Marienhospital Aachen GmbH,50.7626072,6.0948822,marienhospital.de,www.marienhospital.de,Zeise,52066,Aachen,Nordrhein-Westfalen
Hunsrück Klinik,49.980508,7.5174576,kreuznacherdiakonie.de,www.hunsrueckklinik.de,Holzbacher Straße,55469,"Simmern, Hunsrück",Rheinland-Pfalz
Herz-Jesu-Krankenhaus Dernbach,50.4529747,7.7856144,krankenhaus-dernbach.de,www.krankenhaus-dernbach.de,Südring,56428,Dernbach (Westerwald),Rheinland-Pfalz
Herz- und Diabeteszentrum Nordrhein-Westfalen,52.1921497,8.7952165,hdz-nrw.de,www.hdz-nrw.de,Georgstr.,32545,Bad Oeynhausen,Nordrhein-Westfalen
Städtische Klinikum Karlsruhe,49.0118897,8.3803361,klinikum-karlsruhe.de,www.klinikum-karlsruhe.de,Moltkestraße,76133,Karlsruhe,Baden-Württemberg
"Katholische Kliniken im Märkischen Kreis, Iserlohn",51.3796535,7.6907257,kkimk.de,www.kkimk.de,Hochstraße,58638,Iserlohn,Nordrhein-Westfalen
gKU Wertachkliniken Wertachklinik Bobingen,48.2812909,10.8224893,wertachkliniken.de,www.wertachkliniken.de,Wertachstr.,86399,Bobingen,Bayern
SRH Klinikum Naumburg,51.0307959,12.1593894,klinikum-burgenlandkreis.de,www.klinikum-burgenlandkreis.de,Lindenring,06712,Zeitz,Sachsen-Anhalt
Klinik Diepholz,52.6107025,8.3763261,kliniken-lkd.de,www.kliniken-lkd.de,Eschfeldstraße,49356,Diepholz,Niedersachsen
Klinikum Oberberg,51.0155028,7.5674969,klinikum-oberberg.de,www.klinikum-oberberg.de,Kaiserstraße,51643,Gummersbach,Nordrhein-Westfalen
"Muldentalkliniken, Standort Wurzen",51.3789686,12.7323531,kh-muldental.de,www.kh-muldental.de/,Kutusowstr.,04808,Wurzen,Sachsen
Rommel-Klinik,48.7477428,8.5455201,rommel-klinik.de,www.rommel-klinik.de,Bätznerstraße,75323,Bad Wildbad im Schwarzwald,Baden-Württemberg
Elisabeth-Klinik gGmbH,51.3568243,8.47311,elisabeth-klinik.de,www.elisabeth-klinik.de,Heinrich-Sommer-Straße,59939,Olsberg,Nordrhein-Westfalen
Dreifaltigkeits-Hospital gGmbH,51.6730396,8.3383455,dreifaltigkeits-hospital.de,www.dreifaltigkeits-hospital.de,Klosterstraße,59555,Lippstadt,Nordrhein-Westfalen
Kliniken Schmieder Heidelberg (Akutklinik),49.3953953,8.7086102,kliniken-schmieder.de,www.kliniken-schmieder.de,Speyererhof,69117,Heidelberg,Baden-Württemberg
AMEOS Klinikum Haldensleben,52.2855412,11.3769246,ameos.eu,www.ameos.eu/standorte/ameos-ost/haldensleben/ameos-klinikum-haldensleben/,Kiefholzstraße,39340,Haldensleben,Sachsen-Anhalt
Klinikum Stadt Soest gGmbH,51.5655545,8.0775502,klinikumstadtsoest.de,www.klinikumstadtsoest.de,Senator-Schwartz-Ring,59494,"Soest, Westfalen",Nordrhein-Westfalen
SALUS gGmbH Fachklinikum Uchtspringe,52.5353131,11.5957921,salus-lsa.de,www.salus-lsa.de,Emil-Kraepelin-Straße,39576,Stendal,Sachsen-Anhalt
OsteMed Klinik Bremervörde,53.4712107,9.1352767,ostemed.de,www.ostemed.de,Gnarrenburger Straße,27432,Bremervörde,Niedersachsen
Klinikum Leer gGmbH,53.2358311,7.4582025,klinikum-leer.de,www.klinikum-leer.de,Augustenstraße,26789,Leer,Niedersachsen
Niels-Stensen-Kliniken Bramsche,52.408985,7.9860891,niels-stensen-kliniken.de,www.niels-stensen-kliniken.de,Hasestraße,49565,"Bramsche, Hase",Niedersachsen
Klinikum am Plattenwald,49.2117124,9.2371254,slk-kliniken.de,www.slk-kliniken.de,Am Plattenwald,74177,Bad Friedrichshall,Baden-Württemberg
ASKLEPIOS Kliniken Schildautal Seesen,51.8830065,10.2162063,asklepios.com,www.asklepios.com,Karl-Herold-Straße,38723,Seesen,Niedersachsen
Klinikum Heidenheim,48.6728848,10.1402641,kliniken-heidenheim.de,www.kliniken-heidenheim.de,Schloßhaustraße,89522,Heidenheim an der Brenz,Baden-Württemberg
Helios Spital Überlingen,51.3524293,6.6481433,helios-gesundheit.de,www.helios-gesundheit.de,Härlenweg,88662,Überlingen,Baden-Württemberg
Helios Klinik Leezen GmbH,53.6603217,11.4908986,helios-gesundheit.de,www.helios-gesundheit.de,Wittgensteiner Platz,19067,Leezen,Mecklenburg-Vorpommern
Einbecker Bürgerspital GmbH,51.8338789,9.8685914,einbecker-buergerspital.de,www.einbecker-buergerspital.de,Andershäuser Straße,37574,Einbeck,Niedersachsen
Kliniken im Theodor-Wenzel-Werk,52.4226335,13.2052083,tww-berlin.de,www.tww-berlin.de,Potsdamer Chaussee,14129,Berlin,Berlin
Krankenhaus zum Guten Hirten,49.4878476,8.3847325,guterhirte-ludwigshafen.de,www.guterhirte-ludwigshafen.de,Semmelweisstraße,67071,Ludwigshafen am Rhein,Rheinland-Pfalz
Helios Klinikum Niederberg,51.3504926,7.0116404,helios-gesundheit.de,www.helios-gesundheit.de/kliniken/niederberg,Südring,42579,Heiligenhaus,Nordrhein-Westfalen
Evangelische Klinikum Niederrhein gGmbH,51.558391,6.7302513,evkln.de,www.evkln.de,Fahrner Str.,47169,Duisburg,Nordrhein-Westfalen
Dr. von Ehrenwall´sche Klinik,50.539677,7.0914368,ehrenwall.de,www.ehrenwall.de,Walporzheimer Straße,53474,Bad Neuenahr-Ahrweiler,Rheinland-Pfalz
Augusta-Kranken-Anstalt gGmbH,51.4851446,7.2237617,augusta-kliniken.de,www.augusta-kliniken.de,Bergstr.,44791,Bochum,Nordrhein-Westfalen
Hessing Stiftung Orthopädische Fachkliniken,48.3399957,10.8662448,hessing-kliniken.de,www.hessing-stiftung.de,Hessingstr.,86199,Augsburg,Bayern
KRH-Klinikum Nordstadt,52.4936292,9.4660912,krh.de,www.krh.de,Haltenhoffstraße,30167,Hannover,Niedersachsen
Kliniken Schmieder Allensbach,47.715273,9.0834563,kliniken-schmieder.de,www.kliniken-Schmieder.de,Zum Tafelholz,78476,Allensbach,Baden-Württemberg
St. Elisabeth Krankenhaus Geilenkirchen,50.9657287,6.1237685,krankenhaus-geilenkirchen.de,www.krankenhaus-geilenkirchen.de,Martin-Heyden-Straße,52511,Geilenkirchen,Nordrhein-Westfalen
Klinikum Region Hannover GmbH Psychiatrie Langenhagen,52.4447989,9.7425755,krh.eu,www.krh.eu,Rohdehof,30853,Langenhagen,Niedersachsen
Klinikum Region Hannover GmbH Psychiatrie Langenhagen,52.4428733,9.7398248,krh.eu,www.krh.eu,Rohdehof,30853,Langenhagen,Niedersachsen
Kreiskrankenhaus des Vogelsbergkreises in Alsfeld,50.7630268,9.268783,kkh-alsfeld.de,www.kkh-alsfeld.de,Schwabenröder Straße,36304,Alsfeld,Hessen
Klinikverbund Allgäu gGmbH Klinik Kempten,47.7324861,10.3025829,klinikum-kempten.de,www.kv-keoa.de,Robert-Weixler-Str.,87439,Kempten (Allgäu),Bayern
Schön Klinik Neustadt,54.0903332,10.8291532,schoen-klinik.de,www.schoen-klinik.de/neustadt,Am Kiebitzberg,23730,Neustadt in Holstein,Schleswig-Holstein
Ubbo-Emmius-Klinik Aurich,53.4680486,7.4987328,u-e-k.de,www.u-e-k.de,Wallinghausener Straße,26603,Aurich (Ostfriesland),Niedersachsen
Kreiskliniken Kassel,51.4960055,9.3694127,kreisklinikenkassel.de,www.kreisklinikenkassel.de,Liebenauer Straße,34369,Hofgeismar,Hessen
Krankenhaus Eichhof,50.6303978,9.3913864,eichhof-online.de,www.eichhof-online.de,Eichhofstraße,36341,Lauterbach,Hessen
St. Marienkrankenhaus und St. Annastiftskrankenhaus Ludwigshafen,49.4633362,8.4310204,st-marienkrankenhaus.de,www.st-marienkrankenhaus.de,Karolina-Burger-Straße,67065,Ludwigshafen am Rhein,Rheinland-Pfalz
m&i-Fachklinik Bad Heilbrunn,47.7493784,11.4602813,fachklinik-bad-heilbrunn.de,www.fachklinik-bad-heilbrunn.de,Wörnerweg,83670,Bad Heilbrunn,Bayern
Klinikum Bremerhaven-Reinkenheide gGmbH,53.5377387,8.6365604,klinikum-bremerhaven.de,www.klinikum-bremerhaven.de,Postbrookstraße,27574,Bremerhaven,Bremen
ASKLEPIOS Klinik Nord,53.6740744,10.0078292,asklepios.com,www.asklepios.com/hamburg/nord/,Langenhorner Chaussee,22419,Hamburg,Hamburg
Marien Hospital Düsseldorf GmbH,51.2359753,6.7855856,marien-hospital.de,www.marien-hospital.de,Rochusstraße,40479,Düsseldorf,Nordrhein-Westfalen
Universitätsmedizin Rostock,54.0854001,12.103483,uni-rostock.de,www.med.uni-rostock.de,Gehlsheimer Straße,18147,Rostock,Mecklenburg-Vorpommern
Klinikum Mittelbaden Baden-Baden Bühl,48.6646757,8.135317,klinikum-mittelbaden.de,www.klinikum-mittelbaden.de,Balger Straße,76532,Baden-Baden,Baden-Württemberg
ASKLEPIOS Harzklinik Bad Harzburg,51.885651,10.5759017,asklepios.com,www.asklepios.com,Ilsenburger Straße,38667,Bad Harzburg,Niedersachsen
Ökumenisches Hainich Klinikum gGmbH,51.2093503,10.4016343,oehk.de,www.oehk.de,Pfafferode,99974,Mühlhausen,Thüringen
Klinikum Gütersloh gGmbH,51.8974159,8.3850347,klinikum-guetersloh.de,www.klinikum-guetersloh.de,Reckenberger Straße,33332,Gütersloh,Nordrhein-Westfalen
SRH Klinikum Naumburg,51.161012,11.8148405,klinikum-burgenlandkreis.de,www.klinikum-burgenlandkreis.de,Humboldtstraße,06618,Naumburg (Saale),Sachsen-Anhalt
Krankenhaus Hardheim,49.6116916,9.4706125,khv-ha-wa.de,www.khv-ha-wa.de,Wertheimer Straße,74736,Hardheim,Baden-Württemberg
Thure von Uexkuell Krankenhaus,48.0547463,7.9640344,uexkuell-klinik.de,www.uexkuell-klinik.de,Badstraße,79286,Glottertal,Baden-Württemberg
Herzogin-Elisabeth-Hospital,52.2329433,10.5263304,heh-bs.de,www.heh-bs.de,Leipziger Straße,38124,Braunschweig,Niedersachsen
AMEOS Klinikum Haldensleben,51.5179265,6.8449462,ameos.eu,www.ameos.eu/standorte/ameos-ost/haldensleben/ameos-klinikum-haldensleben/,Kiefholzstraße,39340,Haldensleben,Sachsen-Anhalt
St. Nikolaus-Stiftshospital GmbH,50.4403691,7.4047616,stiftshospital-andernach.de,www.stiftshospital-andernach.de,Hindenburgwall,56626,Andernach,Rheinland-Pfalz
Johanniter - Klinik für Geriatrie Geesthacht,51.6791169,7.8181886,johanniter.de,www.johanniter.de/johanniter-kliniken/,Johannes-Ritter-Straße,21502,Geesthacht,Schleswig-Holstein
ASKLEPIOS Klinik Bad Oldesloe,53.8124502,10.3630352,asklepios.com,www.asklepios.com/bad-oldesloe/,Schützenstraße,23843,Bad Oldesloe,Schleswig-Holstein
Diakoneo Rangauklinik Ansbach GmbH Fachklinik für Lungen- und Bronchialheilkunde,49.3258371,10.5405994,rangauklinik.de,www.rangauklinik.de,Strüth,91522,Ansbach,Bayern
Klinik Bad Trissl GmbH,47.6579684,12.1546945,klinik-bad-trissl.de,www.klinik-bad-trissl.de,Bad-Trissl-Str.,83080,Oberaudorf,Bayern
Diabeteszentrum Bad Lauterberg Fachklinik für Diabetes und Stoffwechselkrankheiten,51.6277331,10.4724068,diabeteszentrum.de,www.diabeteszentrum.de,Kirchberg,37431,Bad Lauterberg im Harz,Niedersachsen
Acura Kliniken Baden-Baden,48.7642913,8.2467357,acura-kliniken.com,www.ascura-kliniken.com,Rotenbachtalstraße,76530,Baden-Baden,Baden-Württemberg
Klinikum Mittelbaden Baden-Baden Bühl,48.6852209,8.1410833,klinikum-mittelbaden.de,www.klinikum-mittelbaden.de,Robert-Koch-Straße,77815,Bühl,Baden-Württemberg
AMEOS Klinikum Seepark Geestland GmbH,53.6161629,8.6312159,ameos.de,www.ameos.eu,Feldweg,27474,Cuxhaven,Niedersachsen
Kliniken an der Paar Krankenhaus Aichach,48.4621547,11.1403409,klipa.de,www.klipa.de,Krankenhausstr.,86551,Aichach,Bayern
Augenklinik Herzog Carl Theodor,48.148444,11.5503804,augenklinik-muenchen.de,www.augenklinik-muenchen.de,Nymphenburger Str.,80335,München,Bayern
Caritasklinikum Saarbrücken St. Theresia,49.2770456,7.0412831,caritasklinikum.de,https://www.caritasklinikum.de/,Rheinstr.,66113,Saarbrücken,Saarland
Fachklinik Freudenholm-Ruhleben,54.2171158,10.3107208,landesverein.de,www.landesverein.de/suchthilfe/fachklinik-freudenholm-ruhleben/,Freudenholm,24211,Schellhorn bei Preetz,Schleswig-Holstein
Zollernalb Klinikum,48.2139799,9.0201268,zollernalb-klinikum.de,www.zollernalb-klinikum.de,Friedrichstraße,72458,Albstadt,Baden-Württemberg
Sankt Gertrauden-Krankenhaus,52.4803471,13.3172076,sankt-gertrauden.de,www.sankt-gertrauden.de,Paretzer Straße,10713,Berlin,Berlin
Christliches Kinderhospital Osnabrück,52.2698941,8.0530625,ckos.de,www.christliches-kinderhospital.de,Johannisfreiheit,49074,Osnabrück,Niedersachsen
Städtisches Klinikum Görlitz gGmbH,51.1612278,14.9709757,klinikum-goerlitz.de,www.klinikum-goerlitz.de,Girbigsdorfer Str.,02828,Görlitz,Sachsen
Helios Hanseklinikum Stralsund GmbH,54.3008526,13.0412926,helios-gesundheit.de,www.helios-gesundheit.de,Rostocker Chaussee,18437,Stralsund,Mecklenburg-Vorpommern
Helios Klinik Attendorn,51.3648723,6.7548584,helios-gesundheit.de,www.helios-gesundheit.de/kliniken/attendorn,Hohler Weg,57439,Attendorn,Nordrhein-Westfalen
Krankenhaus St. Joseph-Stift Bremen gGmbH,53.0834231,8.8350371,sjs-bremen.de,www.sjs-bremen.de,Schwachhauser Heerstraße,28209,Bremen,Bremen
AMEOS Klinikum Lübeck,51.994362,9.8328582,ameos.eu,www.ameos.eu/klinikum-luebeck-klinik-fuer-abhaengigkeitserkrankungen/,Weidenweg,23562,Lübeck,Schleswig-Holstein
Sozialstiftung Bamberg,49.8673665,10.8906281,sozialstiftung-bamberg.de,www.sozialstiftung-bamberg.de,Buger Str.,96049,Bamberg,Bayern
Universitätsklinikum Erlangen,49.6005976,11.0110178,uk-erlangen.de,www.uk-erlangen.de,Maximiliansplatz,91054,Erlangen,Bayern
Klinikum Mittelbaden Baden-Baden Bühl,48.7842943,8.2165185,klinikum-mittelbaden.de,www.klinikum-mittelbaden.de,Balger Straße,76532,Baden-Baden,Baden-Württemberg
DRK-Krankenhaus Grevesmühlen gGmbH,53.868473,11.1831989,drk-kh-gvm.de,www.drk-kh-gvm.de,Klützer Straße,23936,Grevesmühlen,Mecklenburg-Vorpommern
Johanniter - Klinik für Geriatrie Geesthacht,52.0854518,9.7772029,johanniter.de,www.johanniter.de/johanniter-kliniken/,Johannes-Ritter-Straße,21502,Geesthacht,Schleswig-Holstein
Klinikum Saarbrücken gGmbH,49.2207818,6.9962557,klinikum-saarbruecken.de,info@klinikum-saarbruecken.de,Winterberg,66119,Saarbrücken,Saarland
St. Franziskus-Hospital GmbH,51.9612769,7.650607,sfh-muenster.de,www.sfh-muenster.de,Hohenzollernring,48145,"Münster, Westfalen",Nordrhein-Westfalen
Johanniter - Klinik für Geriatrie Geesthacht,52.1161907,9.7360844,johanniter.de,www.johanniter.de/johanniter-kliniken/,Johannes-Ritter-Straße,21502,Geesthacht,Schleswig-Holstein
HNO-Klinik Bogenhausen Dr. Gaertner GmbH,48.1438322,11.6062594,gaertnerklinik.de,www.gaertnerklinik.de,Possartstr.,81679,München,Bayern
Vulpius Klinik,49.243801,9.0926158,vulpiusklinik.de,www.vulpiusklinik.de,Vulpiusstraße,74906,Bad Rappenau,Baden-Württemberg
Schwarzwald-Baar Klinikum,48.0651613,8.4968196,sbk-vs.de,www.sbk-vs.de,Sonnhaldenstraße,78166,Donaueschingen,Baden-Württemberg
"Kliniken Ostallgäu-Kaufbeuren, AöR des Landkreises Ostallgäu und der Stadt Kaufbeuren - Klinik Füssen",47.8880445,10.610967,kliniken-oal-kf.de,www.kliniken-oal-kf.de,Stadtbleiche,87629,Füssen,Bayern
Helios Klinik Köthen GmbH,51.7467963,11.9727939,helios-gesundheit.de,www.helios-gesundheit.de/kliniken/koethen/,Hallesche Straße,06366,Köthen,Sachsen-Anhalt
Dr. Lubos Kliniken Pasing,48.14649,11.4576537,lubos-kliniken.de,www.staging.lubos-kliniken.de,Schmiedwegerl,81241,München,Bayern
Kliniken Schmieder Allensbach,47.7023526,8.7536698,kliniken-schmieder.de,www.kliniken-Schmieder.de,Zum Tafelholz,78476,Allensbach,Baden-Württemberg
Marienkrankenhaus Kassel,51.3281855,9.4806551,marienkrankenhaus-kassel.de,www.marienkrankenhaus-kassel.de,Marburger Straße,34127,Kassel,Hessen
Kliniken des Landkreises Neustadt a. d. Aisch-Bad Windsheim,49.5152189,10.410694,kliniken-nea.de,www.kliniken-nea.de,Erkenbrechtallee,91438,Bad Windsheim,Bayern
Klinikum Herford AöR,52.1270427,8.6998588,klinikum-herford.de,www.klinikum-herford.de,Hindenburgstraße,32257,Bünde,Nordrhein-Westfalen
Hochtaunus-Kliniken gGmbH,50.3431342,8.5306968,hochtaunus-kliniken.de,www.hochtaunus-kliniken.de,Weilburger Straße,61250,Usingen,Hessen
Kreiskrankenhaus Weilburg,50.4853636,8.2526945,krankenhaus-weilburg.de,www.krankenhaus-weilburg.de,Am Steinbühl,35781,Weilburg,Hessen
Erzgebirgsklinikum gGmbH - Haus Annaberg,50.5926238,13.0057168,erzgebirgsklinikum.de,www.erzgebirgsklinikum.de/haus/annaberg,Chemnitzer Str.,09456,Annaberg-Buchholz,Sachsen
Aller-Weser-Klinik Krankenhaus Achim,53.0179762,9.0048071,aller-weser-klinik.de,www.aller-weser-klinik.de,Bierdener Mühle,28832,Achim bei Bremen,Niedersachsen
Klinikum Stuttgart,48.7836788,9.1719798,klinikum-stuttgart.de,www.klinikum-stuttgart.de,Kriegsbergstraße,70174,Stuttgart,Baden-Württemberg
ASKLEPIOS Nordseeklinik Westerland GmbH,54.9255215,8.3132988,asklepios.com,www.asklepios.com/sylt/reha/,Norderstraße,25980,Westerland,Schleswig-Holstein
Evangelisches Geriatriezentrum Berlin,52.5545167,13.3637902,egzb.de,www.egzb.de,Reinickendorfer Straße,13347,Berlin,Berlin
Ilm-Kreis-Kliniken Arnstadt-Ilmenau gGmbH,50.8394141,10.9414569,ilm-kreis-kliniken.de,www.ilm-kreis-kliniken.de,Bärwinkelstraße,99310,Arnstadt,Thüringen
"Krankenhaus für Psychiatrie, Psychoth. u. Psychosom. Medizin des Bezirks Unterfranken",49.9887406,9.568589,bezirkskrankenhaus-lohr.de,www.bezirkskrankenhaus-lohr.de,Am Hasenkopf,63739,Aschaffenburg,Bayern
Paracelsus Klinik am Silbersee,52.4335377,9.7572918,paracelsus-kliniken.de,www.paracelsus-kliniken.de,Oertzeweg,30851,Langenhagen,Niedersachsen
Vivantes Ida-Wolff-Krankenhaus GmbH,52.4343409,13.4578704,vivantes.de,https://www.vivantes.de/ida-wolff-krankenhaus/,Juchaczweg,12351,Berlin,Berlin
Vivantes Netzwerk für Gesundheit GmbH,52.4372561,13.4588793,vivantes.de,www.vivantes.de,Rudower Straße,12351,Berlin,Berlin
Krankenhaus Lindenbrunn,52.1100434,9.5491034,krankenhaus-lindenbrunn.de,www.krankenhaus-lindenbrunn.de,Lindenbrunn,31863,Coppenbrügge,Niedersachsen
Paulinenkrankenhaus,52.5077764,13.233533,paulinenkrankenhaus.de,www.paulinenkrankenhaus.de,Dickensweg,14055,Berlin,Berlin
Klinikum Nürnberg AöR,49.4633165,11.0603118,klinikum-nuernberg.de,www.klinikum-nuernberg.de,Prof.-Ernst-Nathan-Str.,90419,Nürnberg,Bayern
Universitätsklinikum Heidelberg,49.4082582,8.6863492,uni-heidelberg.de,www.klinikum.uni-heidelberg.de,Im Neuenheimer Feld,69120,Heidelberg,Baden-Württemberg
"Klinikum St. Georg GmbH, Hauptstandort Leipzig Eutritzsch",51.2941376,12.4244653,sanktgeorg.de,www.sanktgeorg.de,Delitzscher Str.,04129,Leipzig,Sachsen
Universitätsklinikum Heidelberg,49.4158401,8.6698214,uni-heidelberg.de,www.klinikum.uni-heidelberg.de,Im Neuenheimer Feld,69120,Heidelberg,Baden-Württemberg
St. Anna-Virngrund-Klinik Ellwangen,48.957086,10.1319759,klinik-ellwangen.de,www.klinik-ellwangen.de,Dalkinger Straße,73479,Ellwangen,Baden-Württemberg
Helios Klinikum Gifhorn GmbH,52.4966591,10.5463665,helios-gesundheit.de,www.helios-gesundheit.de,Campus,38518,Gifhorn,Niedersachsen
Evangelisches Krankenhaus Paul-Gerhardt-Stift,51.8702739,12.6558726,pgdiakonie.de,www.pgdiakonie.de,Paul-Gerhardt-Straße,06886,Lutherstadt Wittenberg,Sachsen-Anhalt
GFO Kliniken Troisdorf,50.7972676,7.1171181,gfo-kliniken-troisdorf.de,www.gfo-kliniken-troisdorf.de,Wilhelm-Busch-Straße,53844,Troisdorf,Nordrhein-Westfalen
Schön Klinik Lorsch,47.9477622,12.1882035,schoen-klinik.de,www.fachklinik-lorsch.de,Wilhelm-Leuschner-Straße,64653,Lorsch,Hessen
Paulinenkrankenhaus,52.2990053,7.1507594,orthopaedie-badbentheim.de,www.orthopaedie-badbentheim.de,Paulinenweg,48455,Bad Bentheim,Niedersachsen
GRN-Klinik Eberbach,49.4632668,8.9912202,grn.de,www.grn.de,Scheuerberg,69412,Eberbach,Baden-Württemberg
Kreiskrankenhaus Demmin GmbH,53.9020319,13.041648,kkh-demmin.de,www.kkh-demmin.de,Wollweberstraße,17109,Demmin,Mecklenburg-Vorpommern
Schön Klinik Hamburg Eilbek,53.577876,10.0525289,schoen-klinik.de,www.schoen-klinik.de/hamburg-eilbek,Dehnhaide,22081,Hamburg,Hamburg
Kliniken Maria Hilf GmbH,51.2190284,6.4202787,mariahilf.de,www.mariahilf.de,Viersener Straße,41063,Mönchengladbach,Nordrhein-Westfalen
ASKLEPIOS Klinik Wandsbek,53.5699129,10.088317,asklepios.com,www.asklepios.com/hamburg/wandsbek/,Alphonsstraße,22043,Hamburg,Hamburg
LVR-Klinik Köln,50.910327,7.0169235,lvr.de,www.klinik-koeln.lvr.de,Adamsstraße,51063,Köln,Nordrhein-Westfalen
m&i-Klinikgesellschaft in Ichenhausen GmbH,48.3657536,10.3086514,fachklinik-ichenhausen.de,www.fachklinik-ichenhausen.de,Krumbacher Str.,89335,Ichenhausen,Bayern
Klinikum Darmstadt,49.8744006,8.6461346,klinikum-darmstadt.de,www.klinikum-darmstadt.de,Grafenstraße,64283,Darmstadt,Hessen
ASKLEPIOS Klinik Nord,53.6750137,10.030373,asklepios.com,www.asklepios.com/hamburg/nord/,Tangstedter Landstraße,22417,Hamburg,Hamburg
Theresienkrankenhaus und St. Hedwig-Klinik,49.4896396,8.4820619,theresienkrankenhaus.de,www.theresienkrankenhaus.de,Bassermannstraße,68165,Mannheim,Baden-Württemberg
Kliniken Nordoberpfalz AG,49.6808915,12.1664627,kliniken-nordoberpfalz.ag,www.kliniken-nordoberpfalz.ag,Söllnerstr.,92637,Weiden i. d. OPf.,Bayern
Klinikum Passau,48.5698406,13.4476155,klinikum-passau.de,www.klinikum-passau.de,Innstr.,94032,Passau,Bayern
AGAPLESION Bethesda Krankenhaus Bergedorf gGmbH,53.4858345,10.2360233,klinik-bergedorf.de,www.klinik-bergedorf.de/start,Glindersweg,21029,Hamburg,Hamburg
"Katholische Kliniken im Märkischen Kreis, Iserlohn",51.3710884,7.6931512,kkimk.de,www.kkimk.de,Hochstraße,58638,Iserlohn,Nordrhein-Westfalen
Klinikum Frankfurt Höchst,50.1085926,8.5464632,varisano.de,www.varisano.de/klinikum-frankfurt-hoechst,Gotenstraße,65929,Frankfurt,Hessen
Sana Klinikum Offenbach,52.8113855,13.0356444,sana.de,/www.sana.de/offenbach,Starkenburgring,63069,Offenbach,Hessen
Zentrum für Psychiatrie Calw,48.7454956,8.715852,kn-calw.de,www.kn-calw.de,Lützenhardter Hof,75365,Calw,Baden-Württemberg
ASKLEPIOS Stadtklinik Bad Wildungen,51.1171898,9.1142051,asklepios.com,www.asklepios.com,Brunnenallee,34537,Bad Wildungen,Hessen
Augenklinik Berlin-Marzahn,52.5142669,13.5675803,augenklinik-berlin.de,www.augenklinik-berlin.de,Brebacher Weg,12683,Berlin,Berlin
BG Klinikum Unfallkrankenhaus Berlin gGmbH,52.5191371,13.5685101,ukb.de,www.ukb.de,Warener  Straße,12683,Berlin,Berlin
Mariaberg - Fachkrankenhaus Kinder- und Jugendpsychiatrie,48.2739922,9.2105992,kjp-mariaberg.de,www.kjp-mariaberg.de,Burghaldenstraße,72501,Gammertingen,Baden-Württemberg
Therapiezentrum Burgau,48.4355694,10.4063958,therapiezentrum-burgau.de,www.therapiezentrum-burgau.de,Kapuzinerstr.,89331,Burgau,Bayern
Helios Dr. Horst Schmidt Kliniken Wiesbaden,50.0866424,8.2699327,helios-gesundheit.de,www.helios-gesundheit.de/kliniken/wiesbaden-hsk/,Aukammallee,65191,Wiesbaden,Hessen
Vivantes Komfortklinik GmbH,52.5067052,13.5938632,vivantes.de,www.vivantes.de,Aroser Allee,13437,Berlin,Berlin
GRN-Klinik Weinheim,49.5496706,8.644652,grn.de,www.grn.de,Röntgenstraße,69469,Weinheim,Baden-Württemberg
Helios Klinik Jerichower Land GmbH,52.2646007,11.832682,helios-gesundheit.de,www.helios-gesundheit.de/kliniken/burg/,August-Bebel-Straße,39288,Burg,Sachsen-Anhalt
St. Nikolaus-Hospital Wallerfangen,49.3290932,6.7129668,sankt-nikolaus-hospital.de,http://www.sankt-nikolaus-hospital.de/,Friedenstraße,66822,Lebach,Saarland
"Oberlausitzkliniken gGmbH, Krankenhaus Bautzen",51.18456,14.4309102,oberlausitz-kliniken.de,www.oberlausitz-kliniken.de/kliniken-bereiche/krankenhaus-bautzen/,Am Stadtwall,02625,Bautzen,Sachsen
Krankenhaus Martha-Maria,48.0854315,11.5348056,martha-maria.de,www.martha-maria.de,Wolfratshauser Str.,81479,München,Bayern
KRH-Klinikum Siloah,52.3918895,9.7143061,krh.eu,www.krh.eu,Stadionbrücke,30459,Hannover,Niedersachsen
KMG Klinikum Güstrow GmbH,52.9636219,11.951825,kmg-kliniken.de,www.kmg-kliniken.de,Friedrich-Trendelenburg-Allee,18273,Güstrow,Mecklenburg-Vorpommern
Katholisches Klinikum Bochum gGmbH,51.5198254,7.2723217,klinikum-bochum.de,www.klinikum-bochum.de,Bleichstr.,44787,Bochum,Nordrhein-Westfalen
KJF Klinik Josefinum gGmbH,48.3857169,10.8749427,josefinum.de,www.josefinum.de,Kapellenstr.,86154,Augsburg,Bayern
Universitätsklinikum Augsburg AöR,48.3059193,10.9162796,uk-augsburg.de,www.uk-augsburg.de,Sauerbruchstr.,86179,Augsburg,Bayern
Klinik ChiemseeWinkel Seebruck GmbH,47.9327426,12.4755506,klinik-chiemseewinkel.de,www.klinik-chiemseewinkel.de,Römerstr.,83358,Seeon-Seebruck,Bayern
KMG Klinikum Güstrow GmbH,53.8110887,12.199513,kmg-kliniken.de,www.kmg-kliniken.de,Friedrich-Trendelenburg-Allee,18273,Güstrow,Mecklenburg-Vorpommern
Marienkrankenhaus Schwerte,51.4439057,7.5676702,marien-kh.de,www.marien-kh.de,Goethestraße,58239,Schwerte,Nordrhein-Westfalen
St. Joseph-Krankenhaus Berlin Tempelhof,52.478104,13.3729563,sjk.de,www.sjk.de,Wüsthoffstraße,12101,Berlin,Berlin
DRK-Krankenhaus Clementinenhaus,52.3865243,9.7450518,clementinenhaus.de,www.clementinenhaus.de,Lützerodestrasse,30163,Hannover,Niedersachsen
St. Josef Krankenhaus Moers,51.4454856,6.640518,st-josef-moers.de,www.st-josef-moers.de,Asberger Straße,47441,Moers,Nordrhein-Westfalen
Hospital zum Heiligen Geist,51.1326455,9.2774269,hospital-fritzlar.de,www.hospital-fritzlar.de,Am Hospital,34560,Fritzlar,Hessen
Katholisches Klinikum Koblenz-Montabaur,50.431676,7.8320138,kk-km.de,www.kk-km.de/kk_km,Kardinal-Krementz-Straße,56073,Koblenz am Rhein,Rheinland-Pfalz
DRK Krankenhaus Alzey,49.746157,8.1037983,drk-kh-alzey.de,www.drk-kh-alzey.de,Kreuznacher Str.,55232,Alzey,Rheinland-Pfalz
LWL-Universitätsklinikum Bochum,51.4902321,7.2295131,lwl.org,www.uk-bochum.lwl.org,Alexandrinenstr.,44791,Bochum,Nordrhein-Westfalen
Fachklinik für Lungenerkrankungen,51.4231779,9.4771481,lungenfachklinik-immenhausen.de,www.lungenfachklinik-immenhausen.de,Robert-Koch-Straße,34376,Immenhausen,Hessen
Helios Klinik Müllheim,47.8115859,7.6349902,helios-gesundheit.de,www.helios-gesundheit.de,Heliosweg,79379,Müllheim,Baden-Württemberg
Fliedner Krankenhaus Ratingen,51.3334884,6.8186108,fliedner.de,www.fliedner.de,Thunesweg,40885,Ratingen,Nordrhein-Westfalen
Helios Klinikum Wuppertal,51.5327846,11.5415713,helios-gesundheit.de,www.helios-gesundheit.de/kliniken/wuppertal,Arrenberger Straße,42117,Wuppertal,Nordrhein-Westfalen
Klinikum Nordfriesland gGmbH - Klinik Husum und Klinik Niebüll,54.7931051,8.8437762,klinikum-nf.de,www.klinikum-nf.de/kliniken-praxen/,Gather Landstraße,25899,Niebüll,Schleswig-Holstein
St. Elisabeth-Hospitalgesellschaft Niederrhein mbH,51.3044348,6.6767774,rrz-meerbusch.de,www.rrz-meerbusch.de,Hauptstraße,40668,Meerbusch,Nordrhein-Westfalen
Vestische Kinder- und Jugendklinik Datteln,51.642802,7.3380359,kinderklinik-datteln.de,www.kinderklinik-datteln.de,Dr.-Fr.-Steiner-Straße,45711,Datteln,Nordrhein-Westfalen
Krankenhaus Wittmund gGmbH,53.571777,7.7881767,kh-wtm.de,www.kh-wtm.de,Dohuser Weg,26409,Wittmund,Niedersachsen
Privatklinik Stillachhaus Betriebsgesellschaft mbH,47.4070258,10.2585415,stillachhaus.de,www.stillachhaus.de,Alte Walserstr.,87561,Oberstdorf,Bayern
Kath. Krankenhaus Hagen gem. GmbH,51.358904,7.5663104,kkh-hagen.de,www.kkh-hagen.de,Iserlohner Straße,58119,"Hagen, Westfalen",Nordrhein-Westfalen
Katholisches Klinikum Bochum gGmbH,51.4827507,7.2211891,klinikum-bochum.de,www.klinikum-bochum.de,Bleichstr.,44787,Bochum,Nordrhein-Westfalen
Paracelsus Klinik am Silbersee,50.3971983,12.3359648,paracelsus-kliniken.de,www.paracelsus-kliniken.de,Oertzeweg,30851,Langenhagen,Niedersachsen
St. Vinzenz-Krankenhaus Hanau,50.1351427,8.9122132,vinzenz-hanau.de,www.vinzenz-hanau.de,Am Frankfurter Tor,63450,Hanau,Hessen
Diabetes-Klinik Bad Mergentheim,49.4957103,9.7793963,diabetes-zentrum.de,www.diabetes-zentrum.de,Theodor-Klotzbücher-Straße,97980,Bad Mergentheim,Baden-Württemberg
Zentrum für Psychiatrie Reichenau,47.6945646,9.1235823,zfp-reichenau.de,www.zfp-reichenau.de,Feursteinstraße,78479,Reichenau,Baden-Württemberg
AMEOS Klinikum Haldensleben,53.5324132,8.6047696,ameos.eu,www.ameos.eu/standorte/ameos-ost/haldensleben/ameos-klinikum-haldensleben/,Kiefholzstraße,39340,Haldensleben,Sachsen-Anhalt
UKM Marienhospital Steinfurt,52.1265238,7.4004494,ukm-mhs.de,www.ukm-mhs.de,Marienstr.,48282,Emsdetten,Nordrhein-Westfalen
MEDIAN Klinik NRZ Wiesbaden,50.3898208,10.5662547,median-kliniken.de,www.median-kliniken.de/de/median-klinik-nrz-wiesbaden,Aukammallee,65191,Wiesbaden,Hessen
SALUS gGmbH Fachklinikum Uchtspringe,52.1562875,11.9927213,salus-lsa.de,www.salus-lsa.de,Schillerstraße,29410,"Salzwedel, Hansestadt",Sachsen-Anhalt
Elbe Klinikum Stade,53.5961616,9.442593,elbekliniken.de,www.elbekliniken.de,Bremervörder Straße,21682,"Stade, Niederelbe",Niedersachsen
Helios Klinikum Berlin-Buch,52.6312045,13.508294,helios-kliniken.de,www.helios-kliniken.de/berlin,Schwanebecker Chaussee,13125,Berlin,Berlin
St. Vincentius-Krankenhaus,49.3160554,8.4213194,vincentius-speyer.de,www.vincentius-speyer.de,Holzstraße,67346,Speyer,Rheinland-Pfalz
Friedrich-Husemann-Klinik,47.9682399,7.9964445,friedrich-husemann-klinik.de,www.friedrich-husemann-klinik.de,Friedrich Husemann Weg,79256,Buchenbach,Baden-Württemberg
Marienstift Arnstadt - Fachklinik für Orthopädie,50.8374888,10.9448779,ms-arn.de,www.marienstift-arnstadt.de/fachklinik-fuer-orthopaedie.html,Wachsenburgallee,99310,Arnstadt,Thüringen
Kreisklinik Wolfratshausen gGmbH,47.9118247,11.4284621,kreisklinik-wolfratshausen.de,www.kreisklinik-wolfratshausen.de,Moosbauerweg,82515,Wolfratshausen,Bayern
Krankenhaus Mörsenbroich-Rath GmbH,51.2668595,6.8246961,augusta-duesseldorf.de,www.augusta-duesseldorf.de,Amalienstraße,40472,Düsseldorf,Nordrhein-Westfalen
MEDIAN Klinik Berus,52.65145,11.3970212,median-kliniken.de,https://www.median-kliniken.de/de/median-zentrum-berus/,Orannastraße,66802,Überherrn-Berus,Saarland
ASKLEPIOS Klinik Seligenstadt,50.0418547,8.9644898,asklepios.com,www.asklepios.com/seligenstadt/,Am Reitpfad,63500,Seligenstadt,Hessen
ASKLEPIOS Klinik Weißenfels,51.1939594,11.9569056,asklepios.com,www.asklepios.com/weissenfels,Naumburger Straße,06667,Weißenfels,Sachsen-Anhalt
Klinikum Niederlausitz GmbH,51.49854,13.7891262,klinikum-niederlausitz.de,www.klinikum-niederlausitz.de,Friedensstraße,01979,Lauchhammer,Brandenburg
Klinikum Freising GmbH,48.4049373,11.7450317,klinikum-freising.de,www.klinikum-freising.de,Alois-Steinecker-Str.,85354,Freising,Bayern
Diakonie Klinikum Neunkirchen gGmbH Kreuznacher Diakonie,49.3409204,7.1830697,kreuznacherdiakonie.de,www.kreuznacherdiakonie.de,Brunnenstraße,66538,Neunkirchen,Saarland
Landkreis Mittweida Krankenhaus,50.9809987,12.9844836,lmkgmbh.de,www.lmkgmbh.de,Hainichener Str.,09648,Mittweida,Sachsen
Krankenhaus Ludmillenstift Meppen,52.6887266,7.2928697,ludmillenstift.de,www.ludmillenstift.de,Ludmillenstraße,49716,Meppen,Niedersachsen
Klinikum Fürth,49.4845821,10.9745616,klinikum-fuerth.de,www.klinikum-fuerth.de,Jakob-Henle-Str.,90766,Fürth,Bayern
Veramed Klinik am Wendelstein KG,47.739184,12.0924539,veramed.de,www.veramed.de,Mühlenstr.,83098,Brannenburg,Bayern
LWL-Klinik Marl-Sinsen Marl,51.6912609,7.1827946,lwl.org,www.lwl-klinik-marl.de,Halternerst.,45770,"Marl, Westfalen",Nordrhein-Westfalen
Krankenhaus Barmherzige Brüder,48.1565428,11.5094942,barmherzige-muenchen.de,www.barmherzige-muenchen.de,Romanstr.,80639,München,Bayern
Helios Vogtland-Klinikum Plauen GmbH,50.4911428,12.1541831,helios-gesundheit.de,www.helios-gesundheit.de/plauen,Röntgenstr.,08529,Plauen,Sachsen
Zeisigwaldkliniken Bethanien Chemnitz,50.8399595,12.9625394,bethanien-sachsen.de,www.bethanien-chemnitz.de,Zeisigwaldstr.,09130,Chemnitz,Sachsen
Helios Klinikum Duisburg,51.4134628,6.7550697,helios-gesundheit.de,www.helios-gesundheit.de/kliniken/duisburg,Grunewaldstr.,47053,Duisburg,Nordrhein-Westfalen
Klinikum Altenburger Land GmbH,50.9723911,12.4399276,klinikum-altenburgerland.de,www.klinikum-altenburgerland.de,Am Waldessaum,04600,Altenburg,Thüringen
Klinikum Hann. Münden GmbH,51.3981037,9.6582753,khmue.de,www.khmue.de,Vogelsang,34346,Hann. Münden,Niedersachsen
Ethianum Klinik,49.4093178,8.6843062,ethianum-klinik-heidelberg.de,www.ethianum-klinik-heidelberg.de,Voßstr.,69115,Heidelberg,Baden-Württemberg
Städtisches Klinikum Dresden - Standort Friedrichstadt,51.0649971,13.835851,klinikum-dresden.de,www.klinikum-dresden.de,Heinrich-Cotta-Str.,01324,Dresden,Sachsen
Hochtaunus-Kliniken gGmbH,50.1839526,8.4622414,hochtaunus-kliniken.de,www.hochtaunus-kliniken.de,Woogtalstraße,61462,Königstein,Hessen
Dietrich-Bonhoeffer-Klinikum,53.5455588,13.2943189,dbknb.de,www.dbknb.de,Salvador-Allende-Straße,17036,Neubrandenburg,Mecklenburg-Vorpommern
KMG Klinikum Mitte GmbH,51.1621496,11.1219341,kmg-kliniken.de,www.kmg-kliniken.de/kmg-klinikum-kyritz,Perleberger Straße,16866,Kyritz,Brandenburg
GEOMED-KREISKLINIK GmbH,49.9006262,10.3559732,geomed-klinik.de,www.geomed-klinik.de,Dingolshäuser Str.,97447,Gerolzhofen,Bayern
Stiftung Kreuznacher Diakonie Fliedner Krankenhaus,49.3481651,7.1859385,kreuznacherdiakonie.de,//www.kreuznacherdiakonie.de,Theodor-Fliedner-Straße,66538,Neunkirchen,Saarland
Helios Frankenwaldklinik Kronach,50.2437656,11.3322307,helios-kliniken.de,www.helios-kliniken.de/kronach,Friesener Str.,96317,Kronach,Bayern
Dreifaltigkeits-Hospital gGmbH,51.6366454,8.5098743,dreifaltigkeits-hospital.de,www.dreifaltigkeits-hospital.de,Bachstraße,59590,Geseke,Nordrhein-Westfalen
Kliniken Am Goldenen Steig,48.8053542,13.546133,frg-kliniken.de,www.frg-kliniken.de,Krankenhausstr.,94078,Freyung,Bayern
Alexius/Josef Krankenhaus,51.1912809,6.7019633,psychiatrie-neuss.de,www.psychiatrie-neuss.de,Berghäuschensweg,41464,Neuss,Nordrhein-Westfalen
Klinikum Weser-Egge,51.7273958,9.1807095,khwe.de,www.khwe.de,Elmarstraße,33014,Bad Driburg,Nordrhein-Westfalen
AMEOS Klinikum Lübeck,48.2636904,13.0140152,ameos.eu,www.ameos.eu/klinikum-luebeck-klinik-fuer-abhaengigkeitserkrankungen/,Weidenweg,23562,Lübeck,Schleswig-Holstein
Krankenhaus St. Joseph-Stift Dresden,51.0474063,13.7611938,josephstift-dresden.de,www.josephstift-dresden.de,Wintergartenstraße,01307,Dresden,Sachsen
Gemeinschaftskrankenhaus Bonn gGmbH,50.7275413,7.1027037,gk-bonn.de,www.gk-bonn.de,Bonner Talweg,53113,Bonn,Nordrhein-Westfalen
Gesundheit Nord gGmbH Klinikverbund Bremen Standort Klinkum Bremen-Ost,53.0641569,8.9403138,gesundheitnord.de,www.gesundheitnord.de,Züricher Straße,28325,Bremen,Bremen
Hauptstandort Rudolf-Virchow-Klinikum,50.8100336,12.5519603,klinikum-glauchau.de,www.klinikum-glauchau.de,Virchowstr.,08371,Glauchau,Sachsen
ASKLEPIOS Klinik Lich,48.8629014,13.0674971,asklepios.com,www.asklepios.com/lich/,Goethestraße,35423,Lich,Hessen
Helios Dr. Horst Schmidt Kliniken Wiesbaden,50.0651776,8.1917428,helios-gesundheit.de,www.helios-gesundheit.de/kliniken/wiesbaden-hsk/,Ludwig-Erhard-Straße,65199,Wiesbaden,Hessen
St. Theresien-Krankenhaus Nürnberg Gemeinnützige GmbH,49.4692931,11.11039,theresien-krankenhaus.de,www.theresien-krankenhaus.de,Mommsenstr.,90491,Nürnberg,Bayern
Stenum Fachklinik für Orthopädie,53.0791014,8.5549485,stenum-ortho.de,www.stenum-ortho.de,Heilstättenweg,27777,Ganderkesee,Niedersachsen
St. Josefs-Hospital Rheingau,49.9831747,7.9264059,joho-rheingau.de,www.joho-rheingau.de,Eibinger Straße,65385,Rüdesheim,Hessen
DIAKO Ev. Diakonie-Krankenhaus gGmbH,53.1257006,8.7453503,diako-bremen.de,www.diakobremen.de,Gröpelinger Heerstr.,28239,Bremen,Bremen
Rotes-Kreuz-Krankenhaus Bremen gGmbH,53.0691185,8.8029953,roteskreuzkrankenhaus.de,www.roteskreuzkrankenhaus.de,St.-Pauli-Deich,28199,Bremen,Bremen
Delme Klinikum Delmenhorst,53.0445524,8.594001,delme-klinikum.de,www.delme-klinikum.de,Wildeshauser Straße,27753,Delmenhorst,Niedersachsen
Roland-Klinik gGmbH,53.0563459,8.8241258,roland-klinik.de,www.roland-klinik.de,Niedersachsendamm,28201,Bremen,Bremen
Havelland Kliniken GmbH,52.5997683,12.8749259,havelland-kliniken.de,www.hvl-kliniken.de,Dallgower Straße,14612,Falkensee,Brandenburg
AMEOS Klinikum Haldensleben,53.0759975,8.9425303,ameos.eu,www.ameos.eu/standorte/ameos-ost/haldensleben/ameos-klinikum-haldensleben/,Kiefholzstraße,39340,Haldensleben,Sachsen-Anhalt
Krankenhaus St. Elisabeth und St. Barbara,51.4588251,11.9785785,krankenhaus-halle-saale.de,www.krankenhaus-halle-saale.de,Barbarastraße,06110,Halle (Saale),Sachsen-Anhalt
Helios St. Elisabeth Klinik Hünfeld,51.4899264,6.7610278,helios-kliniken.de,www.helios-gesundheit.de/kliniken/huenfeld/,Schillerstraße,36088,Hünfeld,Hessen
Paracelsus-Klinik Bremen GmbH,53.0795813,8.8769959,paracelsus-kliniken.de,www.paracelsus-kliniken.de/bremen.html,In der Vahr,28329,Bremen,Bremen
St. Elisabeth-Krankenhaus GmbH,50.9230859,6.8967971,hohenlind.de,www.hohenlind.de,Werthmannstr.,50935,Köln,Nordrhein-Westfalen
Standort Marienhospital Kevelaer,51.7726173,6.1355496,kkle.de,www.kkle.de/klinikum/marienhospital,Basilikastr.,47623,Kevelaer,Nordrhein-Westfalen
ASKLEPIOS Neurologische Klinik Falkenstein,50.1912349,8.4831095,asklepios.com,www.asklepios.com/falkenstein/,Asklepiosweg,61462,Königstein,Hessen
Helios Bördeklinik GmbH,52.0658403,11.1905095,helios-gesundheit.de,www.helios-gesundheit.de/kliniken/boerdeklinik/,Kreiskrankenhaus,39387,Oschersleben,Sachsen-Anhalt
AMEOS Klinikum Haldensleben,54.3742228,10.9565512,ameos.eu,www.ameos.eu/standorte/ameos-ost/haldensleben/ameos-klinikum-haldensleben/,Kiefholzstraße,39340,Haldensleben,Sachsen-Anhalt
BDH-Klinik Hessisch Oldendorf,52.1739958,9.2503124,bdh-klinik-hessisch-oldendorf.de,www.bdh-klinik-hessisch-oldendorf.de,Greitstraße,31840,Hessisch Oldendorf,Niedersachsen
Caritas-Krankenhaus St. Lukas GmbH,48.9239399,11.8858437,csl-kelheim.de,www.csl-kelheim.de,Traubenweg,93309,Kelheim,Bayern
Marienhospital Gelsenkirchen GmbH,51.4955001,7.101255,marienhospital.eu,www.marienhospital.eu,Virchowstraße,45886,Gelsenkirchen,Nordrhein-Westfalen
St. Josefskrankenhaus Heidelberg,49.4025692,8.6891404,josefskrankenhaus.de,www.st.josfeskrankenhaus.de,Landhausstraße,69115,Heidelberg,Baden-Württemberg
Cellitinnen-Krankenhaus St. Antonius,50.9103481,6.9668519,antonius-koeln.de,www.antonius-koeln.de,Schillerstr.,50968,Köln,Nordrhein-Westfalen
MEDIAN Klinik Berus,52.3251649,11.2382678,median-kliniken.de,https://www.median-kliniken.de/de/median-zentrum-berus/,Orannastraße,66802,Überherrn-Berus,Saarland
Klinikum Weser-Egge,51.7419517,9.0116909,khwe.de,www.khwe.de,Elmarstraße,33014,Bad Driburg,Nordrhein-Westfalen
ASKLEPIOS Klinik Pasewalk,53.4894556,13.9860745,asklepios.com,www.asklepios.com,Prenzlauer Chaussee,17309,Pasewalk,Mecklenburg-Vorpommern
Neurologische Klinik Sorpesee GmbH & Co. KG,51.3495788,7.9505313,klinik-sorpesee.de,www.klinik-sorpesee.de,Lindenstraße,59846,Sundern (Sauerland),Nordrhein-Westfalen
Helios Klinik Leisnig GmbH,51.1558361,12.9207864,helios-gesundheit.de,www.helios-gesundheit.de,Colditzer Str.,04703,Leisnig,Sachsen
ASKLEPIOS Klinik Altona,53.5549447,9.9016476,asklepios.com,www.asklepios.com/hamburg/altona/,Paul-Ehrlich-Straße,22763,Hamburg,Hamburg
Malteser-Krankenhaus Berlin-Charlottenburg,52.5088183,13.2518888,malteser-krankenhaus-berlin.de,www.malteser-krankenhaus-berlin.de,Pillkaller Allee,14055,Berlin,Berlin
Klinikum Leverkusen,51.0315272,7.0346073,klinikum-lev.de,www.klinikum-lev.de,Am Gesundheitspark,51375,Leverkusen,Nordrhein-Westfalen
Klinikum Main-Spessart,49.9963025,9.5715656,klinikum-msp.de,www.klinikum-msp.de,Grafen-von-Rieneck-Straße,97816,Lohr am Main,Bayern
Psychosomatische Klinik GmbH & Co Windach/Ammersee KG,48.0726552,11.0484962,klinik-windach.de,www.klinik-windach.de,Westendstr.,80686,München,Bayern
Main-Kinzig-Kliniken gGmbH,50.2066396,9.181324,mkkliniken.de,www.mkkliniken.de,Herzbachweg,63571,Gelnhausen,Hessen
Elbe-Elster Klinikum GmbH,51.6356982,13.6981648,elbe-elster-klinikum.de,www.elbe-elster-klinikum.de,Kirchhainer Straße,03238,Finsterwalde,Brandenburg
AGAPLESION Bethanien Krankenhaus Heidelberg,49.3917759,8.6910169,bethanien-heidelberg.de,www.bethanien-heidelberg.de,Rohrbacher Str.,69126,Heidelberg,Baden-Württemberg
Westpfalz-Klinikum,49.6588375,8.0076943,westpfalz-klinikum.de,www.westpfalz-klinikum.de,Hellmut-Hartert-Straße,67655,Kaiserslautern,Rheinland-Pfalz
Westpfalz-Klinikum,49.6307343,7.8144719,westpfalz-klinikum.de,www.westpfalz-klinikum.de,Hellmut-Hartert-Straße,67655,Kaiserslautern,Rheinland-Pfalz
Robert-Koch-Krankenhaus Apolda GmbH,51.0126815,11.5122751,rkk-apolda.de,www.rkk-apolda.de,Jenaer Straße,99510,Apolda,Thüringen
Bezirksklinikum Mainkofen,48.8077434,12.8974753,mainkofen.de,www.mainkofen.de,Mainkofen A,94469,Deggendorf,Bayern
RZ Rheumazentrum RLP GmbH,49.8403356,7.8556199,kh-acura-kliniken.com,www.sana-rz.de,Kaiser-Wilhelm-Straße,55543,Bad Kreuznach,Rheinland-Pfalz
MEDIAN Klinik Berus,50.1596132,6.8441918,median-kliniken.de,https://www.median-kliniken.de/de/median-zentrum-berus/,Orannastraße,66802,Überherrn-Berus,Saarland
Evangelisches Lukas-Krankenhaus,52.2167356,7.0299803,lukas-gronau.de,www.lukas-gronau.de,Zum Lukaskrankenhaus,48599,Gronau (Westfalen),Nordrhein-Westfalen
Evangelisches Krankenhaus Göttingen-Weende gGmbH,51.5545918,9.9436862,ekweende.de,www.ekweende.de,An der Lutter,37075,Göttingen,Niedersachsen
Helios Kliniken Mittelweser GmbH Klinik Stolzenau,52.5153105,9.0686405,helios-gesundheit.de,www.helios-gesundheit.de,Holzhäuser Weg,31592,Stolzenau,Niedersachsen
St. Josefskrankenhaus Freiburg,48.0016989,7.8524318,rkk-klinikum.de,www.rkk-sjk.de,Sautierstraße,79104,Freiburg,Baden-Württemberg
Eichsfeld Klinikum gGmbH,51.3763467,10.1411296,eichsfeld-klinikum.de,www.eichsfeld-klinikum.de,Windische Gasse,37308,Heilbad Heiligenstadt,Thüringen
AGAPLESION Evangelisches Krankenhaus Holzminden gGmbH,51.834158,9.4555899,evk-holzminden.de,www.evk-holzminden.de,Forster Weg,37603,Holzminden,Niedersachsen
Filderklinik,48.6473198,9.2040008,filderklinik.de,www.filderklinik.de,Im Haberschlai,70794,Filderstadt,Baden-Württemberg
Haßberg-Kliniken AöR des Landkreises Haßberge,50.0404247,10.5146057,hassberg-kliniken.de,www.hassberg-kliniken.de,Hofheimer Str.,97437,Haßfurt,Bayern
Klinikum Altmühlfranken Weißenburg,49.034364,10.9852082,klinikum-altmuehlfranken.de,www.klinikum-altmuehlfranken.de,Krankenhausstr.,91781,Weißenburg i. Bay.,Bayern
Krankenhaus St. Elisabeth und St. Barbara,51.4775469,11.9681942,krankenhaus-halle-saale.de,www.krankenhaus-halle-saale.de,Barbarastraße,06110,Halle (Saale),Sachsen-Anhalt
"Thüringen Kliniken ""Georgius Agricola"" GmbH",50.6444594,11.3439016,thueringen-kliniken.de,www.thueringen-kliniken.de,Rainweg,07318,Saalfeld/Saale,Thüringen
ASKLEPIOS Fachklinikum Göttingen,51.5239093,9.9172202,asklepios.com,www.asklepios.com,Rosdorfer Weg,37081,Göttingen,Niedersachsen
Vivantes Komfortklinik GmbH,52.4939563,13.4085942,vivantes.de,www.vivantes.de,Aroser Allee,13437,Berlin,Berlin
Heiligenfeld Klinik Berlin,50.1874907,10.0703698,heiligenfeld.de,https://www.heiligenfeld.de/kliniken/heiligenfeld-klinik-berlin/,Brebacher Weg,12683,Berlin,Berlin
Thoraxzentrum Bezirk Unterfranken Fachkrankenhaus,50.2510645,10.1791546,tzbu.de,www.tzbu.de,Michelsberg,97702,Münnerstadt,Bayern
Klinikum Hochsauerland GmbH,51.3416742,8.2900458,klinikum-hochsauerland.de,www.klinikum-hochsauerland.de,Schederweg,59870,Meschede,Nordrhein-Westfalen
Niels-Stensen-Kliniken St. Vinzenz-Hospital Haselünne,52.6709568,7.4828725,niels-stensen-kliniken.de,www.krankenhaus-haseluenne.de,Hammer Straße,49740,Haselünne,Niedersachsen
KRH-Klinikum Siloah,52.3598758,9.7239145,krh.eu,www.krh.eu,Stadionbrücke,30459,Hannover,Niedersachsen
"Klinik am Steigerwald GmbH & Co. KG, Zentrum für chinesische Medizin und biologische Heilverfahren",49.889173,10.408378,tcmklinik.de,www.tcmklinik.de,Waldesruh,97447,Gerolzhofen,Bayern
DONAUISAR Klinikum Deggendorf-Landau,48.66571,12.7030103,donau-isar-klinikum.de,www.donau-isar-klinikum.de,Bayerwaldring,94405,Landau,Bayern
DONAUISAR Klinikum Dingolfing,48.6218205,12.4901208,donau-isar-klinikum.de,www.donau-isar-klinikum.de,Teisbacher Str.,84130,Dingolfing,Bayern
St. Agatha Fachklinik für Seelische Gesundheit,50.9873383,6.9604557,st-agatha-krankenhaus.de,www.st-agatha-krankenhaus.de,Feldgärtenstr.,50735,Köln,Nordrhein-Westfalen
Klinikum Vest GmbH,51.6620049,7.1241505,klinikum-vest.de,www.klinikum-vest.de,Lipper Weg,45770,"Marl, Westfalen",Nordrhein-Westfalen
Zentralinstitut für Seelische Gesundheit,49.4922133,8.4658312,zi-mannheim.de,www.zi-mannheim.de,J5,68159,Mannheim,Baden-Württemberg
Helios Klinikum Berlin-Buch,51.4431931,10.5666409,helios-kliniken.de,www.helios-kliniken.de/berlin,Schwanebecker Chaussee,13125,Berlin,Berlin
Aller-Weser-Klinik Krankenhaus Verden,52.9139486,9.2322991,aller-weser-klinik.de,www.aller-weser-klinik.de,Eitzer Straße,27283,Verden (Aller),Niedersachsen
"Klinikum Döbeln, Hauptstandort",51.1187787,13.1312528,klinikum-doebeln.de,www.klinikum-doebeln.de,Sörmitzer Str.,04720,Döbeln,Sachsen
ASKLEPIOS Klinik Birkenwerder,52.6919579,13.2984671,asklepios.com,www.asklepios.com,Hubertusstr.,16547,Birkenwerder,Brandenburg
AWO Fachkrankenhaus Jerichow,52.5010924,12.0387905,awo-sachsenanhalt.de,www.awo-sachsenanhalt.de/,Johannes-Lange-Straße,39319,Jerichow,Sachsen-Anhalt
Kreiskrankenhaus Grünstadt,49.5637826,8.1578416,krankenhausgruenstadt.de,www.krankenhausgruenstadt.de,Westring,67269,Grünstadt,Rheinland-Pfalz
Ammerland Klinik GmbH,53.2582985,7.9181889,ammerland-klinik.de,www.ammerland-klinik.de,Lange Straße,26655,Westerstede,Niedersachsen
LUP Klinikum Helene von Bülow gGmbH,53.4342501,11.1818181,wmk-hvb.de,www.wmk-hvb.de,Parkstraße,19230,Hagenow,Mecklenburg-Vorpommern
Hufeland Klinikum GmbH,51.1052518,10.6496021,hufeland.de,www.hufeland.de,Rudolf-Weiß-Straße,99947,Bad Langensalza,Thüringen
Schön Klinik Lorsch,48.1040451,11.5670694,schoen-klinik.de,www.fachklinik-lorsch.de,Wilhelm-Leuschner-Straße,64653,Lorsch,Hessen
Kliniken der Stadt Köln Standort Merheim,50.9374513,7.0523589,kliniken-koeln.de,www.kliniken-koeln.de,Ostmerheimer Str.,51109,Köln,Nordrhein-Westfalen
MEDIAN Klinik St. Georg Bad Dürrheim,52.0963209,8.7615904,median-kliniken.de,www.median-kliniken.de,Gartenstraße,78073,Bad Dürrheim,Baden-Württemberg
Städtische Klinikum Karlsruhe,49.0120252,8.3800276,klinikum-karlsruhe.de,www.klinikum-karlsruhe.de,Moltkestraße,76133,Karlsruhe,Baden-Württemberg
LWL-Universitätsklinikum Bochum,51.4908948,7.2284387,lwl.org,www.uk-bochum.lwl.org,Alexandrinenstr.,44791,Bochum,Nordrhein-Westfalen
Pfalzklinikum für Psychiatrie,49.1502328,8.0143616,pfalzklinikum.de,www.pfalzklinikum.de,Albert-Schweitzer-Straße,67655,Kaiserslautern,Rheinland-Pfalz
Elisabeth Klinikum Schmalkalden GmbH,50.7219866,10.4405294,elisabeth-klinikum.de,www.elisabeth-klinikum.de,Eichelbach,98574,Schmalkalden,Thüringen
Klinik Sankt Elisabeth,49.421185,8.6816458,sankt-elisabeth.de,www.sankt-elisabeth.de,Max-Reger-Straße,69121,Heidelberg,Baden-Württemberg
Havelland Kliniken GmbH,52.6074062,12.3485322,havelland-kliniken.de,www.hvl-kliniken.de,Forststraße,14712,Rathenow,Brandenburg
Helios Mariahilf Klinik Hamburg GmbH,53.4698643,9.9377592,helios-gesundheit.de,www.helios-gesundheit.de/kliniken/helios-mariahilf-klinik-hamburg/,Stader Straße,21075,Hamburg,Hamburg
Universitätsklinikum Ulm,48.410534,10.0009947,uniklinik-ulm.de,www.uni-ulm.de,Eythstraße,89075,Ulm,Baden-Württemberg
Klinikum Oldenburg gGmbH,53.1117025,8.2171163,klinikum-oldenburg.de,www.klinikum-oldenburg.de,Rahel-Straus-Straße,26133,Oldenburg (Oldb.),Niedersachsen
August-Bier-Klinik,54.1643909,10.5477266,august-bier-klinik.de,www.august-bier-klinik.de,Diekseepromenade,23714,Bad Malente-Gremsmühlen,Schleswig-Holstein
Curtius Klinik GmbH & Co. KG Fachklinik für Psychosomatik und Psychotherapeutische Medizin,54.1717903,10.5661284,curtius-klinik.de,www.curtius-klinik.de,Neue Kampstraße,23714,Bad Malente-Gremsmühlen,Schleswig-Holstein
Helios Frankenwaldklinik Kronach,51.7294572,9.9792081,helios-kliniken.de,www.helios-kliniken.de/kronach,Friesener Str.,96317,Kronach,Bayern
Fliedner Krankenhaus Ratingen,51.3362354,6.8157406,fliedner.de,www.fliedner.de,Thunesweg,40885,Ratingen,Nordrhein-Westfalen
Erzgebirgsklinikum gGmbH - Haus Stollberg,50.7177804,12.7881008,erzgebirgsklinikum.de,www.erzgebirgsklinikum.de/haus/stollberg,Jahnsdorfer Str.,09366,Stollberg,Sachsen
AGAPLESION Krankenhaus Neu-Bethlehem gGmbH,51.5407387,9.9430858,neubethlehem.de,www.neubethlehem.de,Humboldtallee,37073,Göttingen,Niedersachsen
AMEOS Klinikum Lübeck,54.2900614,10.8801334,ameos.eu,www.ameos.eu/klinikum-luebeck-klinik-fuer-abhaengigkeitserkrankungen/,Weidenweg,23562,Lübeck,Schleswig-Holstein
Universitätsklinikum Aachen AöR,50.7654183,6.0693066,ukaachen.de,www.ukaachen.de,Morillenhang,52074,Aachen,Nordrhein-Westfalen
MEDIAN Klinik Berus,52.5048172,13.6605698,median-kliniken.de,https://www.median-kliniken.de/de/median-zentrum-berus/,Orannastraße,66802,Überherrn-Berus,Saarland
Burghof-Klinik GmbH,52.1842784,9.0815691,burghof-klinik.de,www.burghof-klinik.de,Virchowstraße,31737,Rinteln,Niedersachsen
St. Marien-Hospital Mülheim an der Ruhr GmbH,51.4260383,6.8867307,contilia.de,www.contilia.de/einrichtungen/st-marien-hospital-muelheim-an-der-ruhr,Kaiserstraße,45468,Mülheim an der Ruhr,Nordrhein-Westfalen
Klinikum Kulmbach mit Außenstelle Stadtsteinach,50.1177637,11.4663904,klinikum-kulmbach.de,www.klinikum-kulmbach.de,Albert-Schweitzer-Str.,95326,Kulmbach,Bayern
ASKLEPIOS Klinikum Harburg,51.7890648,9.3762815,asklepios.com,www.asklepios.com/hamburg/harburg/,Neuhöfer Straße,21107,Hamburg,Hamburg
Klinikum Stuttgart,48.784267,9.1722948,klinikum-stuttgart.de,www.klinikum-stuttgart.de,Kriegsbergstraße,70174,Stuttgart,Baden-Württemberg
Helios Klinik Kiel,54.3045621,10.1168621,helios-gesundheit.de,www.helios-gesundheit.de/standorte-angebote/kliniken/kiel/,Hamburger Chaussee,24113,Kiel,Schleswig-Holstein
Universitätsklinikum Schleswig-Holstein,53.8364382,10.7070617,uksh.de,www.uksh.de,Arnold-Heller-Straße,24105,Kiel,Schleswig-Holstein
Kreiskrankenhaus Prignitz gGmbH,53.0734805,11.8737822,krankenhaus-prignitz.de,www.krankenhaus-prignitz.de,Dobberziner Straße,19348,Perleberg,Brandenburg
LVR-Klinik für Orthopädie Viersen,51.2911213,6.3498661,lvr.de,www.orthopaedie-viersen.lvr.de,Horionstraße,41749,Viersen,Nordrhein-Westfalen
Sankt Josef-Hospital GmbH,51.6431235,6.4520034,sankt-josef-hospital.de,www.sankt-josef-hospital.de,In der Hees,46509,Xanten,Nordrhein-Westfalen
Schön Klinik Neustadt,48.1717085,11.5849581,schoen-klinik.de,www.schoen-klinik.de/neustadt,Am Kiebitzberg,23730,Neustadt in Holstein,Schleswig-Holstein
KKRN Katholisches Klinikum Ruhrgebiet Nord GmbH,51.7454709,7.1941866,kkrn.de,www.kkrn.de,Gartenstraße,45721,Haltern am See,Nordrhein-Westfalen
Krankenhaus Buchholz und Winsen gGmbH Krankenhaus Buchholz,53.3332666,9.8718156,krankenhaus-buchholz.de,www.krankenhaus-buchholz.de,Steinbecker Straße,21244,Buchholz in der Nordheide,Niedersachsen
VAMED Klinik Hohenstücken KH,52.4334942,12.5127175,vamed-gesundheit.de,www.vamed-gesundheit.de,Brahmsstraße,14772,Brandenburg an der Havel,Brandenburg
Schwarzwald-Baar Klinikum,47.9555596,8.4801206,sbk-vs.de,www.sbk-vs.de,Sonnhaldenstraße,78166,Donaueschingen,Baden-Württemberg
Vivantes Komfortklinik GmbH,52.5496172,13.2069596,vivantes.de,www.vivantes.de,Aroser Allee,13437,Berlin,Berlin
Ev. Krankenhaus Düsseldorf,51.2131737,6.7730583,evk-duesseldorf.de,www.evk-duesseldorf.de,Kirchfeldstraße,40217,Düsseldorf,Nordrhein-Westfalen
Johanniter - Klinik für Geriatrie Geesthacht,52.0820098,9.7668802,johanniter.de,www.johanniter.de/johanniter-kliniken/,Johannes-Ritter-Straße,21502,Geesthacht,Schleswig-Holstein
AGAPLESION Bethesda Krankenhaus Wuppertal,51.2677048,7.1301853,bethesda-wuppertal.de,www.bethesda-wuppertal.de,Hainstr.,42109,Wuppertal,Nordrhein-Westfalen
Klinikum Lüdenscheid,51.2076814,7.6623278,maerkische-kliniken.de,www.maerkische-kliniken.de,Paulmannshöher Straße,58515,Lüdenscheid,Nordrhein-Westfalen
Klinik Lilienthal,53.1494055,8.9063868,klinik-lilienthal.de,www.klinik-lilienthal.de,Moorhauser Landstr.,28865,Lilienthal bei Bremen,Niedersachsen
"Ev. Diakonissenkrankenhaus, Hauptstandort",51.342499,12.3197657,diako-leipzig.de,www.diako-leipzig.de,Georg-Schwarz-Str.,04177,Leipzig,Sachsen
Klinikum Obergöltzsch Rodewisch,50.5231127,12.4108387,klinikum-obergoeltzsch.de,www.klinikum-obergoeltzsch.de,Stiftstr.,08228,Rodewisch,Sachsen
Saarland-Heilstätten Gmbh SHG-Kliniken Sonnenberg,49.2010196,7.0110284,shg-kliniken.de,infosb.shg-kliniken.de,Sonnenbergstraße,66119,Saarbrücken,Saarland
Sana Krankenhaus Bad Doberan GmbH,52.4476303,13.7622057,sana.de,www.sana.de,Am Waldrand,18209,Hohenfelde,Mecklenburg-Vorpommern
Josephs-Hospital Warendorf,51.9607739,8.0023675,jhwaf.de,www.jhwaf.de,Am Krankenhaus,48231,Warendorf,Nordrhein-Westfalen
Niels-Stensen-Kliniken St. Vinzenz-Hospital Haselünne,52.2377281,8.0721747,niels-stensen-kliniken.de,www.krankenhaus-haseluenne.de,Hammer Straße,49740,Haselünne,Niedersachsen
Medical Team Clinic GmbH,48.1087824,11.4152009,ukmp.de,www.ukmp.de,Germeringer Str.,82152,Planegg,Bayern
Heiligenfeld Klinik Uffenheim,49.5421387,10.2353859,heiligenfeld.de,www.uffenheim.heiligenfeld.de,Krankenhausstr.,97215,Uffenheim,Bayern
Epilepsiezentrum Kork,48.5667293,7.8657791,diakonie-kork.de,www.epilepsiezentrum.de,Landstraße,77694,Kehl,Baden-Württemberg
Gemeinschaftsklinikum Mittelrhein gGmbH,50.232458,7.5874522,gk.de,www.gk.de,Johannes-Müller-Straße,56068,Koblenz,Rheinland-Pfalz
Kreisklinik Groß-Gerau,49.9130732,8.4750413,kreisklinik-gg.de,www.kreisklinik-gg.de,Wilhelm-Seipp-Straße,64521,Groß-Gerau,Hessen
Städtisches Klinikum Wolfenbüttel gGmbH,52.1798402,10.5340282,klinikum-wolfenbuettel.de,www.klinikum-wolfenbuettel.de,Alter Weg,38302,Wolfenbüttel,Niedersachsen
Klinikum Osnabrück,52.2781976,8.0025079,klinikum-os.de,www.klinikum-os.de,Am Finkenhügel,49076,Osnabrück,Niedersachsen
Evangelische Klinikum Niederrhein gGmbH,51.515344,6.7657358,evkln.de,www.evkln.de,Fahrner Str.,47169,Duisburg,Nordrhein-Westfalen
Orthopädische Klinik Markgröningen,48.9084835,9.1073604,okm.de,www.okm.de,Kurt-Lindemann Weg,71706,Markgröningen,Baden-Württemberg
Johanniter - Klinik für Geriatrie Geesthacht,50.7125609,7.1324916,johanniter.de,www.johanniter.de/johanniter-kliniken/,Johannes-Ritter-Straße,21502,Geesthacht,Schleswig-Holstein
COLLM KLINIK OSCHATZ gmbH,51.2921246,13.1143525,collm-klinik-oschatz.de,www.collm-klinik-oschatz.de,Parkstr.,04758,Oschatz,Sachsen
Evangelisches Krankenhaus Bethanien gGmbH,54.0781465,13.3834484,odebrecht-stiftung.de,www.odebrecht-stiftung.de,Gützkower Landstraße,17489,Greifswald,Mecklenburg-Vorpommern
Medical Park Chiemseeblick GmbH & Co.KG,47.8335779,12.3917098,medicalpark.de,www.medicalpark.de,Rasthausstr.,83233,Bernau am Chiemsee,Bayern
Medical Park Chiemseeblick GmbH & Co.KG,47.8303678,12.3803694,medicalpark.de,www.medicalpark.de,Rasthausstr.,83233,Bernau am Chiemsee,Bayern
Heilig-Geist-Hospital,49.9684253,7.8967741,heilig-geist-hospital.de,www.heilig-geist-hospital.de,Kapuzinerstraße,55411,Bingen am Rhein,Rheinland-Pfalz
Karl-Hansen-Klinik GmbH,51.7872763,8.7996146,medizinisches-zentrum.de,www.medizinisches-zentrum.de,Antoniusstraße,33175,Bad Lippspringe,Nordrhein-Westfalen
Karl-Hansen-Klinik GmbH,51.7875157,8.8176662,medizinisches-zentrum.de,www.medizinisches-zentrum.de,Antoniusstraße,33175,Bad Lippspringe,Nordrhein-Westfalen
Karl-Hansen-Klinik GmbH,51.7822674,8.8263057,medizinisches-zentrum.de,www.medizinisches-zentrum.de,Antoniusstraße,33175,Bad Lippspringe,Nordrhein-Westfalen
Helios St. Elisabeth Klinik Hünfeld,48.9518361,11.3949358,helios-kliniken.de,www.helios-gesundheit.de/kliniken/huenfeld/,Schillerstraße,36088,Hünfeld,Hessen
Kreiskrankenhaus Greiz-Ronneburg GmbH Fachklinik für Geriatrie,50.8670634,12.1882684,krankenhaus-ronneburg.de,www.krankenhaus-ronneburg.de,Rudolf-Breitscheid-Platz,07580,Ronneburg,Thüringen
Zentralinstitut für Seelische Gesundheit,49.4928932,8.4680637,zi-mannheim.de,www.zi-mannheim.de,J5,68159,Mannheim,Baden-Württemberg
Oberhavel Kliniken GmbH Krankenhaus,52.6557709,13.1909249,oberhavel-kliniken.de,www.oberhavel-kliniken.de,Marwitzer Straße,16761,Hennigsdorf,Brandenburg
AMEOS Klinikum Lübeck,54.2386983,10.2765019,ameos.eu,www.ameos.eu/klinikum-luebeck-klinik-fuer-abhaengigkeitserkrankungen/,Weidenweg,23562,Lübeck,Schleswig-Holstein
Rems-Murr-Klinikum Winnenden,48.7974547,9.5293051,rems-murr-kliniken.de,www.rems-murr-kliniken.de,Am Jakobsweg,71364,Winnenden,Baden-Württemberg
Immanuel-Krankenhaus Berlin,52.4194854,13.1640021,immanuel.de,www.immanuel.de,Königstraße,14109,Berlin,Berlin
Krankenhaus Lübbecke-Rahden,52.2957885,8.6038136,muehlenkreiskliniken.de,www.muehlenkreiskliniken.de/krankenhaus-rahden,Virchow,32312,"Lübbecke, Westfalen",Nordrhein-Westfalen
Diakonissenkrankenhaus Dresden,51.2944515,14.8168599,diako-dresden.de,www.diakonissenkrankenhaus-dresden.de,Plittstr.,02906,Niesky,Sachsen
Schelztor-Klinik,48.7415721,9.300691,schelztor-klinik.de,www.schelztor-klinik.de,Schelztorstr.,73728,Esslingen,Baden-Württemberg
Städtisches Krankenhaus Nettetal GmbH,51.3089948,6.2708798,krankenhaus-nettetal.de,www.krankenhaus-nettetal.de,Sassenfelder Kirchweg,41334,Nettetal,Nordrhein-Westfalen
ASKLEPIOS Westklinikum GmbH,53.5823312,9.7777313,asklepios.com,www.asklepios.com/hamburg/westklinikum/,Suurheid,22559,Hamburg,Hamburg
Klinikum Heidenheim,48.6723838,10.1410911,kliniken-heidenheim.de,www.kliniken-heidenheim.de,Schloßhaustraße,89522,Heidenheim an der Brenz,Baden-Württemberg
Universitätsklinikum Erlangen,49.5961147,11.012726,uk-erlangen.de,www.uk-erlangen.de,Maximiliansplatz,91054,Erlangen,Bayern
Heiligenfeld Klinik Berlin,52.51781,13.5694649,heiligenfeld.de,https://www.heiligenfeld.de/kliniken/heiligenfeld-klinik-berlin/,Brebacher Weg,12683,Berlin,Berlin
ASKLEPIOS Südpfalzkliniken GmbH,49.2200087,8.365767,asklepios.com,,Dr.-Sauerbruch-Str.,93133,Burglengenfeld,Bayern
Klinikum Christophsbad,48.7005764,9.6441051,christophsbad.de,www.christophsbad.de,Faurndauer Straße,73035,Göppingen,Baden-Württemberg
Johanniter - Klinik für Geriatrie Geesthacht,53.4316441,10.3853014,johanniter.de,www.johanniter.de/johanniter-kliniken/,Johannes-Ritter-Straße,21502,Geesthacht,Schleswig-Holstein
Katholisches Klinikum Mainz,49.9892976,8.2707191,kkm-mainz.de,www.kkm-mainz.de,An der Goldgrube,55131,Mainz am Rhein,Rheinland-Pfalz
KMG Klinikum Thueringen Brandenburg GmbH,51.3736886,10.8786114,kmg-kliniken.de,www.kmg-kliniken.de/kmg-manniske-klinik-bad-frankenhausen/,Hospitalstraße,99706,Sondershausen,Thüringen
Kreiskrankenhaus Rotenburg a. d. Fulda,50.9957352,9.7207254,kkh-rotenburg.de,www.kkh-rotenburg.de,Am Emanuelsberg,36199,Rotenburg,Hessen
Helios Klinik Schkeuditz,51.3944728,12.2312474,helios-gesundheit.de,www.helios-gesundheit.de,Leipziger Str.,04435,Schkeuditz,Sachsen
Sana Klinikum Hof GmbH,50.3025406,11.914768,sana-klinikum-hof.de,www.sana-klinikum-hof.de,Eppenreuther Str.,95032,Hof,Bayern
Klinikum Dahme-Spreewald GmbH,52.3034698,13.6278035,klinikum-ds.de,www.spreewaldklinik.de,Köpenicker Straße,15711,Königs Wusterhausen,Brandenburg
Kreiskrankenhaus Schrobenhausen GmbH,48.5725195,11.2636582,kkh-sob.de,www.kkh-sob.de,Högenauer Weg,86529,Schrobenhausen,Bayern
Helios Klinik Bleicherode,49.8109545,9.1666382,helios-gesundheit.de,www.helios-gesundheit.de/kliniken/bleicherode,Barbarastraße,99752,Bleicherode,Thüringen
Charité Universitätsmedizin Berlin,52.5257591,13.3778873,charite.de,www.charite.de,Charitéplatz,10117,Berlin,Berlin
Haßberg-Kliniken AöR des Landkreises Haßberge,50.0972332,10.7982507,hassberg-kliniken.de,www.hassberg-kliniken.de,Coburger Str.,96106,Ebern,Bayern
Sozialstiftung Bamberg,49.8931298,10.871427,sozialstiftung-bamberg.de,www.sozialstiftung-bamberg.de,Buger Str.,96049,Bamberg,Bayern
Westpfalz-Klinikum,49.5466167,7.3773385,westpfalz-klinikum.de,www.westpfalz-klinikum.de,Im Flur,66869,Kusel,Rheinland-Pfalz
Marienhaus Klinikum Bendorf - Neuwied - Waldbreitbach,50.4275674,7.471172,marienhaus-klinikum.de,www.marienhaus-klinikum.de,Friedrich-Ebert-Straße,56564,Neuwied,Rheinland-Pfalz
Klinikum Bielefeld gGmbH,51.9823661,8.5323312,klinikumbielefeld.de,www.klinikumbielefeld.de,An der Rosenhöhe,33647,Bielefeld,Nordrhein-Westfalen
Schön Klinik Bad Bramstedt,53.9044557,9.888273,schoen-klinik.de,www.schoen-klinik.de/bad-bramstedt,Birkenweg,24576,Bad Bramstedt,Schleswig-Holstein
MEDIAN Klinik NRZ Wiesbaden,52.0971412,8.7502872,median-kliniken.de,www.median-kliniken.de/de/median-klinik-nrz-wiesbaden,Aukammallee,65191,Wiesbaden,Hessen
RKU - Universitäts- und Rehabilitationskliniken  Ulm,48.4244038,9.9444536,rku.de,www.rku.de,Oberer Eselsberg,89081,Ulm,Baden-Württemberg
Herz- und Gefäßzentrum Bad Bevensen,53.0851112,10.6039988,hgz-bb.de,www.hgz-bb.de,Römstedter Straße,29549,Bad Bevensen,Niedersachsen
Marien-Hospital Erftstadt-Frauenthal,50.8072976,6.80865,marienerft.de,www.marien-hospital-erftstadt.de,Münchweg,50374,Erftstadt,Nordrhein-Westfalen
Hessenklinik Stadtkrankenhaus Korbach gGmbH,51.2673746,8.8710087,krankenhaus-korbach.de,www.krankenhaus-korbach.de,Enser Straße,34497,Korbach,Hessen
Dietrich-Bonhoeffer-Klinikum,53.6965734,13.2523635,dbknb.de,www.dbknb.de,Am Klosterberg,17087,Altentreptow,Mecklenburg-Vorpommern
Segeberger Kliniken GmbH,53.9411649,10.3091228,segebergerkliniken.de,www.segebergerkliniken.de,Am Kurpark,23795,Bad Segeberg,Schleswig-Holstein
Segeberger Kliniken GmbH,53.9420171,10.3101642,segebergerkliniken.de,www.segebergerkliniken.de,Am Kurpark,23795,Bad Segeberg,Schleswig-Holstein
Segeberger Kliniken GmbH,53.9435213,10.3081553,segebergerkliniken.de,www.segebergerkliniken.de,Am Kurpark,23795,Bad Segeberg,Schleswig-Holstein
Segeberger Kliniken GmbH,53.9518802,10.2950947,segebergerkliniken.de,www.segebergerkliniken.de,Am Kurpark,23795,Bad Segeberg,Schleswig-Holstein
Helios Klinik Zerbst/Anhalt GmbH,51.960414,12.0945424,helios-gesundheit.de,www.helios-gesundheit.de/kliniken/zerbst/,Friedrich-Naumann-Straße,39261,Zerbst,Sachsen-Anhalt
Kliniken des Landkreises Neustadt a. d. Aisch-Bad Windsheim,49.5820339,10.6229515,kliniken-nea.de,www.kliniken-nea.de,Paracelsusstraße,91413,Neustadt a. d. Aisch,Bayern
Heidekreis Klinikum GmbH Krankenhaus Walsrode,52.8591794,9.5868433,heidekreis-klinikum.de,www.heidekreis-klinikum.de,Robert-Koch-Straße,29664,Walsrode,Niedersachsen
Heidekreis Klinikum GmbH Krankenhaus Soltau,52.9893051,9.8557584,heidekreis-klinikum.de,www.heidekreis-klinikum.de,Oeninger Weg,29614,Soltau,Niedersachsen
Diakoniewerk München-Maxvorstadt,48.1513508,11.569379,diakoniewerk-muenchen.de,www.diakoniewerk-muenchen.de,Heßstr.,80799,München,Bayern
Sächsisches Krankenhaus Rodewisch,50.4933097,12.1002174,sachsen.de,www.skh-rodewisch.de,Europaratstraße,08523,Plauen,Sachsen
Helios Klinikum Hildesheim GmbH,52.151027,9.9766477,helios-gesundheit.de,www.helios-gesundheit.de,Senator-Braun-Allee,31135,Hildesheim,Niedersachsen
St. Marien-Krankenhaus Berlin,52.4243752,13.3491945,marienkrankenhaus-berlin.de,www.marienkrankenhaus-berlin.de,Gallwitzallee,12249,Berlin,Berlin
Klinik Kitzinger Land,49.7436917,10.1392093,k-kl.de,www.k-kl.de,Keltenstr.,97318,Kitzingen,Bayern
AMEOS Krankenhausgesellschaft Oberhausen mbH,51.476878,6.8628217,ameos.de,www.ameos.de/oberhausen,Mülheimer Str.,46045,"Oberhausen, Rheinland",Nordrhein-Westfalen
Diakonissen-Stiftungs-Krankenhaus Speyer,49.4665575,8.1791839,diakonissen.de,www.diakonissen.de,Paul-Egell-Straße,67346,Speyer,Rheinland-Pfalz
m&i-Fachklinik Enzensberg,47.6143706,10.6887028,fachklinik-enzensberg.de,www.fachklinik-enzensberg.de,Höhenstr.,87629,Füssen,Bayern
Arona Klinik für Altersmedizin,52.5155394,13.5640162,arona-kliniken.de,www.arona-kliniken.de/,Blumberger Damm,12683,Berlin,Berlin
Privatklinik Bad Gleisweiler,49.242326,8.0602199,privatklinik-bad-gleisweiler.de,www.privatklinik-bad-gleisweiler.de,Badstraße,76835,Gleisweiler,Rheinland-Pfalz
Ortenau Klinikum Achern,48.6253504,8.0659637,ortenau-klinikum.de,www.ortenau-klinikum.de,Josef-Wurzler-Straße,77855,Achern,Baden-Württemberg
Krankenhaus Jerusalem Hamburg,53.5695968,9.9674591,jerusalem-hamburg.de,www.jerusalem-hamburg.de,Moorkamp,20357,Hamburg,Hamburg
medius KLINIK OSTFILDERN-RUIT,48.7412976,9.2549865,medius-kliniken.de,www.medius-kliniken.de,Hedelfinger Straße,73760,Ostfildern,Baden-Württemberg
Krankenhaus Maria Hilf GmbH,51.4417984,8.355693,krankenhaus-warstein.de,www.krankenhaus-warstein.de,Hospitalstr.,59581,Warstein,Nordrhein-Westfalen
Klinikum Bielefeld gGmbH,52.0144103,8.5445336,klinikumbielefeld.de,www.klinikumbielefeld.de,Teutoburger Straße,33604,Bielefeld,Nordrhein-Westfalen
Evangelisches Klinikum Bethel gGmbH,52.0134833,8.5255207,evkb.de,www.evkb.de,Burgsteig,33617,Bielefeld,Nordrhein-Westfalen
Knappschaftsklinikum Saar GmbH Klinik Püttlingen,49.2770024,6.8679765,kksaar.de,https://www.kksaar.de/,In der Humes,66346,Püttlingen,Saarland
Sana Klinik Pegnitz GmbH,49.7573292,11.5275792,sana-pegnitz.de,www.sana-pegnitz.de,Langer Berg,91257,Pegnitz,Bayern
Krankenhaus St. Josef,50.0436861,10.2252873,josef.de,www.josef.de,Ludwigstr.,97421,Schweinfurt,Bayern
Psychosomatische Klinik,50.3502853,10.3057638,rhoen-klinikum-ag.com,www.rhoen-klinikum-ag.com,Kurhausstr.,97616,Bad Neustadt a. d. Saale,Bayern
Kreisklinik Roth,49.235548,11.0726644,kreisklinik-roth.de,www.kreisklinik-roth.de,Weinbergweg,91154,Roth,Bayern
Klinikum Altmühlfranken Gunzenhausen,49.1080549,10.773979,klinikum-altmuehlfranken.de,www.klinikum-altmuehlfranken.de,Albert-Schweitzer-Str.,91710,Gunzenhausen,Bayern
Vivantes Netzwerk für Gesundheit GmbH,52.5255323,13.4394766,vivantes.de,www.vivantes.de,Landsberger Allee,10249,Berlin,Berlin
Tropenklinik Paul-Lechler-Krankenhaus,48.5311791,9.0606698,tropenklinik.de,www.tropenklinik.de,Paul-Lechler-Straße,72076,Tübingen,Baden-Württemberg
LVR-Klinik Bonn,50.7522838,7.0434075,lvr.de,www.klinik-bonn.lvr.de,Waldenburger Ring,53119,Bonn,Nordrhein-Westfalen
Inselkrankenhaus Borkum gGmbH,53.585277,6.670918,inselkrankenhaus-borkum.de,www.inselkrankenhaus-borkum.de,Gartenstraße,26757,Borkum,Niedersachsen
Evangelisches Klinikum Bethel gGmbH,52.0119323,8.5300139,evkb.de,www.evkb.de,Burgsteig,33617,Bielefeld,Nordrhein-Westfalen
LVR-Klinik Düren,50.8218698,6.4802244,lvr.de,www.klinik-dueren.lvr.de,Meckerstraße,52353,"Düren, Rheinland",Nordrhein-Westfalen
LUP-Klinikum am Crivitzer See gGmbH,53.5754281,11.6481221,krankenhaus-am-crivitzer-see.de,www.krankenhaus-am-crivitzer-see.de,Amtsstraße,19087,Crivitz,Mecklenburg-Vorpommern
Caritas-Krankenhaus Lebach,49.4190942,6.8896698,caritas-krankenhaus-lebach.de,http://www.caritas-krankenhaus-lebach.de/,Heeresstraße,66822,Lebach,Saarland
Klinikum Merzig gGmbH,49.4570001,6.6332478,shg-kliniken.de,www.shg-kliniken.de/merzig,Trierer Straße,66663,Merzig,Saarland
Oberberg Fachklinik Rhein-Jura,47.5751938,9.8586626,oberbergkliniken.de,www.oberbergkliniken.de,Schneckenhalde,79713,Bad Säckingen,Baden-Württemberg
Krankenhäuser des Landkreises Amberg-Sulzbach,49.5046591,11.7289823,kh-as.de,www.kh-as.de,Krankenhausstr.,92237,Sulzbach-Rosenberg,Bayern
Klinikum Vest GmbH,51.6199652,7.1759926,klinikum-vest.de,www.klinikum-vest.de,Dorstener Straße,45657,"Recklinghausen, Westfalen",Nordrhein-Westfalen
KKRN Katholisches Klinikum Ruhrgebiet Nord GmbH,51.6524123,7.0840208,kkrn.de,www.kkrn.de,Hervester Straße,45768,"Marl, Westfalen",Nordrhein-Westfalen
Evangelisches Krankenhaus Castrop-Rauxel,51.5673349,7.3199585,evk-castrop-rauxel.de,www.evk-castrop-rauxel.de,Grutholzallee,44577,Castrop-Rauxel,Nordrhein-Westfalen
St.-Laurentius-Stift,51.6208689,7.3873629,laurentius-stift.de,www.laurentius-stift.de,Hochstraße,45731,Waltrop,Nordrhein-Westfalen
Schön Klinik Bad Bramstedt,47.856961,12.0296484,schoen-klinik.de,www.schoen-klinik.de/bad-bramstedt,Birkenweg,24576,Bad Bramstedt,Schleswig-Holstein
ELBLANDKLINIKUM Meißen,51.1733157,13.5063986,elblandkliniken.de,www.elblandkliniken.de,Nassauweg,01662,Meißen,Sachsen
"Muldentalkliniken, Standort Wurzen",51.2374959,12.718689,kh-muldental.de,www.kh-muldental.de/,Kleiststr.,04668,Grimma,Sachsen
Sana-Krankenhaus Hürth GmbH,51.3970798,6.7008209,sana.de,www.sana.de/huerth,Krankenhausstraße,50354,"Hürth, Rheinland",Nordrhein-Westfalen
Schussental-Klinik (Akutklinik),47.9533587,9.6346461,schussental-klinik.de,www.schussental-klinik.de,Safranmoosstraße,88326,Aulendorf,Baden-Württemberg
SRH Kliniken Landkreis Sigmaringen,48.0964273,9.2256124,klksig.de,www.kliniken-sigmaringen.de,Hohenzollernstr.,72488,Sigmaringen,Baden-Württemberg
Schön Klinik Bad Bramstedt,47.6022882,12.9794508,schoen-klinik.de,www.schoen-klinik.de/bad-bramstedt,Birkenweg,24576,Bad Bramstedt,Schleswig-Holstein
Schön Klinik Lorsch,47.8595217,12.3625328,schoen-klinik.de,www.fachklinik-lorsch.de,Wilhelm-Leuschner-Straße,64653,Lorsch,Hessen
Schön Klinik Bad Bramstedt,51.3799023,9.0274855,schoen-klinik.de,www.schoen-klinik.de/bad-bramstedt,Birkenweg,24576,Bad Bramstedt,Schleswig-Holstein
Schön Klinik Lorsch,50.1110989,10.992458,schoen-klinik.de,www.fachklinik-lorsch.de,Wilhelm-Leuschner-Straße,64653,Lorsch,Hessen
Schön Klinik Düsseldorf SE & Co. KG,51.2313187,6.7272689,schoen-klinik.de,www.schoen-klinik.de,Am Heerdter Krankenhaus,40549,Düsseldorf,Nordrhein-Westfalen
Schön Klinik Lorsch,49.6522034,8.5627027,schoen-klinik.de,www.fachklinik-lorsch.de,Wilhelm-Leuschner-Straße,64653,Lorsch,Hessen
Klinik Dr. Denzel,49.1355335,9.2316069,klinik-denzel.de,www.kliniik-denzel.de,Gutenbergstraße,74074,Heilbronn,Baden-Württemberg
Krankenhaus Buchen,49.524074,9.308452,neckar-odenwald-kliniken.de,www.neckar-odenwald-kliniken.de,Dr.-Konrad-Adenauer-Straße,74722,Buchen,Baden-Württemberg
Helios Spital Überlingen,47.7747866,9.1506508,helios-gesundheit.de,www.helios-gesundheit.de,Härlenweg,88662,Überlingen,Baden-Württemberg
Kreiskrankenhaus Mechernich GmbH,50.592562,6.6511944,kkhm.de,www.kkhm.de,St. Elisabeth-Straße,53894,Mechernich,Nordrhein-Westfalen
Klinikum Idar-Oberstein,49.7164349,7.3213609,shg-kliniken.de,www.shg-kliniken.de,Dr.-Ottmar-Kohler-Straße,55743,Idar-Oberstein,Rheinland-Pfalz
Universitätsklinikum Erlangen,49.6000839,11.008556,uk-erlangen.de,www.uk-erlangen.de,Maximiliansplatz,91054,Erlangen,Bayern
GFO Kliniken Bonn,50.6476461,7.2259944,gfo-kliniken-bonn.de,www.gfo-kliniken-bonn.de,Hermannstr.,53225,Bonn,Nordrhein-Westfalen
GFO Kliniken Bonn,50.7360583,7.1186239,gfo-kliniken-bonn.de,www.gfo-kliniken-bonn.de,Hermannstr.,53225,Bonn,Nordrhein-Westfalen
Helios Klinikum Siegburg,50.7992103,7.2062373,helios-gesundheit.de,www.helios-gesundheit.de/kliniken/siegburg,Ringstraße,53721,Siegburg,Nordrhein-Westfalen
"Hermann-Josef-Krankenhaus, Erkelenz",51.074548,6.3126399,hjk-erkelenz.de,www.hjk-erkelenz.de,Tenholter Straße,41812,Erkelenz,Nordrhein-Westfalen
Paracelsus-Nordseeklinik Helgoland,54.1786841,7.886524,paracelsus-kliniken.de,www.paracelsus-kliniken.de/akut/helgoland/,Invasorenpfad,27498,Helgoland,Schleswig-Holstein
Klinikum Itzehoe,53.9417275,9.5037461,kh-itzehoe.de,www.klinikum-itzehoe.de,Robert-Koch-Straße,25524,Itzehoe,Schleswig-Holstein
St. Antonius-Hospital Gronau,52.2082895,7.0208279,st-antonius-gronau.de,www.st-antonius-gronau.de,Möllenweg,48599,Gronau (Westfalen),Nordrhein-Westfalen
Helios Klinik Lengerich,52.1987656,7.8434526,helios-gesundheit.de,www.helios-gesundheit.de/kliniken/lengerich,Martin-Luther-Straße,49525,"Lengerich, Westfalen",Nordrhein-Westfalen
Klinikum Bielefeld gGmbH,52.0545192,8.3548009,klinikumbielefeld.de,www.klinikumbielefeld.de,An der Rosenhöhe,33647,Bielefeld,Nordrhein-Westfalen
Klinikum Weser-Egge,51.7854303,9.3654636,khwe.de,www.khwe.de,Elmarstraße,33014,Bad Driburg,Nordrhein-Westfalen
Klinikum Nordfriesland gGmbH - Inselklinik Föhr-Amrum,54.6852962,8.5642826,klinikum-nf.de,www.klinikum-nf.de/kliniken-praxen/inselklinik-foehr-amrum/,Rebbelstieg,25938,Wyk auf Föhr,Schleswig-Holstein
AMEOS Klinikum Hameln,54.4414643,11.1758027,ameos.de,www.ameos.eu,Wilhelmstraße,31785,Hameln,Niedersachsen
Schmerzklinik Kiel GmbH & Co. KG,54.3288825,10.183787,schmerzklinik.de,www.schmerzklinik.de,Heikendorfer Weg,24149,Kiel,Schleswig-Holstein
Krankenhaus Landshut-Achdorf,48.5233197,12.1499832,lakumed.de,www.lakumed.de,Achdorfer Weg,84036,Landshut,Bayern
St. Barbara-Klinik Hamm GmbH,51.7082938,7.841015,barbaraklinik.de,www.barbaraklinik.de,Am Heessener Wald,59073,"Hamm, Westfalen",Nordrhein-Westfalen
Klinikum Wetzlar-Braunfels,50.5386896,8.5304337,lahn-dill-kliniken.de,www.lahn-dill-kliniken.de,Forsthausstraße,35578,Wetzlar,Hessen
Oberhavel Klinik Gransee GmbH,52.9989511,13.1442171,oberhavel-kliniken.de,www.oberhavel-kliniken.de,Meseberger Weg,16775,Gransee,Brandenburg
Universitätsklinikum Heidelberg,49.4155818,8.6651569,uni-heidelberg.de,www.klinikum.uni-heidelberg.de,Im Neuenheimer Feld,69120,Heidelberg,Baden-Württemberg
Krankenhäuser des Landkreises Amberg-Sulzbach,49.6984229,11.6193094,kh-as.de,www.kh-as.de,Krankenhausstr.,91275,Auerbach,Bayern
Elbe Klinikum Buxtehude,53.4619083,9.6760222,elbekliniken.de,www.elbekliniken.de,Am Krankenhaus,21614,Buxtehude,Niedersachsen
Dreifaltigkeits-Krankenhaus Wesseling,50.8217851,6.9853126,krankenhaus-wesseling.de,www.krankenhaus-wesseling.de,Bonner Straße,50389,"Wesseling, Rheinland",Nordrhein-Westfalen
Klinik Manhagen,53.6630679,10.2574499,manhagen.de,www.manhagen.de,Sieker Landstraße,22927,Großhansdorf,Schleswig-Holstein
Klinikum Landshut gemeinnützige GmbH,48.5376718,12.1375837,klinikum-landshut.de,www.klinikum-landshut.de,Robert-Koch-Str.,84034,Landshut,Bayern
Krankenhaus Eichhof,50.6296369,9.3903261,eichhof-online.de,www.eichhof-online.de,Eichhofstraße,36341,Lauterbach,Hessen
Evangelisches Klinikum Köln Weyertal,50.9276265,6.9255891,evk-koeln.de,www.evk-koeln.de,Weyertal,50931,Köln,Nordrhein-Westfalen
Rottal-Inn Kliniken Kommunalunternehmen,48.4130091,12.7599515,rottalinnkliniken.de,www.rottalinnkliniken.de,Simonsöder Allee,84307,Eggenfelden,Bayern
Helios St. Elisabeth Klinik Oberhausen,50.6628028,9.7665828,helios-gesundheit.de,www.helios-gesundheit.de/kliniken/oberhausen,Josefstr.,46045,"Oberhausen, Rheinland",Nordrhein-Westfalen
Herz-Jesu-Krankenhaus Fulda,50.5633071,9.6733013,herz-jesu-krankenhaus.de,www.herz-jesu-krankenhaus.de,Buttlarstraße,36039,Fulda,Hessen
Klinikum Fulda,50.5467606,9.7060983,klinikum-fulda.de,www.klinikum-fulda.de,Pacellialle,36043,Fulda,Hessen
St. Josefs Krankenhaus Balserische Stiftung,50.5786817,8.6680316,jokba.de,www.jokba.de,Wilhelmstraße,35392,Gießen,Hessen
Lahn-Dill-Kliniken,50.7465397,8.2854078,lahn-dill-kliniken.de,www.lahn-dill-kliniken.de,Rotebergstraße,35683,Dillenburg,Hessen
Klinik Dr. Frühauf,50.0911777,8.7889198,klinik-dr-fruehauf.de,www.klinik-dr-fruehauf.de,Scheffelstraße,63071,Offenbach,Hessen
Klinikum Kassel,51.3793857,9.0079263,klinikum-kassel.de,www.gesundheit-nordhessen.de/klinikum-kassel,Dennhäuser Straße,34134,Kassel,Hessen
Gemeinschaftsklinikum Mittelrhein gGmbH,50.2024581,7.8559045,gk.de,www.gk.de,Johannes-Müller-Straße,56068,Koblenz,Rheinland-Pfalz
Universitätsklinikum Augsburg AöR,48.3849306,10.8399721,uk-augsburg.de,www.uk-augsburg.de,Stenglinstr.,86156,Augsburg,Bayern
Universitätsmedizin Greifswald Körperschaft des öffentlichen Rechts,54.0880889,13.405878,uni-greifswald.de,www.medizin.uni-greifswald.de,Fleischmannstraße,17489,Greifswald,Mecklenburg-Vorpommern
Evangelisches Krankenhaus Oldenburg,53.1426959,8.2050814,evangelischeskrankenhaus.de,www.evangelischeskrankenhaus.de,Steinweg,26122,Oldenburg (Oldb.),Niedersachsen
Pius-Hospital,53.1436923,8.2111674,pius-hospital.de,www.pius-hospital.de,Georgstraße,26121,Oldenburg (Oldb.),Niedersachsen
Evangelisches Klinikum Bethel gGmbH,52.0424293,8.5402014,evkb.de,www.evkb.de,Schildescher Straße,33611,Bielefeld,Nordrhein-Westfalen
Klinikum Ingolstadt GmbH,48.7698276,11.3764486,klinikum-ingolstadt.de,www.klinikum-ingolstadt.de,Krumenauerstr.,85049,Ingolstadt,Bayern
Helios Kliniken Schwerin,53.6515139,11.4085471,helios-gesundheit.de,www.helios-gesundheit.de,Wismarsche Straße,19055,Schwerin,Mecklenburg-Vorpommern
Gemeinschaftskrankenhaus Bonn gGmbH,50.728329,7.0983726,gk-bonn.de,www.gk-bonn.de,Bonner Talweg,53113,Bonn,Nordrhein-Westfalen
Donau-Ries Kliniken,48.9564304,10.5973605,donkliniken.de,www.donkliniken.de,Kellerstr.,86732,Oettingen in Bayern,Bayern
Kinderklinik Schömberg,48.7921829,8.6473541,kiklisch.de,www.kiklisch.de,Römerweg,75328,Schömberg bei Neuenbürg,Baden-Württemberg
DRK Krankenhaus Grimmen GmbH,54.120055,13.1074335,krankenhaus-grimmen.de,www.krankenhaus-grimmen.de,Dorfstraße,18516,Süderholz,Mecklenburg-Vorpommern
Waldkliniken Eisenberg GmbH,50.9569235,11.8834066,waldkliniken-eisenberg.de,www.waldkliniken-eisenberg.de,Klosterlausnitzer Straße,07607,Eisenberg,Thüringen
Allgemeines Krankenhaus Celle,52.6288166,10.0859848,akh-celle.de,www.akh-celle.de,Siemensplatz,29223,Celle,Niedersachsen
Paracelsus-Nordseeklinik Helgoland,50.3292314,12.2900372,paracelsus-kliniken.de,www.paracelsus-kliniken.de/akut/helgoland/,Invasorenpfad,27498,Helgoland,Schleswig-Holstein
Benedictus Krankenhaus Feldafing GmbH & Co. KG,47.9377302,11.2940379,klinik-feldafing.de,www.klinik-feldafing.de,Thomas-Mann-Str.,82340,Feldafing,Bayern
Paracelsus-Klinik Bremen GmbH,53.7487216,10.0070122,paracelsus-kliniken.de,www.paracelsus-kliniken.de/bremen.html,In der Vahr,28329,Bremen,Bremen
DRK-Krankenhaus Mölln-Ratzeburg,53.6899657,10.7781976,drk-krankenhaus.de,www.drk-krankenhaus.de,Röpersberg,23909,Ratzeburg,Schleswig-Holstein
AMEOS Klinikum Lübeck,54.2965352,10.1850112,ameos.eu,www.ameos.eu/klinikum-luebeck-klinik-fuer-abhaengigkeitserkrankungen/,Weidenweg,23562,Lübeck,Schleswig-Holstein
Krankenhaus Reinbek St. Adolf-Stift GmbH,53.5097589,10.2406783,krankenhaus-reinbek.de,www.krankenhaus-reinbek.de,Hamburger Straße,21465,Reinbek,Schleswig-Holstein
"AMEOS Klinika Neustadt, Lübeck und Eutin",54.1328431,10.6014627,ameos.eu,www.ameos.eu/neustadt-in-holstein/,Janusstraße,23701,Eutin,Schleswig-Holstein
Deister-Süntel-Klinik GmbH,52.2082695,9.4721466,dsk-bm.de,www.dsk-bm.de,Deisterallee,31848,Bad Münder am Deister,Niedersachsen
AMEOS Klinikum Lübeck,54.0824338,10.6838417,ameos.eu,www.ameos.eu/klinikum-luebeck-klinik-fuer-abhaengigkeitserkrankungen/,Weidenweg,23562,Lübeck,Schleswig-Holstein
Ostsee-Klinik - Bad Schwartau,53.9154532,10.6977777,ostsee-klinik.de,www.ostsee-klinik.de,Anton-Baumann-Straße,23611,Bad Schwartau,Schleswig-Holstein
Helios Agnes Karll Krankenhaus,53.9224211,10.693842,helios-gesundheit.de,www.helios-gesundheit.de/standorte-angebote/kliniken/bad-schwartau/,Am Hochkamp,23611,Bad Schwartau,Schleswig-Holstein
St. Marien Krankenhaus Lampertheim,49.597042,8.4673311,stmarienkrankenhaus.de,www.stmarienkrankenhaus.de,Neue Schulstraße,68623,Lampertheim,Hessen
Schön Klinik Rendsburg-Eckernförde SE & Co. KG,54.4830698,9.8166113,schoen-klinik.de,www.schoen-klinik.de/rendsburg,Schleswiger Straße,24340,Eckernförde,Schleswig-Holstein
Dr. Becker Kiliani-Klinik AKUT,51.49224,8.1173597,dbkg.de,www.dbkg.de,Schwarzallee,91438,Bad Windsheim,Bayern
Cellitinnen-Krankenhaus Maria-Hilf,50.9521023,6.6374387,maria-hilf-krankenhaus.de,www.maria-hilf-krankenhaus.de,Klosterstr.,50126,"Bergheim, Erft",Nordrhein-Westfalen
Kerckhoff-Klinik,50.3697055,8.7425366,kerckhoff-klinik.de,www.kerckhoff-klinik.de,Benekestraße,61231,Bad Nauheim,Hessen
Kaiserin-Auguste-Victoria-Krankenhaus,50.6041676,8.3846703,kav-krankenhaus.de,www.kav-krankenhaus.de,Stegwiese,35630,Ehringshausen,Hessen
VAMED Klinik Kipfenberg GmbH,49.1090578,11.4471272,vamed-gesundheit.de,www.vamed-gesundheit.de,Konrad-Regler-Str.,85110,Kipfenberg,Bayern
GFO Kliniken Bonn,50.7172056,7.0938969,gfo-kliniken-bonn.de,www.gfo-kliniken-bonn.de,Robert-Koch-Str.,53115,Bonn,Nordrhein-Westfalen
Hardtwaldklinik II Akutbereich,51.0631408,9.1685884,hardtwaldklinik2.de,www.wicker.de/kliniken/hardtwaldklinik-ii,Hardtstraße,34596,Bad Zwesten,Hessen
Kreiskrankenhaus Frankenberg,51.061805,8.7919671,krankenhaus-frankenberg.de,www.krankenhaus-frankenberg.de,Forststraße,35066,Frankenberg,Hessen
MEDIAN Klinik Berus,50.7942445,8.3211055,median-kliniken.de,https://www.median-kliniken.de/de/median-zentrum-berus/,Orannastraße,66802,Überherrn-Berus,Saarland
VAMED Klinik Schloss Pulsnitz,51.1795409,14.0139232,vamed-gesundheit.de,www.vamed-gesundheit.de/reha/schloss-pulsnitz,Wittgensteiner Str.,01896,Pulsnitz,Sachsen
ASKLEPIOS Südpfalzkliniken,47.7565875,11.550899,asklepios.com,www.asklepios.com,An Fronte Karl,76726,Germersheim,Rheinland-Pfalz
Robert-Bosch-Krankenhaus,48.7721051,9.1880601,rbk.de,www.rbk.de,Hohenheimer Straße,70184,Stuttgart,Baden-Württemberg
ASKLEPIOS Klinikum Bad Abbach GmbH,48.932716,12.0381875,asklepios.com,www.asklepios.com/badabbach,Kaiser-Karl-V.-Allee,93077,Bad Abbach,Bayern
Main-Kinzig-Kliniken gGmbH,50.3541778,9.5273952,mkkliniken.de,www.mkkliniken.de,Kurfürstenstraße,36381,Schlüchtern,Hessen
Klinikum Stuttgart,48.8105206,9.2372339,klinikum-stuttgart.de,www.klinikum-stuttgart.de,Prießnitzweg,70374,Stuttgart,Baden-Württemberg
HEMERA Klinik,50.1977809,10.0686836,hemera.de,www.hemera.de,Schönbornstr.,97688,Bad Kissingen,Bayern
Carl-von-Basedow-Klinikum Saalekreis GmbH,51.3663941,11.9939723,klinikum-saalekreis.de,www.klinikum-saalekreis.de,Weiße Mauer,06217,Merseburg,Sachsen-Anhalt
Sana-Klinikum Remscheid GmbH,51.2500355,7.1440753,sana.de,www.sana-klinikum-remscheid.de,Burger Straße,42859,Remscheid,Nordrhein-Westfalen
Sana Kliniken des Landkreises Cham GmbH,48.1119692,9.7795695,sana.de,www.sana.de/cham,August-Holz-Str.,93413,Cham,Bayern
Diakonie-Krankenhaus Wehrda,50.829184,8.7614397,dkh-wehrda.de,www.dkh-wehrda.de,Hebronberg,35041,Marburg,Hessen
Johanniter - Klinik für Geriatrie Geesthacht,51.4120651,6.6992298,johanniter.de,www.johanniter.de/johanniter-kliniken/,Johannes-Ritter-Straße,21502,Geesthacht,Schleswig-Holstein
Helios Kliniken Herzberg und Osterode GmbH,51.6694064,10.3431348,helios-gesundheit.de,www.helios-gesundheit.de,Dr.-Frössel-Allee,37412,Herzberg am Harz,Niedersachsen
AMEOS Klinikum Haldensleben,52.2821615,11.3704754,ameos.eu,www.ameos.eu/standorte/ameos-ost/haldensleben/ameos-klinikum-haldensleben/,Kiefholzstraße,39340,Haldensleben,Sachsen-Anhalt
Krankenhaus zum Guten Hirten,49.487739,8.3844303,guterhirte-ludwigshafen.de,www.guterhirte-ludwigshafen.de,Semmelweisstraße,67071,Ludwigshafen am Rhein,Rheinland-Pfalz
Kreiskrankenhaus St. Franziskus Saarburg,49.6028926,6.5382056,kreiskrankenhaus-saarburg.de,www.kreiskrankenhaus-saarburg.de,Graf-Siegfried-Straße,54439,"Saarburg, Saar",Rheinland-Pfalz
Klinik Dr. Steib,50.1842678,8.4707716,klinik-steib.de,www.klinik-steib.de,Adelheidstraße,61462,Königstein,Hessen
Klinikum Wahrendorff GmbH,52.343839,9.9318014,wahrendorff.de,www.wahrendorff.de,Borgentrickstr.,30519,Hannover,Niedersachsen
Klinik für Kinderneurologie und Sozialpädiatrie,49.0006276,8.8009491,kize.de,www.kize.eu,Knittlinger Steige,75433,Maulbronn,Baden-Württemberg
Evangelisches Krankenhaus Paul-Gerhardt-Stift,52.5042123,13.3641845,pgdiakonie.de,www.pgdiakonie.de,Paul-Gerhardt-Straße,06886,Lutherstadt Wittenberg,Sachsen-Anhalt
Evangelische Stiftung Tannenhof,51.2056692,7.2259558,stiftung-tannenhof.de,www.stiftung-tannenhof.de,Remscheider Straße,42899,Remscheid,Nordrhein-Westfalen
St. Franziskus-Hospital gGmbH Winterberg,51.1932756,8.5373788,gesundheitszentrum-winterberg.de,www.gesundheitszentrum-winterberg.de,Franziskusstraße,59955,"Winterberg, Westfalen",Nordrhein-Westfalen
Helios Fachkrankenhaus Vogelsang-Gommern,52.0837182,11.7808336,helios-gesundheit.de,www.helios-gesundheit.de/kliniken/vogelsang-gommern/,Sophie-von-Boetticher-Straße,39245,Gommern,Sachsen-Anhalt
Fachklinik Katzenelnbogen,50.2686196,7.9812932,fachklinik-katzenelnbogen.de,www.fachklinik-katzenelnbogen.de,Aarstraße,56368,Katzenelnbogen,Rheinland-Pfalz
Universitätsklinikum Tübingen,48.5263949,9.0507914,uni-tuebingen.de,www.uni-tuebingen.de,Lindachstraße,72764,Reutlingen,Baden-Württemberg
Klinik Schöneberg,52.4986384,13.3446565,klinik-schoeneberg.de,www.klinik-hygiea.de,Fuggerstraße,10777,Berlin,Berlin
Hunsrück Klinik,49.8362133,7.8643364,kreuznacherdiakonie.de,www.hunsrueckklinik.de,Holzbacher Straße,55469,"Simmern, Hunsrück",Rheinland-Pfalz
KMG Klinik Boizenburg GmbH,53.3773317,10.7173995,kmg-kliniken.de,www.kmg-kliniken.de,Vor dem Mühlentor,19258,Boizenburg/Elbe,Mecklenburg-Vorpommern
ASKLEPIOS Klinik Parchim,53.4299062,11.8540774,asklepios.com,www.asklepios.com,John-Brinckmann-Straße,19370,Parchim,Mecklenburg-Vorpommern
Dietrich-Bonhoeffer-Klinikum,53.7366463,12.7556962,dbknb.de,www.dbknb.de,Am Klosterberg,17087,Altentreptow,Mecklenburg-Vorpommern
Bodden-Kliniken Ribnitz-Damgarten GmbH,54.2364304,12.4441598,bodden-kliniken.de,www.bodden-kliniken.de,Sandhufe,18311,Ribnitz-Damgarten,Mecklenburg-Vorpommern
Sophien- und Hufeland-Klinikum gGmbH,50.9603358,11.3221058,klinikum-weimar.de,www.klinikum-weimar.de,Henry-van-de-Velde-Straße,99425,Weimar,Thüringen
"Klinikum St. Georg GmbH, Hauptstandort Leipzig Eutritzsch",51.3180143,12.3024052,sanktgeorg.de,www.sanktgeorg.de,Delitzscher Str.,04129,Leipzig,Sachsen
Helios Endo-Klinik Hamburg GmbH,48.2653705,11.4283747,helios-gesundheit.de,www.helios-gesundheit.de/kliniken/hamburg-endo-klinik/,Holstenstraße,22767,Hamburg,Hamburg
Helios Hanseklinikum Stralsund GmbH,54.3284936,13.0814709,helios-gesundheit.de,www.helios-gesundheit.de,Große Parower Straße,18435,Stralsund,Mecklenburg-Vorpommern
Klinik für dynamische Psychiatrie München GmbH,48.0798625,11.5567753,klinik-menterschwaige.de,www.klinik-menterschwaige.de,Geiselgasteigstr.,81545,München,Bayern
Helios Klinik Cuxhaven GmbH,53.8524112,8.6927613,helios-gesundheit.de,www.helios-gesundheit.de,Altenwalder Chaussee,27474,Cuxhaven,Niedersachsen
Helios Klinik Lengerich,53.4559446,8.4417882,helios-gesundheit.de,www.helios-gesundheit.de/kliniken/lengerich,Martin-Luther-Straße,49525,"Lengerich, Westfalen",Nordrhein-Westfalen
Breitenbrunn,50.4742706,12.7091214,erlabrunn.de,www.erlabrunn.de,Am Märzenberg,08359,Breitenbrunn,Sachsen
Klinikum Penzberg,47.7545897,11.3756617,klinikum-penzberg.de,www.klinikum-penzberg.de,Am Schloßbichl,82377,Penzberg,Bayern
Evangelisches Klinikum Bethel gGmbH,52.0113194,8.5314571,evkb.de,www.evkb.de,Burgsteig,33617,Bielefeld,Nordrhein-Westfalen
VAMED Ostseeklinik Damp,54.585639,10.0223288,vamed-gesundheit.de,www.vamed-gesundheit.de/kliniken/damp-ostseeklinik/,Seute-Deern-Ring,24351,Damp,Schleswig-Holstein
Krankenhaus Mara gGmbH,52.0069768,8.5281024,mara.de,www.mara.de,Maraweg,33617,Bielefeld,Nordrhein-Westfalen
Vinzentius-Krankenhaus Landau,49.1901089,8.1143065,vinzentius.de,www.vinzentius.de,Cornichonstraße,76829,Landau in der Pfalz,Rheinland-Pfalz
Christliches Krankenhaus Quakenbrück,52.6678377,7.9371716,ckq-gmbh.de,www.ckq-gmbh.de,Danziger Straße,49610,Quakenbrück,Niedersachsen
"Waldklinik Bernburg GmbH, Parkinson-Spezialklinik",51.7934816,11.7183607,waldklinik-bernburg.de,www.waldklinik-bernburg.de,Keßlerstraße,06406,Bernburg,Sachsen-Anhalt
AMEOS Klinikum Haldensleben,53.8486416,13.6995745,ameos.eu,www.ameos.eu/standorte/ameos-ost/haldensleben/ameos-klinikum-haldensleben/,Kiefholzstraße,39340,Haldensleben,Sachsen-Anhalt
Rheinland Klinikum,51.0730179,6.8086842,rheinlandklinikum.de,www.rheinlandklinikum.de,Dr.-Geldmacher-Straße,41540,Dormagen,Nordrhein-Westfalen
Diana Kliniken,53.0817113,10.5896783,diana-klinik.de,www.diana-klinik.de,Dahlenburger Straße,29549,Bad Bevensen,Niedersachsen
INI International Neuroscience Institute Hannover,52.3901791,9.7967442,ini-hannover.de,www.ini-hannover.com,Rudolf-Pichlmayr-Straße,30625,Hannover,Niedersachsen
St. Elisabeth Krankenhaus Leipzig gGmbH,51.3030542,12.3785294,ek-leipzig.de,www.ek-leipzig.de,Biedermannstr.,04277,Leipzig,Sachsen
Krankenhaus St. Elisabeth gGmbH,52.5210594,8.1942281,krankenhaus-damme.de,www.krankenhaus-damme.de,Lindenstraße,49401,"Damme, Dümmer",Niedersachsen
Klinik Vincentinum GmbH & Co. KG,48.3745635,10.9046769,klinik-vincentinum.de,www.klinik-vincentinum.de,Franziskanergasse,86152,Augsburg,Bayern
DRK Krankenhaus Lichtenstein,50.7485377,12.6350122,drk-khs.de,li.drk-khs.de,Hartensteiner Str.,09350,Lichtenstein,Sachsen
Kreiskrankenhaus Herrenberg,48.5916921,8.8751692,klinikverbund-suedwest.de,www.klinikverbund-suedwest.de,Marienstraße,71083,Herrenberg im Gäu,Baden-Württemberg
NEXUS-Klinik Baden-Baden,48.7485892,8.2184347,nexusklinik.de,www.nexusklinik.de,Hermann-Sielcken-Str.,76530,Baden-Baden,Baden-Württemberg
St.-Clemens-Hospital Geldern,51.5282294,6.3272743,clemens-hospital.de,www.clemens-hospital.de,Clemensstraße,47608,Geldern,Nordrhein-Westfalen
Kreiskrankenhaus St. Anna Höchstadt a. d. Aisch,49.7059849,10.8048746,kreiskrankenhaus-hoechstadt.de,www.kreiskrankenhaus-hoechstadt.de,Spitalstraße,91315,Höchstadt a. d. Aisch,Bayern
Kliniken der Stadt Köln Standort Holweide,50.9665107,7.0581037,kliniken-koeln.de,www.kliniken-koeln.de/Krankenhaus_Holweide,Neufelder Str.,51067,Köln,Nordrhein-Westfalen
Marienkrankenhaus Cochem,50.1555986,7.1794418,marienkrankenhaus-cochem.de,www.marienkrankenhaus-cochem.de,Avallonstraße,56812,Cochem,Rheinland-Pfalz
Herz-Jesu-Krankenhaus Münster-Hiltrup,51.909853,7.6345117,hjk-muenster.de,www.hjk-muenster.de,Westfalenstraße,48165,"Münster, Westfalen",Nordrhein-Westfalen
MEDIAN Klinik Bad Tennstedt,54.1127223,12.6530319,median-kliniken.de,www.median-kliniken.de/de/median-klinik-bad-tennstedt,Badeweg,99955,Bad Tennstedt,Thüringen
Helios-Klinik Titisee-Neustadt,47.925835,8.1870965,helios-gesundheit.de,www.helios-gesundheit.de,Jostalstraße,79822,Titisee-Neustadt,Baden-Württemberg
Helios Rosmann Klinik Breisach,48.0310358,7.5863032,helios-gesundheit.de,www.helios-gesundheit.de,Zeppelinstraße,79206,Breisach am Rhein,Baden-Württemberg
Helios Klinikum Duisburg,51.4532787,6.7099434,helios-gesundheit.de,www.helios-gesundheit.de/kliniken/duisburg,Dieselstr.,47166,Duisburg,Nordrhein-Westfalen
Helios Klinikum München West,52.7302528,10.7396139,helios-kliniken.de,www.helios-kliniken.de/muenchen-west,Steinerweg,81241,München,Bayern
DIAKOVERE Henriettenstift,52.3694158,9.7549227,diakovere.de,www.diakovere.de,Marienstraße,30171,Hannover,Niedersachsen
radprax Krankenhaus Plettenberg GmbH,51.2131947,7.8867037,radprax.de,www.radprax.de,Ernst-Moritz-Arndt-Str.,58840,Plettenberg,Nordrhein-Westfalen
Stadtklinik Werdohl,51.2570778,7.7654125,maerkische-kliniken.de,www.maerkische-kliniken.de,Schulstraße,58791,Werdohl,Nordrhein-Westfalen
Klinikum Aschaffenburg-Alzenau,50.0697991,9.0760149,klinikum-ab-alz.de,www.klinikum-ab-alz.de,Schloßhof,63755,Alzenau,Bayern
Niels-Stensen-Kliniken Bramsche,52.3442425,8.230239,niels-stensen-kliniken.de,www.niels-stensen-kliniken.de,Hasestraße,49565,"Bramsche, Hase",Niedersachsen
Paracelsus-Nordseeklinik Helgoland,51.3306329,9.4226546,paracelsus-kliniken.de,www.paracelsus-kliniken.de/akut/helgoland/,Invasorenpfad,27498,Helgoland,Schleswig-Holstein
Entgiftungsstation im Wolfgang-Winckler-Haus,50.1711903,8.3909403,jj-ev.de,www.wwh-entgiftung.jj-ev.de,Ehlhaltener Straße,65779,Kelkheim,Hessen
m&i-Fachklinik Bad Liebenstein,50.8134734,10.3528973,fachklinik-bad-liebenstein.de,www.fachklinik-bad-liebenstein.de,Kurpromenade,36448,Bad Liebenstein,Thüringen
Klinik für Minimal Invasive Chirurgie,52.4308341,13.2180368,mic-berlin.de,www.mic-berlin.de,Kurstraße,14129,Berlin,Berlin
DRK Fachklinik für Kinder- und Jugendpsychiatrie,50.5435323,7.1382406,drk-fk-badneuenahr.de,www.drk-fk-badneuenahr.de,Lindenstraße,53474,Bad Neuenahr,Rheinland-Pfalz
Donau-Ries Kliniken,48.7246881,10.7541188,donkliniken.de,www.donkliniken.de,Neudegger Allee,86609,Donauwörth,Bayern
AWO Psychiatriezentrum Halle GmbH,51.4729349,11.9172786,awo-sachsenanhalt.de,www.awo-sachsenanhalt.de/,Zscherbener Straße,06124,Halle (Saale),Sachsen-Anhalt
Waldhausklinik Deuringen gGmbH,48.3652878,10.8125282,waldhausklinik.de,www.waldhausklinik.de,Sandbergstr.,86391,Stadtbergen,Bayern
MEDIAN Klinik Gunzenbachhof Baden-Baden,49.2369121,9.1068197,median-kliniken.de,www.median-kliniken.de,Gunzenbachstraße,76530,Baden-Baden,Baden-Württemberg
Privatklinik Stillachhaus Betriebsgesellschaft mbH,47.4067939,10.2581675,stillachhaus.de,www.stillachhaus.de,Alte Walserstr.,87561,Oberstdorf,Bayern
Vital Klinik GmbH & Co. KG,50.1005904,9.0919765,vital-klinik.de,www.vital-klinik.de,Streuweg,63755,Alzenau,Bayern
"Helios-Klinikum Pirna, Hauptstandort",50.9586394,13.9543677,helios-gesundheit.de,www.helios-gesundheit.de,Struppener Str.,01796,Pirna,Sachsen
Bezirkskrankenhaus Landshut,48.5365218,12.1331538,bkh-landshut.de,www.bkh-landshut.de,Professor-Buchner-Str.,84034,Landshut,Bayern
LUP Klinikum Helene von Bülow gGmbH,53.3316639,11.4981439,wmk-hvb.de,www.wmk-hvb.de,Parkstraße,19230,Hagenow,Mecklenburg-Vorpommern
Krankenhaus Neuwittelsbach,48.1569669,11.525449,krankenhaus-neuwittelsbach.de,www.krankenhaus-neuwittelsbach.de,Renatastr.,80639,München,Bayern
Klinikum Hochsauerland GmbH,51.4014473,8.0727986,klinikum-hochsauerland.de,www.klinikum-hochsauerland.de,Nordring,59821,"Arnsberg, Westfalen",Nordrhein-Westfalen
Krankenhaus Buchholz und Winsen gGmbH Krankenhaus Winsen,53.3498609,10.2005899,krankenhaus-winsen.de,www.krankenhaus-winsen.de,Friedrich-Lichtenauer-Allee,21423,Winsen (Luhe),Niedersachsen
Kreiskliniken Kassel,51.3205497,9.190788,kreisklinikenkassel.de,www.kreisklinikenkassel.de,Am Kleinen Ofenberg,34466,Wolfhagen,Hessen
Dr. Lubos Kliniken Bogenhausen,48.1485542,11.6145874,lubos-kliniken.de,www.lubos-kliniken.de,Denninger Str.,81679,München,Bayern
Klinik Josephinum gAG,48.1455229,11.581378,josephinum.de,www.josephinum.de,Schönfeldstr.,80539,München,Bayern
Sana Klinikum Hameln-Pyrmont,52.1075835,9.3517303,sana-hm.de,www.sana-hm.de,Saint-Maur-Platz,31785,Hameln,Niedersachsen
Kinderklinik Garmisch-Partenkirchen gGmbH Deutsches Zentrum für Kinder- und Jugendrheumatologie,47.4871299,11.1026021,rheuma-kinderklinik.de,www.rheuma-kinderklinik.de,Gehfeldstr.,82467,Garmisch-Partenkirchen,Bayern
Thoraxklinik Heidelberg,49.4178236,8.6661399,uni-heidelberg.de,www.thoraxklinik-heidelberg.de,Röntgenstraße,69126,Heidelberg,Baden-Württemberg
MEDIAN Klinik NRZ Wiesbaden,52.0862359,11.6375143,median-kliniken.de,www.median-kliniken.de/de/median-klinik-nrz-wiesbaden,Aukammallee,65191,Wiesbaden,Hessen
Klinikum Dortmund gGmbH,51.5083612,7.4574824,klinikumdo.de,www.klinikumdo.de,Beurhausstraße,44137,Dortmund,Nordrhein-Westfalen
Klinikum Nürnberg AöR,49.4125329,11.1485034,klinikum-nuernberg.de,www.klinikum-nuernberg.de,Breslauer Str.,90471,Nürnberg,Bayern
Evangelisches Krankenhaus Wesel GmbH,51.6596685,6.6550799,evkwesel.de,www.evkwesel.de,Schermbecker Landstraße,46485,Wesel am Rhein,Nordrhein-Westfalen
SINOVA Sonnenberg Klinik,48.7450539,9.1441912,sonnenbergklinik.de,www.sonnenbergklinik.de,Christian-Belser-Straße,70597,Stuttgart,Baden-Württemberg
Klinikum St. Elisabeth Straubing GmbH,48.8864331,12.5906554,klinikum-straubing.de,www.klinikum-straubing.de,St.-Elisabeth-Str.,94315,Straubing,Bayern
Universitätsklinikum Schleswig-Holstein,54.3305428,10.142576,uksh.de,www.uksh.de,Arnold-Heller-Straße,24105,Kiel,Schleswig-Holstein
Universitätsklinikum Aachen AöR,50.7768538,6.0433717,ukaachen.de,www.ukaachen.de,Morillenhang,52074,Aachen,Nordrhein-Westfalen
"ANregiomed gKU, AöR",49.0749008,10.3178893,anregiomed.de,www.anregiomed.de,Crailsheimer Str.,91550,Dinkelsbühl,Bayern
Helios Klinikum Bonn/Rhein-Sieg,50.7077079,7.0325135,helios-gesundheit.de,www.helios-gesundheit.de,Von-Hompesch-Str.,53123,Bonn,Nordrhein-Westfalen
Euregio Klinik Hannoverstraße GmbH,52.4430106,7.0657531,euregio-klinik.de,www.euregio-klinik.de,Albert-Schweitzer-Straße,48527,Nordhorn,Niedersachsen
KJF Klinik Hochried Kinder- und Jugendpsychiatrie und -psychotherapie,47.6753231,11.1799743,klinikhochried.de,www.klinikhochried.de,Hochried,82418,Murnau a. Staffelsee,Bayern
Helios Klinikum Gifhorn GmbH,52.4971139,10.5479636,helios-gesundheit.de,www.helios-gesundheit.de,Campus,38518,Gifhorn,Niedersachsen
Krankenhaus der Barmherzigen Brüder Trier,49.7625602,6.6399032,bk-trier.de,www.bk-trier.de,Nordallee,54292,Trier,Rheinland-Pfalz
Helios Klinikum Bad Saarow,48.1654458,8.6123458,helios-kliniken.de,www.helios-kliniken.de,Pieskower Straße,15526,Bad Saarow,Brandenburg
St. Anna Klinik,52.7345257,7.7546584,anna-klinik.de,www.anna-klinik.de,St. Annen Straße,49624,Löningen,Niedersachsen
Klinikum Worms gGmbH,49.6493847,8.3197991,klinikum-worms.de,www.klinikum-worms.de,Gabriel-von-Seidl-Straße,67550,Worms,Rheinland-Pfalz
Helios Klinikum München West,52.9719728,10.5321513,helios-kliniken.de,www.helios-kliniken.de/muenchen-west,Steinerweg,81241,München,Bayern
MEDIAN Klinik Berus,50.2867588,9.3601616,median-kliniken.de,https://www.median-kliniken.de/de/median-zentrum-berus/,Orannastraße,66802,Überherrn-Berus,Saarland
Sana-Klinikum Remscheid GmbH,51.1614079,7.1893804,sana.de,www.sana-klinikum-remscheid.de,Burger Straße,42859,Remscheid,Nordrhein-Westfalen
St. Elisabeth-Krankenhaus Salzgitter gemeinützige Gesellschaft mbH,52.0454172,10.3716055,st-elisabeth-sz.de,www.st-elisabeth-sz.de,Liebenhaller Straße,38259,Salzgitter,Niedersachsen
Krankenhaus Agatharied KU,47.7677815,11.8271574,khagatharied.de,www.khagatharied.de,Norbert-Kerkel-Platz,83734,Hausham,Bayern
Schüchtermann-Klinik,52.1126522,8.1643976,schuechtermann-klinik.de,www.schuechtermann-klinik.de,Ulmenallee,49214,Bad Rothenfelde,Niedersachsen
Ortenau Klinikum Offenburg-Kehl,48.5677063,7.811834,ortenau-klinikum.de,www.ortenau-klinikum.de,Kanzmattstraße,77694,Kehl,Baden-Württemberg
Niels-Stensen-Kliniken Bramsche,52.1986424,8.3364486,niels-stensen-kliniken.de,www.niels-stensen-kliniken.de,Hasestraße,49565,"Bramsche, Hase",Niedersachsen
Klinikum Südstadt Rostock,54.0715303,12.107871,kliniksued-rostock.de,www.kliniksued-rostock.de,Südring,18059,Rostock,Mecklenburg-Vorpommern
Dreifaltigkeits-Hospital gGmbH,51.6151728,8.3387207,dreifaltigkeits-hospital.de,www.dreifaltigkeits-hospital.de,Von-Droste-Straße,59597,Erwitte,Nordrhein-Westfalen
AMEOS Klinikum Haldensleben,51.7823822,11.7352523,ameos.eu,www.ameos.eu/standorte/ameos-ost/haldensleben/ameos-klinikum-haldensleben/,Kiefholzstraße,39340,Haldensleben,Sachsen-Anhalt
Marienhaus Klinikum Bendorf - Neuwied - Waldbreitbach,50.4294912,7.4649349,marienhaus-klinikum.de,www.marienhaus-klinikum.de,Friedrich-Ebert-Straße,56564,Neuwied,Rheinland-Pfalz
Universitätsklinikum Erlangen,49.5995286,11.0110011,uk-erlangen.de,www.uk-erlangen.de,Maximiliansplatz,91054,Erlangen,Bayern
Klinikum Darmstadt,49.8530574,8.6623402,klinikum-darmstadt.de,www.klinikum-darmstadt.de,Martinspfad,64285,Darmstadt,Hessen
Kath. Marienkrankenhaus gGmbH,53.559017,10.0311583,marienkrankenhaus.org,www.marienkrankenhaus.org,Alfredstraße,22087,Hamburg,Hamburg
Klinik für Manuelle Therapie,51.6902634,7.8431249,kmt-hamm.de,www.kmt-hamm.de,Ostenallee,59071,"Hamm, Westfalen",Nordrhein-Westfalen
Universitätsklinikum Würzburg,49.8044728,9.9436281,ukw.de,www.ukw.de,Oberdürrbacher Str.,97080,Würzburg,Bayern
Klinik- und Rehabilitationszentrum,51.6155008,9.5900859,klinik-lippoldsberg.de,www.klinik-lippoldsberg.de,Birkenallee,34399,Wesertal,Hessen
Helios Klinikum München West,48.8896301,8.7135651,helios-kliniken.de,www.helios-kliniken.de/muenchen-west,Steinerweg,81241,München,Bayern
Vinzenz von Paul Hospital - Klinik Rottenmünster,48.149497,8.6344904,vvph.de,www.vvph.de,Schwenninger Straße,78628,Rottweil,Baden-Württemberg
"Klinikum St. Georg GmbH, Hauptstandort Leipzig Eutritzsch",51.3845754,12.3764904,sanktgeorg.de,www.sanktgeorg.de,Delitzscher Str.,04129,Leipzig,Sachsen
Diakonissenkrankenhaus Dresden,51.0631073,13.7614826,diako-dresden.de,www.diakonissenkrankenhaus-dresden.de,Holzhofgasse,01099,Dresden,Sachsen
Hochtaunus-Kliniken gGmbH,50.2121188,8.6190349,hochtaunus-kliniken.de,www.hochtaunus-kliniken.de,Zeppelinstraße,61352,Bad Homburg,Hessen
Helios Klinikum Bad Saarow,51.4874585,9.1409444,helios-kliniken.de,www.helios-kliniken.de,Pieskower Straße,15526,Bad Saarow,Brandenburg
Klinikum Leverkusen,51.0323413,7.0331652,klinikum-lev.de,www.klinikum-lev.de,Am Gesundheitspark,51375,Leverkusen,Nordrhein-Westfalen
Universitätsklinikum Carl Gustav Carus an der TU Dresden,51.0566641,13.7825131,uniklinikum-dresden.de,www.uniklinikum-dresden.de,Fetscherstr.,01307,Dresden,Sachsen
Klinikum Aschaffenburg-Alzenau,49.9762496,9.1873771,klinikum-ab-alz.de,www.klinikum-ab-alz.de,Am Hasenkopf,63739,Aschaffenburg,Bayern
Krankenhaus der Barmherzigen Brüder Trier,49.762664,6.6404278,bk-trier.de,www.bk-trier.de,Nordallee,54292,Trier,Rheinland-Pfalz
Eifelklinik St. Brigida,50.6047475,6.3014279,st-brigida.de,www.st-brigida.de,Kammerbruchstraße,52152,Simmerath,Nordrhein-Westfalen
Marienkrankenhaus Schwerte,51.44448,7.5746686,marien-kh.de,www.marien-kh.de,Goethestraße,58239,Schwerte,Nordrhein-Westfalen
Akutklinik Am schönen Moos,48.0135235,9.4826695,akutklinik-badsaulgau.de,www.akutklinik-badsaulgau.de,Am Schönen Moos,88348,Bad Saulgau,Baden-Württemberg
ASKLEPIOS-ASB Klinik Radeberg,51.1233926,13.9304712,asklepios.com,www.asklepios.com/radeberg/,Pulsnitzer Str.,01454,Radeberg,Sachsen
PsoriSol Hautklinik GmbH,49.5085043,11.4344535,psorisol.de,www.psorisol.de,Mühlstr.,91217,Hersbruck,Bayern
AGAPLESION Ev. Bathildiskrankenhaus,51.9852959,9.2736752,bathildis.de,www.bathildis.de,Maulbeerallee,31812,Bad Pyrmont,Niedersachsen
Klinikum Region Hannover GmbH Psychiatrie Langenhagen,52.4253342,9.4352645,krh.eu,www.krh.eu,Königstraße,30175,Hannover,Niedersachsen
Klinikum Region Hannover GmbH Psychiatrie Langenhagen,52.4441631,9.7400304,krh.eu,www.krh.eu,Rohdehof,30853,Langenhagen,Niedersachsen
Klinikum der Johannes Gutenberg-Universität Mainz,49.9923335,8.2595793,unimedizin-mainz.de,www.unimedizin-mainz.de,Beethovenstraße,65189,Wiesbaden,Hessen
Sophien-Klinik GmbH,52.3621536,9.7772505,sophienklinik.de,www.sophienklinik.de,Bischofsholer Damm,30173,Hannover,Niedersachsen
Kreiskrankenhaus Mechernich GmbH,50.5333723,6.487419,kkhm.de,www.kkhm.de,Am Hähnchen,53937,"Schleiden, Eifel",Nordrhein-Westfalen
Universitätsklinikum Hamburg-Eppendorf (UKE),53.5902671,9.9746838,uke.de,www.uke.de,Bernhard-Nocht-Straße,20359,Hamburg,Hamburg
St. Marienkrankenhaus und St. Annastiftskrankenhaus Ludwigshafen,49.4575866,8.4088909,st-marienkrankenhaus.de,www.st-marienkrankenhaus.de,Karolina-Burger-Straße,67065,Ludwigshafen am Rhein,Rheinland-Pfalz
Sana Kliniken Lübeck GmbH,53.8487442,10.6891488,sana.de,www.sana.de/luebeck,Am Dreilingsberg,23570,Lübeck,Schleswig-Holstein
ASKLEPIOS Klinik Nord,48.0662673,11.3525188,asklepios.com,www.asklepios.com/hamburg/nord/,Lohmühlenstraße,20099,Hamburg,Hamburg
Frankfurter Rotkreuz-Kliniken,50.117144,8.697921,rotkreuzkliniken.de,www.rotkreuzkliniken.de,Königswarterstraße,60316,Frankfurt,Hessen
Saarland-Heilstätten GmbH SHG-Kliniken Völklingen,49.2572554,6.8525006,shg-kliniken.de,www.shg-kliniken.de,Richardstraße,66333,Völklingen,Saarland
Johannes-Diakonie Mosbach,49.3622266,9.1522483,johannes-diakonie.de,www.johannes-diakonie.de,Neckarburkener Straße,74821,Mosbach,Baden-Württemberg
Städtische Klinikum Karlsruhe,49.0154826,8.374507,klinikum-karlsruhe.de,www.klinikum-karlsruhe.de,Moltkestraße,76133,Karlsruhe,Baden-Württemberg
St. Marienhospital Vechta gGmbH,52.7254541,8.2874888,marienhospital-vechta.de,www.marienhospital-vechta.de,Marienstraße,49377,Vechta,Niedersachsen
Helios Klinik München Perlach,51.1130653,7.385356,helios-kliniken.de,www.helios-kliniken.de/muenchen-perlach,Schmidbauerstr.,81737,München,Bayern
ASKLEPIOS FachklinikumTiefenbrunn,51.4991518,9.8745183,asklepios.com,www.asklepios.com,Tiefenbrunn,37124,Rosdorf,Niedersachsen
Ammerland Klinik GmbH,53.2579655,7.917816,ammerland-klinik.de,www.ammerland-klinik.de,Lange Straße,26655,Westerstede,Niedersachsen
AMEOS Klinikum Schönebeck,52.2860443,8.0536599,ameos.eu,www.ameos.eu/standorte/ameos-ost/ameos-klinikum-schoenebeck/,Am Gradierwerk,39218,Schönebeck,Sachsen-Anhalt
"Harz-Klinikum ""Dorothea Christiane Erxleben"" GmbH",51.792366,10.9552658,harzklinikum.com,www.harz-klinikum.de,Tiestraße,38889,Blankenburg (Harz),Sachsen-Anhalt
AMEOS Klinikum Ueckermünde,52.0044494,11.7278532,ameos.de,www.ameos.eu,Hospitalstraße,17389,Anklam,Mecklenburg-Vorpommern
SALUS gGmbH Fachklinikum Bernburg,51.7868235,11.7270363,salus-lsa.de,www.salus-lsa.de,Olga-Benario-Straße,06406,Bernburg (Saale),Sachsen-Anhalt
St. Rochus-Hospital Telgte GmbH,51.9790205,7.7639045,srh-telgte.de,www.srh-telgte.de,Parkstraße,59227,"Ahlen, Westfalen",Nordrhein-Westfalen
Klinikum Landsberg am Lech,48.0483713,10.8556235,klinikum-landsberg.de,www.klinikum-landsberg.de,Bgm.-Dr.-Hartmann-Str.,86899,Landsberg am Lech,Bayern
Evangelisches Krankenhaus Königin Elisabeth Herzberge gGmbH,52.5274171,13.5095087,keh-berlin.de,www.keh-berlin.de,Herzbergstrasse,10365,Berlin,Berlin
"Krankenhaus für Psychiatrie, Psychoth. u. Psychosom. Medizin des Bezirks Unterfranken",49.9779401,9.1909482,bezirkskrankenhaus-lohr.de,www.bezirkskrankenhaus-lohr.de,Am Hasenkopf,63739,Aschaffenburg,Bayern
Charité Universitätsmedizin Berlin,52.4420418,13.3208167,charite.de,www.charite.de,Hindenburgdamm,12203,Berlin,Berlin
Sana Kliniken Lübeck GmbH,48.1118261,9.7794077,sana.de,www.sana.de/luebeck,Am Dreilingsberg,23570,Lübeck,Schleswig-Holstein
gKU Wertachkliniken Wertachklinik Schwabmünchen,48.1759759,10.7462699,wertachkliniken.de,www.wertachkliniken.de,Weidenhartstr.,86830,Schwabmünchen,Bayern
Klinikum Starnberg,48.0067389,11.3352883,klinikum-starnberg.de,www.klinikum-starnberg.de,Oßwaldstr.,82319,Starnberg,Bayern
Universitätsklinikum Essen,51.4347056,6.9883548,uk-essen.de,www.uk-essen.de,Heerstraße,47053,Duisburg,Nordrhein-Westfalen
Sana HANSE-Klinikum Wismar GmbH,53.8844672,11.4385667,sana.de,www.sana.de,Störtebekerstraße,23966,Wismar,Mecklenburg-Vorpommern
St. Elisabeth-Hospital Beckum GmbH,51.7526753,8.0388477,krankenhaus-beckum.de,www.krankenhaus-beckum.de,Elisabethstraße,59269,"Beckum, Westfalen",Nordrhein-Westfalen
Johanniter-Krankenhaus Geesthacht,53.4316441,10.3853014,johanniter-krankenhaus.de,www.johanniter.de/johanniter-kliniken/johanniter-krankenhaus-geesthacht/,Am Runden Berge,21502,Geesthacht,Schleswig-Holstein
Klinikum Bad Bramstedt,53.9039512,9.8934413,klinikumbb.de,www.klinikumbadbramstedt.de,Oskar-Alexander-Straße,24576,Bad Bramstedt,Schleswig-Holstein
Psychiatrisches Krankenhaus Rickling,53.9969023,10.1750382,landesverein.de,www.landesverein.de/psychiatrie/psychiatrisches-krankenhaus-rickling/,Daldorfer Straße,24635,Rickling,Schleswig-Holstein
ASKLEPIOS Klinikum Harburg,53.4595927,9.9477502,asklepios.com,www.asklepios.com/hamburg/harburg/,Kroonhorst,22549,Hamburg,Hamburg
Klinik Dr. Guth,53.5568574,9.8538555,drguth.de,www.klinikdrguth.de/,Jürgensallee,22609,Hamburg,Hamburg
AGAPLESION DIAKONIEKLINIKUM HAMBURG gGmbH,53.5718116,9.9661551,agaplesion.de,www.d-k-h.de,Hohe Weide,20259,Hamburg,Hamburg
Evangelisches Krankenhaus Alsterdorf gGmbH,53.6141513,10.0242727,alsterdorf.de,www.evangelisches-krankenhaus-alsterdorf.de,Elisabeth-Flügge-Straße,22337,Hamburg,Hamburg
Katholisches Kinderkrankenhaus Wilhelmstift,53.587338,10.164885,KKH-Wilhelmstift.de,www.kkh-wilhelmstift.de,Bodelschwingstraße,22337,Hamburg,Hamburg
Evangelisches Krankenhaus Alsterdorf gGmbH,53.6141513,10.0242727,alsterdorf.de,www.evangelisches-krankenhaus-alsterdorf.de,Winterhuder Weg,22085,Hamburg,Hamburg
Katholisches Kinderkrankenhaus Wilhelmstift,53.587338,10.164885,KKH-Wilhelmstift.de,www.kkh-wilhelmstift.de,Alfredstraße,22087,Hamburg,Hamburg
Katholisches Kinderkrankenhaus Wilhelmstift,53.587338,10.164885,KKH-Wilhelmstift.de,www.kkh-wilhelmstift.de,Tangstedter Landstraße,22417,Hamburg,Hamburg
Bundeswehrkrankenhaus Hamburg,53.5952534,10.0774097,bundeswehr.org,www.bwkrankenhaus.de/de/bundeswehrkrankenhaus-hamburg,Lesserstraße,22049,Hamburg,Hamburg
Katholisches Kinderkrankenhaus Wilhelmstift,53.587338,10.164885,KKH-Wilhelmstift.de,www.kkh-wilhelmstift.de,Alphonsstraße,22043,Hamburg,Hamburg
Katholisches Kinderkrankenhaus Wilhelmstift,53.587338,10.164885,KKH-Wilhelmstift.de,www.kkh-wilhelmstift.de,Liliencronstraße,22149,Hamburg,Hamburg
ASKLEPIOS Klinikum Harburg,53.4595927,9.9477502,asklepios.com,www.asklepios.com/hamburg/harburg/,Marktpassage,21149,Hamburg,Hamburg
Helios Klinikum Salzgitter GmbH,52.1544926,10.3180927,helios-gesundheit.de,www.helios-gesundheit.de,Kattowitzer Straße,38226,Salzgitter,Niedersachsen
Helios Klinik Wittingen GmbH,52.7302528,10.7396139,helios-gesundheit.de,www.helios-gesundheit.de,Gustav-Dobberkau-Straße,29378,Wittingen,Niedersachsen
Helios St. Marienberg Klinik Helmstedt,52.2319847,10.9996985,helios-gesundheit.de,www.helios-gesundheit.de/helmstedt,Conringstraße,38350,Helmstedt,Niedersachsen
AWO Psychiatriezentrum,52.2438432,10.812723,awo-apz.de,www.awo-psychiatriezentrum.de,Vor dem Kaiserdom,38154,Königslutter am Elm,Niedersachsen
Helios Albert-Schweitzer-Klinik Northeim,51.7294572,9.9792081,helios-gesundheit.de,www.helios-gesundheit.de,Albert-Schweitzer-Weg,37154,Northeim,Niedersachsen
Kirchberg Klinik,51.6261947,10.4688507,kirchbergklinik.de,www.kirchbergklinik.de,Kirchberg,37431,Bad Lauterberg im Harz,Niedersachsen
Universitätsmedizin Göttingen,51.5508411,9.942862,universitaetsmedizin-goettingen.de,www.universitaetsmedizin-goettingen.de,Robert-Koch-Straße,37075,Göttingen,Niedersachsen
Medizinische Hochschule Hannover,52.383524,9.8035698,mh-hannover.de,www.mh-hannover.de,Ferdinand-Wilhelm-Fricke-Weg,30169,Hannover,Niedersachsen
Medizinische Hochschule Hannover,52.383524,9.8035698,mh-hannover.de,www.mh-hannover.de,Anna-von-Borries-Straße,30625,Hannover,Niedersachsen
Medizinische Hochschule Hannover,52.383524,9.8035698,mh-hannover.de,www.mh-hannover.de,Carl-Neuberg-Straße,30625,Hannover,Niedersachsen
Medizinische Hochschule Hannover,52.383524,9.8035698,mh-hannover.de,www.mh-hannover.de,Podbielskistraße,30177,Hannover,Niedersachsen
Klinik Bassum,52.8442486,8.7284569,kliniken-lkd.de,www.kliniken-lkd.de,Marie-Hackfeld-Straße,27211,Bassum,Niedersachsen
Klinik Sulingen,52.683602,8.8055324,kliniken-lkd.de,www.kliniken-lkd.de,Schmelingstraße,27232,Sulingen,Niedersachsen
AMEOS Klinikum Alfeld,51.994362,9.8328582,ameos.de,www.ameos.eu,Landrat-Beushausen-Straße,31061,Alfeld,Niedersachsen
AMEOS Klinikum Hildesheim,52.151027,9.9766477,ameos.de,www.ameos.eu,Goslarsche Landstraße,31135,Hildesheim,Niedersachsen
AMEOS Klinikum Hildesheim,52.151027,9.9766477,ameos.de,www.ameos.eu,Oldekopstraße,31134,Hildesheim,Niedersachsen
St. Bernward Krankenhaus,52.1471624,9.947384,bernward-khs.de,www.bernward-khs.de,Treibestraße,31134,Hildesheim,Niedersachsen
Johanniter-Krankenhaus Gronau GmbH,52.0820098,9.7668802,johanniter-gronau.de,www.johanniter.de,Johanniterstraße,31028,Gronau (Leine),Niedersachsen
Kreiskrankenhaus Osterholz,53.2332456,8.7942852,kkhohz.de,www.kreiskrankenhaus-osterholz.de,Am Krankenhaus,27711,Osterholz-Scharmbeck,Niedersachsen
Psychiatrische Klinik Uelzen gGmbH,52.9669548,10.5284926,pk-uelzen.de,www.pk-uelzen.de,An den Zehn Eichen,29525,"Uelzen, Lüneburger Heide",Niedersachsen
AMEOS Klinikum Osnabrück,52.2860443,8.0536599,klinikum-os.de,www.klinikum-os.de,Knollstraße,49088,Osnabrück,Niedersachsen
Christliches Kinderhospital Osnabrück,52.2698941,8.0530625,ckos.de,www.christliches-kinderhospital.de,Am Finkenhügel,49076,Osnabrück,Niedersachsen
Krankenhaus Norderney,53.7160712,7.1720602,Krankenhaus-norderney.de,www.krankenhaus-norderney.de,Lippestr.,26548,Norderney,Niedersachsen
MediClin Hedon-Klinik,52.511984,7.3580851,mediclin.de,www.mediclin.de,Hedonallee,49811,Lingen,Niedersachsen
St. Bonifatius Hospital,52.5244814,7.3154594,bonifatius-lingen.de,www.bonifatius-hospital-lingen.de,Wilhelmstraße,49808,Lingen,Niedersachsen
Nordwest-Krankenhaus Sanderbusch GmbH,53.5069054,8.0090096,friesland-kliniken.de,www.friesland-kliniken.de,Am Gut Sanderbusch,26452,Sande,Niedersachsen
Krankenhaus Rheiderland,53.1684537,7.3537725,klinikum-leer.de,www.krankenhaus-rheiderland.de,Neue Straße,26826,Weener,Niedersachsen
St. Bernhard-Hospital,53.3239209,8.4824012,sbhospital.de,www.sbhospital.de,Claussenstraße,26919,Brake (Unterweser),Niedersachsen
Klinikum Bremerhaven-Reinkenheide gGmbH,53.5377387,8.6365604,klinikum-bremerhaven.de,www.klinikum-bremerhaven.de,Hafenstraße,27576,Bremerhaven,Bremen
Universitätsklinikum Düsseldorf,51.1959746,6.7894365,uni-duesseldorf.de,www.uniklinik-duesseldorf.de,Moorenstraße,40225,Düsseldorf,Nordrhein-Westfalen
Evangelisches Krankenhaus BETHESDA zu Duisburg GmbH,51.4173778,6.7613769,bethesda.de,www.bethesda.de,Heerstr.,47053,Duisburg,Nordrhein-Westfalen
Johanniter-Krankenhaus Rheinhausen,51.4120651,6.6992298,johanniter-rheinhausen.de,www.johanniter-rheinhausen.de,Kreuzacker,47228,Duisburg,Nordrhein-Westfalen
St. Josef Krankenhaus Essen-Werden GmbH,51.3891577,7.0063882,uk-essen.de,www.sankt-josef-werden.de,Propsteistr.,45239,"Essen, Ruhr",Nordrhein-Westfalen
Alexius/Josef Krankenhaus,51.1912809,6.7019633,psychiatrie-neuss.de,www.psychiatrie-neuss.de,Am Hasenberg,41462,Neuss,Nordrhein-Westfalen
Alexius/Josef Krankenhaus,51.1912809,6.7019633,psychiatrie-neuss.de,www.psychiatrie-neuss.de,Nordkanalallee,41464,Neuss,Nordrhein-Westfalen
Alexius/Josef Krankenhaus,51.1912809,6.7019633,psychiatrie-neuss.de,www.psychiatrie-neuss.de,Steinhausstraße,41462,Neuss,Nordrhein-Westfalen
Johanna-Etienne-Krankenhaus,51.2132298,6.6585845,johanna-etienne-krankenhaus.de,www.johanna-etienne-krankenhaus.de,Am Hasenberg,41462,Neuss,Nordrhein-Westfalen
Eduardus-Krankenhaus,50.9325047,6.9808828,eduardus.de,www.eduardus.de,Custodisstr.,50679,Köln,Nordrhein-Westfalen
Krankenhaus Jülich,50.9260294,6.3638991,ct-west.de,www.krankenhaus-juelich.de,Kurfürstenstr.,52428,Jülich,Nordrhein-Westfalen
Helios Klinik Wipperfürth,51.1132873,7.3855148,helios-gesundheit.de,www.helios-gesundheit.de,Alte-Kölner-Straße,51688,Wipperfürth,Nordrhein-Westfalen
LWL-Klinik Münster,51.9783641,7.6176104,lwl.org,www.lwl-klinik-muenster.de,Friedrich-Wilhelm-Weber-Straße,48147,"Münster, Westfalen",Nordrhein-Westfalen
UKM - Universitätsklinikum Münster,51.9625689,7.59575,ukmuenster.de,www.ukm.de,Albert-Schweitzer-Campus,48149,"Münster, Westfalen",Nordrhein-Westfalen
Christophorus-Kliniken,51.8273616,7.2803578,ctc-coesfeld.de,www.christophorus-kliniken.de,Vollenstraße,48249,Dülmen,Nordrhein-Westfalen
LWL-Klinik Herten,51.5918187,7.1272955,lwl.org,www.lwl-klinik-herten.de,Im Schloßpark,45699,"Herten, Westfalen",Nordrhein-Westfalen
Elisabeth Krankenhaus Recklinghausen,51.5677623,7.2071942,ekonline.de,www.ekonline.de,Röntgenstraße,45661,"Recklinghausen, Westfalen",Nordrhein-Westfalen
Maria-Josef-Hospital Greven GmbH,52.0880291,7.6105761,mjh-greven.de,www.maria-josef-hospital.de,Lindenstr.,48268,"Greven, Westfalen",Nordrhein-Westfalen
LWL-Klinikum Gütersloh,51.8962346,8.3504278,lwl-klinik-guetersloh.de,www.lwl-klinikum-guetersloh.de,Buxelstraße,33334,Gütersloh,Nordrhein-Westfalen
Helios Klinikum Warburg GmbH,51.4874585,9.1409444,helios-gesundheit.de,www.helios-gesundheit.de/kliniken/warburg,Hüffertstraße,34414,"Warburg, Westfalen",Nordrhein-Westfalen
LWL-Klinik Paderborn,51.7190025,8.7636941,lwl.org,www.lwl-klinik-paderborn.de,Agathastraße,33098,Paderborn,Nordrhein-Westfalen
Berufsgenossenschaftliches Universitätsklinikum Bergmannsheil gGmbH,51.4682212,7.2111606,bergmannsheil.de,www.bergmannsheil.de,Bürkle de la Camp-Platz,44789,Bochum,Nordrhein-Westfalen
Universitätsklinikum Knappschaftskrankenhaus Bochum,51.4640955,7.3272049,kk-bochum.de,www.kk-bochum.de,In der Schornau,44892,Bochum,Nordrhein-Westfalen
Knappschaftskrankenhaus Lütgendortmund,51.5027431,7.3300121,klinikum-westfalen.de,www.klinikum-westfalen.de,Volksgartenstraße,44388,Dortmund,Nordrhein-Westfalen
Evangelisches Krankenhaus Herne,51.5338627,7.2306001,evkhg-herne.de,www.evk-herne.de,Wiescherstraße,44623,"Herne, Westfalen",Nordrhein-Westfalen
St. Anna-Hospital,51.537557,7.1590304,elisabethgruppe.de,www.annahospital.de,Hospitalstraße,44649,"Herne, Westfalen",Nordrhein-Westfalen
St. Marien Hospital Eickel,51.515214,7.1822115,elisabethgruppe.de,www.marienhospital-eickel.de,Marienstr.,44651,"Herne, Westfalen",Nordrhein-Westfalen
Orthopädische Klinik Volmarstein,51.369359,7.3748619,esv.de,www.volmarstein.org,Lothar-Gau-Straße,58300,Wetter (Ruhr),Nordrhein-Westfalen
Sauerlandklinik Hachen,51.3832137,7.9743939,sauerlandklinik.de,www.sauerlandklinik-hachen.de,Siepenstraße,59846,Sundern (Sauerland),Nordrhein-Westfalen
Marienkrankenhaus Soest,51.5749376,8.1123508,hospitalverbund.de,www.marienkrankenhaus-soest.de,Widumgasse,59494,"Soest, Westfalen",Nordrhein-Westfalen
Mariannen-Hospital Werl,51.551304,7.9063043,hospitalverbund.de,www.mariannen-hospital.de,Unnaer Straße,59457,Werl,Nordrhein-Westfalen
DGD Krankenhaus Sachsenhausen,50.1063183,8.6836318,khs-ffm.de,www.krankenhaus-sachsenhausen.de,Schulstraße,60594,Frankfurt,Hessen
Hospital zum Heiligen Geist,50.1103289,8.6928758,hohg.de,www.hospital-zum-heiligen-geist.de,Lange Straße,60311,Frankfurt,Hessen
Krankenhaus Nordwest,50.1508859,8.617688,sthhg.de,www.krankenhaus-nordwest.de,Steinbacher Hohl,60488,Frankfurt,Hessen
St. Elisabethen-Krankenhaus,50.1265675,8.6384716,artemed.de,www.elisabethen-krankenhaus-frankfurt.de,Ginnheimer Straße,60487,Frankfurt,Hessen
Universitätsklinikum Frankfurt,50.0936814,8.6558742,unimedizin-ffm.de,www.unimedizin-ffm.de,Theodor-Stern-Kai,60596,Frankfurt,Hessen
Ketteler Krankenhaus,50.0943532,8.7846122,ketteler-krankenhaus.de,www.ketteler-krankenhaus.de,Lichtenplattenweg,63071,Offenbach,Hessen
DKD HELIOS Klinik Wiesbaden,50.0866424,8.2699327,dkd-wiesbaden.de,www.helios-gesundheit.de/kliniken/wiesbaden-dkd/,Aukammallee,65191,Wiesbaden,Hessen
Klinikum Hanau,50.1334486,8.9237507,klinikum-stadt-hanau.de,www.klinikum-stadt-hanau.de,Leimenstraße,63450,Hanau,Hessen
ASKLEPIOS Schlossberg Klinik Bad König,49.7451173,9.0050403,asklepios.com,www.asklepios.com/bad-koenig/,Frankfurter Straße,64732,Bad König,Hessen
Kreiskrankenhaus Erbach,49.6516651,9.0006747,gz-odw.de,www.gz-odw.de,Albert-Schweitzer-Straße,64711,Erbach,Hessen
ASKLEPIOS Klinik Seligenstadt,50.0418547,8.9644898,asklepios.com,www.asklepios.com/seligenstadt/,Dudenhöfer Straße,63500,Seligenstadt,Hessen
Bergman Clinics Mathilden-Hospital,50.2871478,9.1136021,bergmanclinics.de,www.bergmanclinics-mathildenhospital.de,Am Schlag,63654,Büdingen,Hessen
AGAPLESION Evangelisches Krankenhaus Mittelhessen,50.5924603,8.648853,agaplesion.de,www.ekm-gi.de,Paul-Zipp-Straße,35398,Gießen,Hessen
Vitos Klinikum Herborn,50.6719358,8.3013781,vitos-herborn.de,www.vitos-herborn.de,Austraße,35745,Herborn,Hessen
DRK Krankenhaus Biedenkopf,50.9134839,8.5230662,drk-biedenkopf.de,www.drk-biedenkopf.de,Hainstraße,35216,Biedenkopf,Hessen
Universitätsklinikum Gießen und Marburg GmbH,50.8165448,8.8064273,uni-marburg.de,www.ukgm.de,Baldingerstraße,35043,Marburg,Hessen
Universitätsklinikum Gießen und Marburg GmbH,50.8165448,8.8064273,uni-marburg.de,www.ukgm.de,Hans-Sachs-Straße,35039,Marburg,Hessen
Universitätsklinikum Gießen und Marburg GmbH,50.8165448,8.8064273,uni-marburg.de,www.ukgm.de,Rudolf-Bultmann-Straße,35039,Marburg,Hessen
Universitätsklinikum Gießen und Marburg GmbH,50.8165448,8.8064273,uni-marburg.de,www.ukgm.de,Schützenstraße,35039,Marburg,Hessen
Kreiskrankenhaus Schotten,50.5065991,9.1041817,gz-wetterau.de,www.gz-wetterau.de,Wetterauer Platz,63679,Schotten,Hessen
AGAPLESION DIAKONIE KLINIKEN KASSEL,51.3141949,9.462728,agaplesion.de,www.diako-kassel.de,Herkulesstraße,34119,Kassel,Hessen
Klinikum Kassel,51.3278859,9.5090224,klinikum-kassel.de,www.gesundheit-nordhessen.de/klinikum-kassel,Mönchebergstraße,34125,Kassel,Hessen
Hardtwaldklinik I,51.061829,9.1730843,neurologische-akutklinik.de,www.wicker.de/kliniken/hardtwaldklinik-i,Hardtstraße,34596,Bad Zwesten,Hessen
Krankenhaus Bad Arolsen,51.3793857,9.0079263,gnh.net,www.gesundheit-nordhessen.de,Große Allee,34454,Bad Arolsen,Hessen
Schön Klinik Bad Arolsen,51.3799023,9.0274855,schoen-kliniken.de,www.schoen-kliniken.de,Hofgarten,34454,Bad Arolsen,Hessen
DRK Krankenhaus Kirchen,50.8061404,7.8792284,,,Bahnhofstraße,57548,Kirchen (Sieg),Rheinland-Pfalz
Geriatrische Fachklinik Rheinhessen-Nahe,49.810787,7.8457355,,,Berliner Straße,55583,Bad Kreuznach,Rheinland-Pfalz
Gesundheitszentrum Glantal,49.7065332,7.6768326,landeskrankenhaus.de,www.glantal-klinik-meisenheim.de,Liebfrauenberg,55590,"Meisenheim, Glan",Rheinland-Pfalz
DRK-Elisabeth-Krankenhaus Birkenfeld,49.6456171,7.1598129,el-stift.de,www.el-stift.de,Walter-Bleicker-Platz,55765,"Birkenfeld, Nahe",Rheinland-Pfalz
Barmherzige Brüder Saffig,50.3778925,7.4195807,landeskrankenhaus.de,www.rhein-mosel-fachklinik-andernach.de,Pöschstr.,56648,Saffig,Rheinland-Pfalz
St. Joseph-Krankenhaus,50.2118978,6.4101199,ct-west.de,www.krankenhaus-pruem.de,Kalvarienberg,54595,Prüm,Rheinland-Pfalz
Städtisches Krankenhaus Pirmasens,49.1930324,7.6176774,KH-Pirmasens.de,www.kh-pirmasens.de,Pettenkoferstraße,66955,Pirmasens,Rheinland-Pfalz
Diakonie-Klinikum Stuttgart,48.7816357,9.1639077,diak-stuttgart.de,www.diakonie-klinik.de,Rosenbergstraße,70176,Stuttgart,Baden-Württemberg
Herzog Karl Klinik,48.7653516,9.165559,klinik-karlshoehe.de,www.kliniik-karlshoehe.de,Hohenzollernstr.,70178,Stuttgart,Baden-Württemberg
Karl-Olga-Krankenhaus,48.7897032,9.204228,sana.de,www.Karl-Olga-Krankenhaus.de,Hackstraße,70190,Stuttgart,Baden-Württemberg
Klinikum Stuttgart,48.7916756,9.1789558,klinikum-stuttgart.de,www.klinikum-stuttgart.de,Hasenbergstraße,70176,Stuttgart,Baden-Württemberg
Klinikum Stuttgart,48.7916756,9.1789558,klinikum-stuttgart.de,www.klinikum-stuttgart.de,Kriegsbergstraße,70174,Stuttgart,Baden-Württemberg
Klinik am Rathenauplatz,49.1315683,9.2189645,privatklinik-heilbronn.de,www.privatklinik-heilbronn.de,Happelstraße,74074,Heilbronn,Baden-Württemberg
Zentrum für Psychische Gesundheit Schwäbisch Hall,49.1084006,9.7321667,de.de,www.zfpg-sha.de,Ringstraße,74523,Schwäbisch Hall,Baden-Württemberg
Ostalb-Klinikum Aalen,48.8490433,10.0859887,kliniken-ostalb.de,www.kliniken-ostalb.de,Im Kälblesrain,73430,Aalen,Baden-Württemberg
Siloah St. Trupdert Klinikum,48.8972522,8.6742114,siloah.de,www.siloah.de,Wilferdinger Str.,75179,Pforzheim,Baden-Württemberg
Neurologische Klinik Selzer,48.6046168,8.3584378,selzer.de,www.selzer.de,Murgtalstraße,72270,Baiersbronn,Baden-Württemberg
Ameos Klinikum Kaiserstuhl,48.1047135,7.631512,ameos.de,www.ameos.eu,Brunngasse,79235,Vogtsburg im Kaiserstuhl,Baden-Württemberg
MediClin Klinik an der Lindenhöhe,48.4796176,7.9560549,mediclin.de,www.klinik-lindenhoehe.de,Bertha-von-Suttner-Straße,77654,Offenburg,Baden-Württemberg
MediClin Klinik an der Lindenhöhe,48.4796176,7.9560549,mediclin.de,www.klinik-lindenhoehe.de,Okenstraße,77652,Offenburg,Baden-Württemberg
SRH Krankenhaus Oberndorf a. N.,48.2958991,8.5784183,srh.de,www.krankenhaus-oberndorf.de,Uhlandstraße,78727,Oberndorf am Neckar,Baden-Württemberg
Helios Klinik Rottweil,48.1654458,8.6123458,helios-gesundheit.de,www.helios-gesundheit.de,Krankenhausstraße,78628,Rottweil,Baden-Württemberg
Herz-Zentrum Bodensee,47.6717495,9.1859157,herz-zentrum.com,www.herz-zentrum.com,Luisenstraße,78464,Konstanz,Baden-Württemberg
Hegau-Bodensee-Klinikum,47.7594886,8.8217946,hbh-kliniken.de,www.glkn.de,Virchowstraße,78224,Singen,Baden-Württemberg
Krankenhaus Stockach,47.8533142,9.0094838,kh-stockach.de,www.krankenhaus-stockach.de,Am Stadtgarten,78333,Stockach,Baden-Württemberg
Janus-Klinik-Eltern-Kind,47.6997625,8.0063932,jkek.de,www.janus-klinik-eltern-kind.de,Höfstraße,79737,Herrischried,Baden-Württemberg
Klinikum Hochrhein,47.6224996,8.2077841,klinikum-Hochrhein.de,www.klinikum-hochrhein.de,Kaiserstraße,79761,Waldshut-Tiengen,Baden-Württemberg
Albklinik Münsingen,48.4046356,9.4896202,klin-rt.de,www.kreiskliniken-reutlingen.de,Lautertalstraße,72525,Münsingen,Baden-Württemberg
Akutklinik Albstadt,48.2647401,9.020126,buchtal-klinik.de,www.buchtal-klinik.de,Unter Nank,72461,Albstadt,Baden-Württemberg
Bundeswehrkrankenhaus Ulm,48.4249898,9.947527,bundeswehr.org,www.ulm.bwkrankenhaus.de,Oberer Eselsberg,89081,Ulm,Baden-Württemberg
Universitätsklinikum Ulm,48.4221748,9.9522164,uniklinik-ulm.de,www.uni-ulm.de,Albert-Einstein-Allee,89081,Ulm,Baden-Württemberg
Alb-Donau Klinikum,48.4085475,9.7895466,adk-gmbh.de,www.adk-gmbh.de,Ulmer Straße,89143,Blaubeuren,Baden-Württemberg
Sana Kliniken Landkreis Biberach,48.1119692,9.7795695,kliniken-bc.de,www.kliniken-bc.de,Marie-Curie-Straße,88400,Biberach an der Riß,Baden-Württemberg
Klinikum Friedrichshafen,47.6728866,9.4303514,klinikum-fn.de,www.klinikum-friedrichshafen.de,Röntgenstraße,88048,Friedrichshafen,Baden-Württemberg
Klinik Tettnang,47.672512,9.5979795,klinik-tt.de,www.medizin-campus-bodensee.de/ueber-uns/standorte/tettnang/,Emil-Münch-Straße,88069,Tettnang,Baden-Württemberg
Internistisches Klinikum München Süd GmbH,48.102374,11.5477936,ikms.de,www.muellerklinik.de,Am Isarkanal,81379,München,Bayern
kbo-Kinderzentrum München,48.10614,11.477925,kbo.de,www.kbo-kinderzentrum-muenchen.de,Heiglhofstr.,81377,München,Bayern
kbo-Kinderzentrum München,48.10614,11.477925,kbo.de,www.kbo-kinderzentrum-muenchen.de,Kölner Platz,80804,München,Bayern
Klinikum Dritter Orden,48.1657409,11.5050996,dritter-orden.de,www.dritter-orden.de,Lachnerstr.,80639,München,Bayern
Krankenhaus für Naturheilweisen,48.0850004,11.5564806,kfn-muc.de,www.kfn-muc.de,Seybothstr.,81545,München,Bayern
München Klinik Bogenhausen,48.1551458,11.6247718,klinikum-muenchen.de,www.muenchen-klinik.de,Englschalkinger Str.,81925,München,Bayern
München Klinik Harlaching,48.0856519,11.5574673,klinikum-muenchen.de,www.klinikum-muenchen.de,Sanatoriumsplatz,81545,München,Bayern
München Klinik Neuperlach,48.0944452,11.656037,klinikum-muenchen.de,www.klinikum-muenchen.de,Oskar-Maria-Graf-Ring,81737,München,Bayern
München Klinik Schwabing,48.1719273,11.5784397,klinikum-muenchen.de,www.klinikum-muenchen.de,Kölner Platz,80804,München,Bayern
München Klinik Thalkirchner Straße,48.1289836,11.5642559,klinikum-muenchen.de,www.klinikum-muenchen.de,Thalkirchner Str.,80337,München,Bayern
Rotkreuzklinikum München,48.1539653,11.5318274,swmbrk.de,www.rotkreuzklinikum-muenchen.de,Nymphenburger Str.,80634,München,Bayern
Helios Amper-Klinikum Dachau,48.2653705,11.4283747,helios-kliniken.de,www.helios-kliniken.de,Krankenhausstr.,85221,Dachau,Bayern
Klinikum Fürstenfeldbruck,48.1809057,11.2593141,klinikum-ffb.de,www.klinikum-ffb.de,Dachauer Str.,82256,Fürstenfeldbruck,Bayern
Berufsgenossenschaftliche Unfallklinik Murnau,47.671591,11.217932,,,Prof.-Küntscher-Straße,82418,Murnau a. Staffelsee,Bayern
RoMed Klinik Bad Aibling,47.8657835,12.0172036,ro-med.de,www.kkh-aibling.de,Harthauser Str.,83043,Bad Aibling,Bayern
Arberlandklinik Viechtach,49.0852461,12.8754441,arberlandkliniken.de,www.arberlankliniken.de,Karl-Gareis-Str.,94234,Viechtach,Bayern
Klinik Bogen,48.9096886,12.6971313,klinik-bogen.de,www.klinik-bogen.de,Mussinanstr.,94327,Bogen,Bayern
Caritas-Krankenhaus St. Josef,49.0068486,12.1189805,csj.de,www.caritasstjosef.de,Landshuter Str.,93053,Regensburg,Bayern
Universitätsklinikum Regensburg,48.9878505,12.0876291,ukr.de,www.ukr.de,Franz-Josef-Strauß-Allee,93053,Regensburg,Bayern
Universitätsklinikum Regensburg,48.9878505,12.0876291,ukr.de,www.ukr.de,Universitätsstraße,93053,Regensburg,Bayern
Spezialklinik Neukirchen GmbH & Co. KG,49.2596977,12.9675514,allergieklinik.de,www.spezialklinik-neukirchen.de,Krankenhausstr.,93453,Neukirchen b. Hl. Blut,Bayern
Bezirksklinikum Wöllershof,49.7488432,12.1796716,medbo.de,www.medbo.de/woellershof,Wöllershof,92721,Störnstein,Bayern
Kreisklinik Wörth a. d. Donau,48.9986811,12.3995138,kkh-woerth.de,www.kkh-woerth.de,Krankenhausstr.,93086,Wörth a. d. Donau,Bayern
Frankenalb-Klinik Engelthal,49.4768888,11.406473,bezirkskliniken-mfr.de,www.frankenalbklinik.de,Reschenbergstr.,91238,Engelthal,Bayern
Universitätsklinikum Würzburg,49.8044728,9.9436281,ukw.de,www.ukw.de,Brettreichstraße,97074,Würzburg,Bayern
HESCURO Klinik Bad Brückenau,50.3076411,9.7852654,hescuro.de,www.hescuro-bad-brueckenau.de,Bahnhofstr.,97769,Bad Brückenau,Bayern
Krankenhaus Markt Werneck,49.9813975,10.0994959,,,Balthasar-Neumann-Platz,97440,Werneck,Bayern
Orthopädisches Krankenhaus Schloss Werneck,49.9803341,10.1003533,kh-schloss-werneck.de,www.bezirk-unterfranken.de,Balthasar-Neumann-Platz,97440,Werneck,Bayern
Bezirkskrankenhaus Augsburg,48.3859215,10.8332095,bkh-augsburg.de,www.bkh-augsburg.de,Geschwister-Schönert-Str.,86156,Augsburg,Bayern
Bezirkskrankenhaus Augsburg,48.3859215,10.8332095,bkh-augsburg.de,www.bkh-augsburg.de,Holbeinstraße,86150,Augsburg,Bayern
die stadtklinik im diako,48.3678819,10.8879326,diako-augsburg.de,www.diako-augsburg.de,Frölichstr.,86150,Augsburg,Bayern
Bezirkskrankenhaus Kaufbeuren,47.8841629,10.6117504,bkh-kaufbeuren.de,www.bkh-kaufbeuren.de,Kemnater Str.,87600,Kaufbeuren,Bayern
Klinikum Memmingen AöR,47.9824672,10.1690292,klinikum-memmingen.de,www.klinikum-memmingen.de,Bismarckstr.,87700,Memmingen,Bayern
Krankenhaus St. Camillus,48.2716722,10.4486085,st-camillus.de,www.krankenhaus-st-camillus.de,Dominikus-Ringeisen-Str.,86513,Ursberg,Bayern
ASKLEPIOS Klinik Lindau GmbH,47.5636691,9.6839427,asklepios.com,www.asklepios.com/lindau/,Friedrichshafener Str.,88131,Lindau,Bayern
UKS - Universitätsklinikum des Saarlandes,49.3068447,7.3453577,uks.eu,https://www.uks.eu/,Kirrberger Straße,66421,Homburg,Saarland
Bundeswehrkrankenhaus Berlin,52.5356575,13.3713474,bundeswehr.org,www.berlin.bwkrankenhaus.de,Scharnhorststraße,10115,Berlin,Berlin
DRK Kliniken Berlin Mitte,52.5573634,13.3752281,drk-kliniken-mitte.de,www.drk-kliniken-bln.de,Drontheimer Straße,13359,Berlin,Berlin
Jüdisches Krankenhaus Berlin,52.5554121,13.3703633,jkb-online.de,www.juedisches-krankenhaus.de,Heinz-Galinski-Straße,13347,Berlin,Berlin
Immanuel-Krankenhaus Berlin,52.4194854,13.1640021,immanuel.de,www.immanuel.de,Lindenberger Weg,13125,Berlin,Berlin
DRK Kliniken Berlin Westend,52.5202624,13.2772889,drk-kliniken-westend.de,www.drk-kliniken-bln.de,Spandauer Damm,14050,Berlin,Berlin
Schloßpark-Klinik,52.5222814,13.2897241,schlosspark-Klinik.de,www.schlosspark-klinik.de,Heubnerweg,14059,Berlin,Berlin
Gemeinschaftskrankenhaus Havelhöhe gGmbH,52.4621451,13.16295,havelhoehe.de,www.havelhoehe.de,Kladower Damm,14089,Berlin,Berlin
Evangelisches Krankenhaus Hubertus,52.4308731,13.219448,ekh-berlin.de,www.ekh-berlin.de,Spanische Allee,14129,Berlin,Berlin
Helios Klinikum Emil von Behring,52.4227073,13.2541807,helios-kliniken.de,www.helios-kliniken.de,Walterhöferstraße,14165,Berlin,Berlin
Kliniken im Theodor-Wenzel-Werk,52.4226335,13.2052083,tww-berlin.de,www.tww-berlin.de,Kamenzer Damm,12249,Berlin,Berlin
Krankenhaus Waldfriede,52.4445001,13.2398662,waldfriede.de,www.waldfriede.de,Argentinische Allee,14163,Berlin,Berlin
DRK Kliniken Berlin Köpenick,52.4401114,13.5957269,drk-kliniken-koepenick.de,www.drk-kliniken-bln.de,Salvador-Allende-Straße,12559,Berlin,Berlin
Evangelisches Krankenhaus Königin Elisabeth Herzberge gGmbH,52.5274171,13.5095087,keh-berlin.de,www.keh-berlin.de,Reichenberger Straße,13055,Berlin,Berlin
Evangelisches Krankenhaus Königin Elisabeth Herzberge gGmbH,52.5274171,13.5095087,keh-berlin.de,www.keh-berlin.de,Weißenseer Weg,10369,Berlin,Berlin
ASKLEPIOS Fachklinikum Brandenburg,52.4230806,12.4800832,asklepios.com,www.lk-brandenburg.brandenburg.de,Klingenbergstraße,14770,Brandenburg an der Havel,Brandenburg
Immanuel Klinikum Bernau Herzzentrum Brandenburg,52.6831766,13.5826611,immanuel.de,www.immanuel.de,Ladeburger Straße,16321,Bernau bei Berlin,Brandenburg
Evangelisches Krankenhaus Luckau gGmbH,51.8537283,13.7032263,ekh-luckau.de,www.ekh-luckau.de,Berliner Straße,15926,Luckau (NL),Brandenburg
ASKLEPIOS Fachklinikum Teupitz,52.1312228,13.6178994,asklepios.com,www.landesklinikteupitz.de,Buchholzer Straße,15755,Teupitz,Brandenburg
Städtisches Krankenhaus Eisenhüttenstadt GmbH,52.1412034,14.6250877,khehst.de,www.khehst.de,Friedrich-Engels-Straße,15890,Eisenhüttenstadt,Brandenburg
Krankenhaus Spremberg,51.5652149,14.3739244,krankenhaus-spremberg.de,www.krankenhaus-spremberg.de,Karl-Marx-Straße,03130,Spremberg (NL),Brandenburg
ASKLEPIOS Klinikum Uckermark GmbH,53.0528981,14.275875,asklepios.com,www.asklepios.com/schwedt,Am Klinikum,16303,Schwedt/Oder,Brandenburg
Universitätsmedizin Rostock,54.084638,12.1028392,uni-rostock.de,www.med.uni-rostock.de,Goethestraße,18055,Rostock,Mecklenburg-Vorpommern
Universitätsmedizin Rostock,54.084638,12.1028392,uni-rostock.de,www.med.uni-rostock.de,Schillingallee,18055,Rostock,Mecklenburg-Vorpommern
Universitätsmedizin Rostock,54.084638,12.1028392,uni-rostock.de,www.med.uni-rostock.de,Südring,18059,Rostock,Mecklenburg-Vorpommern
Helios Kliniken Schwerin,53.6515139,11.4085471,helios-gesundheit.de,www.helios-gesundheit.de,Wismarsche Straße,19055,Schwerin,Mecklenburg-Vorpommern
Helios Hanseklinikum Stralsund GmbH,54.3284936,13.0814709,helios-gesundheit.de,www.helios-gesundheit.de,Knieperdamm,18435,Stralsund,Mecklenburg-Vorpommern
Sana HANSE-Klinikum Wismar GmbH,53.8844672,11.4385667,sana.de,www.sana.de,Dr.-Unruh-Straße,23970,Wismar,Mecklenburg-Vorpommern
Evangelisches Krankenhaus Bethanien gGmbH,54.0781465,13.3834484,odebrecht-stiftung.de,www.odebrecht-stiftung.de,Martin-Luther-Straße,17489,Greifswald,Mecklenburg-Vorpommern
Klinikum Karlsburg,53.9704708,13.6100796,drguth.de,www.klinikum-karlsburg.de,Greifswalder Straße,17495,Karlsburg,Mecklenburg-Vorpommern
MediClin Krankenhaus Plau am See,53.4788895,12.2834487,mediclin.de,www.mediclin.de,Quetziner Straße,19395,Plau am See,Mecklenburg-Vorpommern
ELBLANDKLINIKUM Radebeul,51.108031,13.650612,elblandkliniken.de,www.elblandkliniken.de/radebeul,Heinrich-Zille-Str.,01445,Radebeul,Sachsen
Universitätsklinikum Leipzig AöR,51.330238,12.3870755,uniklinik-leipzig.de,www.uniklinik-leipzig.de,Liebigstr.,04103,Leipzig,Sachsen
St. Joseph-Krankenhaus Dessau,51.817703,12.1969078,alexianer.de,www.alexianer.de,Auenweg,06847,Dessau-Roßlau,Sachsen-Anhalt
St. Joseph-Krankenhaus Dessau,51.817703,12.1969078,alexianer.de,www.alexianer.de,Teichstraße,06844,Dessau-Roßlau,Sachsen-Anhalt
Diakoniekrankenhaus Halle,51.494253,11.958975,diakoniewerk-halle.de,www.diakoniewerk-halle.de,Mühlweg,06114,Halle (Saale),Sachsen-Anhalt
Krankenhaus St. Elisabeth und St. Barbara,51.4775469,11.9681942,krankenhaus-halle-saale.de,www.krankenhaus-halle-saale.de,Mauerstraße,06110,Halle (Saale),Sachsen-Anhalt
Klinikum in den Pfeifferschen Stiftungen GmbH,52.1152065,11.6678862,pfeiffersche-stiftungen.de,www.pfeiffersche-stiftungen.de,Pfeifferstraße,39114,Magdeburg,Sachsen-Anhalt
Universitätsklinikum Magdeburg,52.102679,11.6152851,ovgu.de,www.med.uni-magdeburg.de,Leipziger Straße,39120,Magdeburg,Sachsen-Anhalt
AMEOS Klinikum Haldensleben,52.2855412,11.3769246,ameos.eu,www.ameos.eu/standorte/ameos-ost/haldensleben/ameos-klinikum-haldensleben/,Kiefholzstraße,39340,Haldensleben,Sachsen-Anhalt
Diakonie-Krankenhaus Harz GmbH,51.7721178,10.7906065,diako-harz.de,www.diako-harz.de,Brockenstraße,38875,Oberharz am Brocken OT Elbingerode,Sachsen-Anhalt
AMEOS Klinikum Bernburg GmbH,51.7823822,11.7352523,ameos.de,www.klinikum-bernburg.de,Kustrenaer Straße,06406,Bernburg,Sachsen-Anhalt
SALUS gGmbH Fachklinikum Uchtspringe,52.5391414,11.597177,salus-lsa.de,www.salus-lsa.de,Stadtseeallee,39576,Stendal,Sachsen-Anhalt
SALUS gGmbH Fachklinikum Uchtspringe,52.5391414,11.597177,salus-lsa.de,www.salus-lsa.de,Westwall,39576,Stendal,Sachsen-Anhalt
"Katholisches Krankenhaus ""St. Johann Nepomuk"" Erfurt",50.9477408,11.0850534,kkh-erfurt.de,www.kkh-erfurt.de,Haarbergstraße,99097,Erfurt,Thüringen
SRH Wald-Klinikum Gera,50.8685809,12.0511131,srh.de,www.waldklinikumgera.de,Straße des Friedens,07548,Gera,Thüringen
Universitätsklinikum Jena,50.8853957,11.6208646,uni-jena.de,www.uniklinikum-jena.de,Am Klinikum,07747,Jena,Thüringen
Universitätsklinikum Jena,50.8853957,11.6208646,uni-jena.de,www.uniklinikum-jena.de,Bachstraße,07743,Jena,Thüringen
Universitätsklinikum Jena,50.8853957,11.6208646,uni-jena.de,www.uniklinikum-jena.de,Beutnitzer Straße,07749,Jena,Thüringen
Dr. Becker Burg-Klinik,50.7824358,10.1275561,dbkg.de,www.dbkg.de/kliniken/dr-becker-burg-klinik,Am Burgplatz,36466,Dermbach,Thüringen
SRH Krankenhaus Waltershausen-Friedrichroda GmbH,50.8609546,10.5603936,srh.de,www.krankenhaus-waltershausen-friedrichroda.de,Reinhardsbrunner Straße,99894,Friedrichroda,Thüringen
REGIOMED Klinikum Hildburghausen,50.4292246,10.7284895,regiomed-kliniken.de,www.regiomed-kliniken.de/startseite-klinikum-hildburghausen.aspx,Schleusinger Straße,98646,Hildburghausen,Thüringen
Zentralklinik Bad Berka GmbH,50.890018,11.2670446,zentralklinik.de,www.zentralklinik.de,Robert-Koch-Allee,99437,Bad Berka,Thüringen
Helios Klinik Blankenhain GmbH,50.8601016,11.3394497,helios-gesundheit.de,www.helios-kliniken.de/blankenhain,Wirthstraße,99444,Blankenhain,Thüringen
Fachkrankenhaus für Dermatologie Schloss Friedensburg GmbH,50.5653275,11.45887,schloss-friedensburg.de,www.schloss-friedensburg.de,Schloßstraße,07338,"Leutenberg, Thüringen",Thüringen
Klinik an der Weißenburg GmbH,50.731318,11.4483644,klinik-weissenburg.de,www.klinik-weissenburg.de,Weißen,07407,Uhlstädt-Kirchhasel,Thüringen
ASKLEPIOS Fachklinikum Stadtroda GmbH,50.8619133,11.7265646,asklepios.com,www.asklepios.com/stadtroda,Bahnhofstraße,07646,Stadtroda,Thüringen
Sternbach-Klinik Schleiz GmbH,50.5765925,11.8175753,sternbach-klinik-schleiz.de,www.sternbach-klinik-schleiz.de,Berthold-Schmidt-Straße,07907,Schleiz,Thüringen
,51.123384,13.9306037,,,,,,
,51.123384,13.9306037,,,,,,
